{
"type": "FeatureCollection",
"name": "Baco Bucayao RIS",
"crs": { "type": "name", "properties": { "name": "urn:ogc:def:crs:OGC:1.3:CRS84" } },
"features": [
{"type":"Feature","properties":{"id":27,"canal_id":27,"canal_type":"SUB LATERAL","remarks":"SUB LATERAL C3","Length":1633,"canal_widt":null,"station_no":null,"canal_leng":null,"station__1":null,"station__2":null,"canal":"Lateral A Extension  (BAYOG)","canaltype":"LATERAL"},"geometry":{"type":"LineString","coordinates":[[121.195038802641136,13.363988679891035],[121.195022879692445,13.363684601782742],[121.194946018246625,13.363452900664493],[121.194727963493065,13.363081564323224],[121.194573457595524,13.36298539385513],[121.193031585081911,13.362992196190724],[121.192241127423117,13.36326221791073],[121.191344452331791,13.363870098895191],[121.19089748193872,13.364149629655369],[121.190722318283903,13.36426099068874],[121.190531516421714,13.364306935469971],[121.190257707912309,13.364271980704206],[121.189851282530398,13.36420247828981],[121.189711110862021,13.364184600770978],[121.189597787397616,13.364121505109017],[121.189270348801003,13.363960251851299],[121.188706484558793,13.363694664630096],[121.188385243616921,13.363547959710937],[121.187872695445506,13.363316667101031],[121.187739575661496,13.363253169688679],[121.187691583367496,13.36318459236726],[121.187629065061415,13.36290860355583],[121.187516694839999,13.362264183431261],[121.187447161669979,13.361831096743439],[121.187355514139512,13.361371706848226],[121.18708319848642,13.360968416614247],[121.186702662830399,13.360416911749498],[121.18647567807561,13.360141988404061],[121.186265033443107,13.359980938427999],[121.186009293237518,13.359928442208446],[121.184560038771295,13.36000450845415],[121.184211211905506,13.360012412805528],[121.183851952365501,13.360038288023709],[121.183595306734205,13.360137092356069],[121.183590396305448,13.360140420767202]]}},
{"type":"Feature","properties":{"id":2,"canal_id":2,"canal_type":"LATERAL","remarks":"LATERAL CANAL AA","Length":2026,"canal_widt":null,"station_no":null,"canal_leng":null,"station__1":null,"station__2":null,"canal":"Lateral B","canaltype":"LATERAL"},"geometry":{"type":"LineString","coordinates":[[121.128199699946478,13.254444654381668],[121.128406933024877,13.254463423217269],[121.129731548983912,13.254508595213185],[121.129851816000325,13.254515226501958],[121.130497687256423,13.254480675357039],[121.131106455159397,13.254437226705793],[121.13200582527395,13.254383448584001],[121.132766435986099,13.254276199190761],[121.133314975938418,13.254231504542172],[121.133759404253595,13.254177728832198],[121.134423962636305,13.254156774744938],[121.135733843983971,13.25398240574545],[121.135748756975502,13.254079294711252],[121.135763304924595,13.255122899698996],[121.135776334598106,13.255338593837889],[121.136433868103225,13.255956659219667],[121.136874152950512,13.256418529355276],[121.137354998607705,13.257048878995167],[121.137933937695294,13.257771565008996],[121.138441305229904,13.258312858957709],[121.138744631336479,13.258619748968542],[121.138777036705889,13.258736317417583],[121.138779875394476,13.259391759582016],[121.1388348273519,13.260131062936351],[121.138851603401307,13.260830585557173],[121.140024802669629,13.262491972801792],[121.140383759428815,13.263086144013743]]}},
{"type":"Feature","properties":{"id":5,"canal_id":5,"canal_type":"SUB LATERAL","remarks":"BAYOG SUB LATERAL A2","Length":3065,"canal_widt":null,"station_no":null,"canal_leng":null,"station__1":null,"station__2":null,"canal":"Lateral C","canaltype":"LATERAL"},"geometry":{"type":"LineString","coordinates":[[121.105814297597917,13.288986945298767],[121.105679589937765,13.288702415278504],[121.104839953664211,13.286361657413609],[121.104762501137429,13.286151505832661],[121.104698087869394,13.285736729656508],[121.104643099650204,13.285261387131682],[121.104578986601098,13.284736851702496],[121.104552592262081,13.28438106192513],[121.104519183579896,13.283992751212258],[121.10449234858541,13.28361817670935],[121.104470244850901,13.283245649896019],[121.104474579540707,13.283121704594167],[121.104546079133002,13.282942595929384],[121.104642108536112,13.282762738546488],[121.104818357814295,13.282506801037741],[121.105029195547885,13.282390016080539],[121.105660584628509,13.282025402561459],[121.105841271547604,13.281930345720507],[121.10631979204112,13.281225794414997],[121.106988047787908,13.280052968735991],[121.107338020001393,13.27933169332025],[121.107470170794301,13.27887676985055],[121.107687779545699,13.277511696914518],[121.107835152563098,13.276512458224589],[121.107870787003094,13.276313072550341],[121.107925259296493,13.27591298717026],[121.108014634174083,13.27536480244474],[121.108068196708999,13.275055631527398],[121.108152715831579,13.27462673848564],[121.108223924258809,13.274357231113415],[121.108561664256925,13.27317390432524],[121.108628085798841,13.272931100157296],[121.108646167264496,13.272690371192247],[121.108673977324699,13.27225326076514],[121.108693152025197,13.271550810207689],[121.108747533468687,13.271277884889109],[121.10895108907421,13.27087113868736],[121.109183844541207,13.270435974575721],[121.109327509895948,13.270248525748777],[121.109538894597208,13.270101625576197],[121.110345570513033,13.26998691985605],[121.111819579054085,13.269819686799146],[121.113765513431829,13.26957739464298],[121.114355589023347,13.269525248949618],[121.115673574803182,13.269554158677739],[121.115989256110922,13.269577566630996],[121.116306675701608,13.269502326646846]]}},
{"type":"Feature","properties":{"id":1,"canal_id":1,"canal_type":"MAIN","remarks":"MAIN CANAL","Length":23627,"canal_widt":null,"station_no":null,"canal_leng":null,"station__1":null,"station__2":null,"canal":"MAIN CANAL","canaltype":"MAIN"},"geometry":{"type":"LineString","coordinates":[[121.135644615575998,13.233642136522617],[121.13561975428911,13.234051710752469],[121.135792068155396,13.23458921710434],[121.136015953616521,13.234924997635687],[121.136338224166579,13.235592128125418],[121.136577226615785,13.236651661236188],[121.136562849585616,13.236985008884059],[121.136325347438799,13.237828939552838],[121.136243637734395,13.238019423856176],[121.135461292291893,13.238284013523842],[121.134026184514909,13.238794889226039],[121.132158005817899,13.239510679615208],[121.131904294466096,13.239636331981494],[121.131561178698405,13.24042320951861],[121.13127479136142,13.24114182459531],[121.130712620194203,13.242562605928221],[121.129793513399406,13.244899456919249],[121.12960298260731,13.245364440215928],[121.129478380126002,13.246143059622412],[121.129468614037307,13.246444485141529],[121.129360972459111,13.247300172665879],[121.129285513952794,13.247917919765181],[121.1292312011864,13.24817862350819],[121.129259530571289,13.248589573455378],[121.129320960076896,13.249489926704019],[121.129370280218396,13.250183208619248],[121.129261879725391,13.250602374500717],[121.129169264859996,13.25089174880916],[121.128895083878987,13.251805852987149],[121.128666803683899,13.252525347392741],[121.128391512374407,13.253359718148021],[121.128153109562021,13.254120518959411],[121.128041157859798,13.254496310130868],[121.127827823246989,13.255249782007196],[121.127740169366618,13.255517102005156],[121.127762788925295,13.255698062727188],[121.127845182728393,13.256015306692969],[121.127998993171303,13.256598559216748],[121.128157552751787,13.257133481291159],[121.128506396810494,13.258356782490832],[121.128587682888408,13.258564884891616],[121.128852211675806,13.259194648395757],[121.128963428818807,13.259455097631918],[121.129011844453004,13.25961625399257],[121.129064318432796,13.260134917299462],[121.129093395189216,13.260730463605769],[121.129096917741506,13.261580003521029],[121.129132062588198,13.261747710868029],[121.129217407797896,13.262067394834631],[121.129361239515191,13.262561667201007],[121.129442296447195,13.262902546201058],[121.129540845165707,13.263210508630932],[121.129616243125298,13.263425013144658],[121.129733646322208,13.263660036941181],[121.1299831986301,13.26393138111227],[121.130562306833411,13.264591163481319],[121.1312598478589,13.265366040502258],[121.13180805550391,13.265988214116147],[121.13220451052041,13.266461201425539],[121.132596600892413,13.266920200665082],[121.132737027987005,13.26715837975239],[121.132768065425481,13.267307386347449],[121.132756688555389,13.267831547989646],[121.132756641281702,13.267833647060957],[121.132830598283491,13.26822730213293],[121.13293936120408,13.268831157837091],[121.133041421591898,13.269274283230358],[121.133137439719604,13.26960970269378],[121.133437011791003,13.27008961118627],[121.133783331778787,13.27052800684012],[121.134081880867697,13.270871662052977],[121.134437772039504,13.271045442809429],[121.134710522826694,13.271164534542882],[121.135367677951507,13.271456874394698],[121.136119781728993,13.271735502136989],[121.136949101873498,13.272024625823548],[121.137444840957983,13.272230022996009],[121.138501451767993,13.272688567697129],[121.139922232754898,13.27329857073499],[121.140457311117203,13.273491937218246],[121.140628217280394,13.273577346089429],[121.141367550630406,13.27388308098724],[121.142178425741903,13.274264670218848],[121.143390757055215,13.274760971221061],[121.144064184330404,13.275068853648905],[121.144964088092394,13.275590859384218],[121.145455923883702,13.275834912573041],[121.147083014641296,13.27670429762842],[121.147564852497794,13.27694866223862],[121.147895900972514,13.277169754007058],[121.148632209238215,13.277809502837629],[121.149089650174901,13.278193622171496],[121.149657120683216,13.278707902697409],[121.150600462745416,13.279534003765592],[121.151339633501195,13.280116751019438],[121.151886755195918,13.280600754456668],[121.152529836957115,13.28110646169146],[121.152853544085815,13.281394570839048],[121.153555899098521,13.282015231990989],[121.153965675678919,13.282414177737532],[121.154809223485017,13.28326857884246],[121.155395711466099,13.283830958958239],[121.155939300124302,13.284344794852823],[121.156422432992898,13.284529445956089],[121.157426685779384,13.284884917577658],[121.158609394736601,13.285232145133921],[121.159605811223898,13.285547442183878],[121.160089911604004,13.28557850950587],[121.160516253675112,13.285407063602809],[121.160692629504496,13.285586161246039],[121.161067083188385,13.286421107206529],[121.161470915029,13.287192108010681],[121.162193785885307,13.28862900343074],[121.162922450170896,13.290051204379051],[121.163989043424209,13.292054237936584],[121.164522125473894,13.293110190759311],[121.1651718831191,13.294406312324229],[121.165830584390605,13.295614512191049],[121.167435860652091,13.298870954298559],[121.167873743796207,13.299843588607667],[121.168017876666511,13.300135110616759],[121.168153432344084,13.300337868592909],[121.168182848506405,13.300513759508318],[121.168087903271697,13.300913367621137],[121.167935524541605,13.301672626620407],[121.167884261883685,13.3022355110969],[121.16789534317742,13.302367215801288],[121.167959889283381,13.302607692067376],[121.168117915430713,13.302720916060169],[121.168464187219797,13.302997547186761],[121.169266158078599,13.303678844981649],[121.170035913502105,13.304379695982391],[121.170782806124691,13.30503090361494],[121.171582943751915,13.305745345379892],[121.172362540049193,13.30646700264171],[121.172696562621013,13.306750417961309],[121.172876633937904,13.30695326248771],[121.172970448518598,13.30718982605894],[121.173063627865716,13.307536768427655],[121.173047929289211,13.307687712737488],[121.173015463674602,13.307893504476588],[121.172998423113768,13.307946597082756],[121.172513246704483,13.309458229645086],[121.171939400610611,13.311046330780584],[121.171695087405382,13.311814092188497],[121.171426996011419,13.31239910229438],[121.171098211173401,13.313142208893151],[121.170614761585199,13.314261763585328],[121.170459460908916,13.314617365718521],[121.170340160893304,13.31519942580038],[121.1703159714706,13.315471533575368],[121.170229325004811,13.316220303883462],[121.170212372968905,13.316596242173196],[121.170268550640799,13.31691268760181],[121.170369439405306,13.317657868285172],[121.170430729834493,13.318171913153526],[121.170428279780879,13.318425850844621],[121.1703656082599,13.31862535162011],[121.170267862466901,13.31877371728226],[121.170015356811007,13.318921557790128],[121.169680028357121,13.31908105945582],[121.169323762515106,13.319627216221969],[121.169046359723495,13.320072823225383],[121.16822691834021,13.321871659132169],[121.16779341767382,13.322605607720282],[121.167367593712399,13.323072624556241],[121.166814583369117,13.324051514637732],[121.166450480357696,13.324658402662942],[121.165856464555802,13.32571079347694],[121.165305724612807,13.326675796378431],[121.165021356327316,13.32718788223811],[121.164877183045107,13.327597679301128],[121.164820070277401,13.327836226830557],[121.16477480607351,13.328388241264314],[121.164771719675798,13.328425880907339],[121.164691885526111,13.329113653554828],[121.164518532518898,13.330091122809719],[121.164320318983883,13.33130300636658],[121.164112993196795,13.332576002738501],[121.163901821401609,13.333907236927349],[121.163808356037208,13.334486672553988],[121.163740185566795,13.33480256458925],[121.163618350354994,13.334955492974371],[121.163253911334394,13.335209136868329],[121.161801619447999,13.336026473128911],[121.161545248311697,13.336180746362869],[121.1614490787086,13.336324716984839],[121.161387405764003,13.336699053705999],[121.161460009209605,13.337492146982409],[121.161598687716307,13.337838837224989],[121.162123369850619,13.338510456404238],[121.162548849089603,13.339045662354797],[121.162953272012402,13.339531138721018],[121.162991621944613,13.339629645465109],[121.162974334282382,13.3397128132303],[121.162944819147114,13.339854804940439],[121.162805099899003,13.340310487524349],[121.162583340227499,13.34107850033517],[121.162332794600189,13.3418835912122],[121.162127698213695,13.342700905613789],[121.161944985376593,13.343223883708607],[121.161948981888699,13.343510726927022],[121.16206169515911,13.343850628093669],[121.162394197279909,13.34491603302904],[121.16254670065031,13.345512199774012],[121.162806245906012,13.346531108977437],[121.163003541093602,13.347292742609589],[121.163193971660903,13.34793781992583],[121.163182427749291,13.34834162458583],[121.163137989549696,13.348839121399678],[121.163149301827701,13.349908814985993],[121.163173632745597,13.350738085377188],[121.163221917400506,13.351040216758816],[121.163607128268595,13.351362219895449],[121.164013577734991,13.351806003326278],[121.164070140728612,13.351949262610271],[121.164431275296579,13.35308004522682],[121.164405089595121,13.353319887262691],[121.164353590366119,13.353701025549618],[121.164352874986321,13.353763992643328],[121.164407080234909,13.353937154388349],[121.164704000699416,13.354770137807021],[121.165020049602205,13.355624172498819],[121.165088416848903,13.35594522972346],[121.165130371696904,13.356061696224318],[121.165144292,13.356314827208053],[121.165178581120102,13.356875529602206],[121.165211604629619,13.357344716063222],[121.165264654277706,13.358461688618382],[121.165313307435298,13.359117916165669],[121.165341347053499,13.359666475810235],[121.165404036293396,13.360459019976288],[121.165450305611401,13.361139374625612],[121.165454317442311,13.361275737309914],[121.165459355177404,13.36144697089674],[121.165434486256316,13.361779307745726],[121.165381129485297,13.362981416620608],[121.165364352061886,13.36373047241276],[121.165366583117105,13.363878704888771],[121.165346508138001,13.364027307188993],[121.165235634306597,13.364308165408117],[121.165032230867396,13.364617346656786],[121.164702983530589,13.36498722635061],[121.1642057875559,13.365596201829208],[121.163772745855383,13.36608914811335],[121.163367773873986,13.36657684153136],[121.163027177184716,13.366981473231688],[121.162812048194994,13.367190866698138],[121.162562711689205,13.367418552081729],[121.162458261548508,13.367527640163779],[121.16213593673011,13.368017731719609],[121.1617830540482,13.368566473710661],[121.161699399127016,13.368720905609369],[121.161691491531414,13.369032187587658],[121.161722282646181,13.369800539074687],[121.161706853627393,13.370030479963551],[121.16166606749411,13.370132464744472],[121.161492641205001,13.370348749049722],[121.161383596652513,13.370413241464918],[121.161122935804514,13.370561506992972],[121.160950070913813,13.370724079019149],[121.160867117472904,13.370912984673881],[121.160861231422999,13.371242946914439],[121.16102161425151,13.372041022929817],[121.161279058522595,13.373154178335287],[121.161422510056894,13.373977934293297],[121.161581992674797,13.374706294745208],[121.161615052167306,13.375086396912859],[121.161612259011818,13.375488483575264],[121.161575220536491,13.37571201115559],[121.161264209093787,13.376297222175181],[121.160982010140785,13.376756036824348],[121.160726944381409,13.377159013331916],[121.16057532550451,13.377391329039328],[121.160394162330803,13.37760367351331],[121.159874704896694,13.37835450125487],[121.159240448929097,13.379293659819279],[121.158666575864913,13.380124313208009],[121.15829752766021,13.380678625956991],[121.15795888290701,13.381074199507967],[121.157835868673303,13.381268439294589],[121.157375787213795,13.38264891224844],[121.157151872543608,13.383252127987102],[121.156984319048902,13.38366354154731],[121.156971661514618,13.383809088654159],[121.157007688245898,13.384608424685601],[121.156950905941102,13.38483205016454],[121.157002720703005,13.385120223264728],[121.1572281403989,13.385723950442879],[121.157594397356419,13.386471498276908],[121.157673309776797,13.386698117154339],[121.157841404993221,13.387275901686218],[121.157917149573805,13.387443823348308],[121.158092398159098,13.38774735800382],[121.158455945257103,13.3884600298137],[121.158941023307079,13.389369911309918],[121.159190983472698,13.389694858926358],[121.159921925400383,13.390198417745758],[121.160329825312587,13.39051587872836],[121.160732238052319,13.390829137120193],[121.1612453247769,13.391319453475301],[121.161378012523599,13.391515091207776],[121.161579363205604,13.392032057562588],[121.161682617573604,13.392354157112702],[121.161815410409517,13.392611973210281],[121.161888813461218,13.392844377539678],[121.161945922735711,13.393096622236124],[121.161981398393195,13.393347446364581],[121.161940496834205,13.393625600593797],[121.161869019066799,13.394044222412479],[121.161859742569007,13.394305825855641],[121.161878160973899,13.39509072517159],[121.161871082761408,13.395296789397698],[121.161903323700884,13.39605581543594],[121.161966073745006,13.39631149905617],[121.161967016340782,13.396609663382069],[121.162063611229314,13.397093627185782],[121.162180306621281,13.39757030926849],[121.162321545102714,13.398035118600291],[121.162683223779183,13.398941658773918],[121.162959354910811,13.399531522026191],[121.163172592182718,13.399876920404978],[121.163484592707619,13.4002173460136],[121.163759752697402,13.40053837846717],[121.163916615536294,13.4008237477211],[121.164123447877813,13.40110324881563],[121.164336045465888,13.40120877088321],[121.164764761104493,13.401415135143798],[121.165035590688504,13.401656723269086],[121.165305501760599,13.402042041915806],[121.165451252579757,13.402332546682313],[121.165648704983923,13.402649432249046],[121.166222388373967,13.403798623491173],[121.166672355795896,13.404519304992485],[121.167000142384268,13.406065271465838],[121.167717813886668,13.40752017072202],[121.168468430021221,13.408999627075122],[121.168898011929898,13.410591592271286]]}},
{"type":"Feature","properties":{"id":4,"canal_id":4,"canal_type":"SUB LATERAL","remarks":"BAYOG SUB LATERAL A1","Length":1188,"canal_widt":null,"station_no":null,"canal_leng":null,"station__1":null,"station__2":null,"canal":"Lateral B1","canaltype":"SUB-LATERAL"},"geometry":{"type":"LineString","coordinates":[[121.130416327390634,13.278772170655008],[121.130375880206302,13.278717193186658],[121.130137580395797,13.2782963771381],[121.129737630124197,13.277546835813219],[121.129375267165386,13.276906269710411],[121.129120215444118,13.276504341295839],[121.128887140714042,13.276168017779181],[121.128745792968076,13.275852092788327],[121.1286467684955,13.275436913071021],[121.128572228510507,13.275049910885699],[121.128527177699041,13.274675041167583],[121.128537531184762,13.274366098425025],[121.128556652280992,13.274085579425906],[121.128639758676371,13.273532694317909],[121.128722075886898,13.272952421894827],[121.128717221872989,13.272673682479747],[121.128682019126003,13.272316487450238],[121.12861143876124,13.271885689399904],[121.128553636963332,13.271415868919533],[121.128466094487962,13.270853417628638],[121.128323070193986,13.270235306891033],[121.128229793989135,13.269900177042274],[121.12811969432525,13.269415303668298],[121.127980799275448,13.268779620891182]]}},
{"type":"Feature","properties":{"id":14,"canal_id":14,"canal_type":"SUB LATERAL","remarks":"SUB LATERAL A6","Length":1128,"canal_widt":null,"station_no":null,"canal_leng":null,"station__1":null,"station__2":null,"canal":"Lateral E","canaltype":"LATERAL"},"geometry":{"type":"LineString","coordinates":[[121.13670717997762,13.358557478626009],[121.136713374109902,13.358476501437417],[121.136694323922598,13.358341564972202],[121.136600235986108,13.358221816931586],[121.136499495221216,13.35807513607789],[121.136286951932917,13.357860799040099],[121.1363590529715,13.357700652160851],[121.13643298808303,13.357551905548739],[121.136667006509498,13.357340299941972],[121.136851446969033,13.357099885528392],[121.137071299389746,13.356841446216501],[121.137197656058618,13.356666634198168],[121.137295300162137,13.356447929424405],[121.13761685193586,13.355577173379539],[121.137860871546053,13.355008061303174],[121.137960670159629,13.354711151624143],[121.138098766705099,13.354425697771996],[121.138189846381053,13.354318687459317],[121.139132144081486,13.353334144693919],[121.139780218218434,13.352700952230563],[121.139956923155822,13.352521428802945],[121.140029227016299,13.352427485780929],[121.140120006730697,13.352223966658396],[121.140276528198328,13.351835029711644],[121.140505025757889,13.351394812649817],[121.140688549164409,13.35100201009856],[121.140709817973658,13.350934104272312],[121.140713450048196,13.350851617377177],[121.140672219029796,13.350782973626867],[121.140454880845695,13.35061793051301],[121.14018792965858,13.350398983739929],[121.139975962499307,13.350236899129467],[121.139975537542114,13.350236492669211]]}},
{"type":"Feature","properties":{"id":24,"canal_id":24,"canal_type":"SUB LATERAL","remarks":"SUB LATERAL C1","Length":3085,"canal_widt":null,"station_no":null,"canal_leng":null,"station__1":null,"station__2":null,"canal":"Lateral A6","canaltype":"SUB-LATERAL"},"geometry":{"type":"LineString","coordinates":[[121.201566245365115,13.354557023212614],[121.200137060360362,13.352629954597015],[121.199765458787795,13.35228320009263],[121.198929271416006,13.35150202452369],[121.197833161393916,13.350533964219874],[121.197208918541108,13.349968820364754],[121.196618605175487,13.349414180197579],[121.195849750110995,13.348712240801611],[121.195014530703148,13.347886493388613],[121.194337765363201,13.347258593812954],[121.194172263837501,13.347239208247048],[121.193418870527196,13.34725808787001],[121.192734989551596,13.347262305543582],[121.191660763981204,13.347248443503508],[121.19097778463204,13.347264363095411],[121.19098299235948,13.347085512513047],[121.190925888643534,13.34701577632095],[121.190799433848596,13.346924797010814],[121.190360573299273,13.346591214241585],[121.189999550355253,13.346353829771916],[121.189360551518234,13.345831072420445],[121.188755662076588,13.345447214420362],[121.187933515135398,13.344813838884868],[121.187198369297519,13.344261989832619],[121.186771288444959,13.34396394802156],[121.186770417672804,13.343963340344818],[121.183843907550113,13.342166306427167],[121.183715589215822,13.342065166332455],[121.183316686158719,13.341504645261772],[121.1831261647487,13.34120759682382],[121.182734236974369,13.340679664289604],[121.182396094066277,13.340218256693802],[121.18134702008291,13.33869968151175],[121.181279323915561,13.338630373735606],[121.181178472518113,13.338571961089768],[121.18054399943901,13.33827799327856],[121.180035988839776,13.338073910848205],[121.178944683770084,13.337596622799939],[121.178875802649614,13.33757664716885],[121.178760121459021,13.337584006744622],[121.177330084202694,13.338082811330754]]}},
{"type":"Feature","properties":{"id":25,"canal_id":25,"canal_type":"SUB LATERAL","remarks":"SUB LATERAL C1-A","Length":724,"canal_widt":null,"station_no":null,"canal_leng":null,"station__1":null,"station__2":null,"canal":"Lateral A7","canaltype":"SUB-LATERAL"},"geometry":{"type":"LineString","coordinates":[[121.194363964661846,13.340798192872143],[121.191910461040038,13.339921182312935],[121.191683766124484,13.339828476749521],[121.191502267276846,13.339773540964675],[121.191307959782222,13.339773166834918],[121.191100813389809,13.339831402480849],[121.190831951641186,13.339988382858648],[121.190327564472213,13.340455040161839],[121.18972935392479,13.341069525600759],[121.189126568065518,13.34165324692869],[121.188600840533383,13.342159585916397],[121.187680878232698,13.343002156252773],[121.187287185317217,13.343485442070179],[121.186771288444959,13.34396394802156]]}},
{"type":"Feature","properties":{"id":22,"canal_id":22,"canal_type":"SUB LATERAL","remarks":"SUB LATERAL B3","Length":1673,"canal_widt":null,"station_no":null,"canal_leng":null,"station__1":null,"station__2":null,"canal":"Lateral A4","canaltype":"SUB-LATERAL"},"geometry":{"type":"LineString","coordinates":[[121.234811580334494,13.33386032025461],[121.234782477026201,13.333763931299028],[121.23452416125528,13.33312157738815],[121.234352515943598,13.332841388946049],[121.234123119186719,13.332541749716848],[121.233799688904398,13.332274396849641],[121.233337185715598,13.33192698260839],[121.232700014701194,13.33141467478368],[121.232025369086202,13.330909490099602],[121.231531233591198,13.330547012516179],[121.231108141522995,13.330243424691695],[121.230510079001689,13.32978879241697],[121.229774266933816,13.32921944441251],[121.229112451714201,13.328739087685431],[121.228811129511698,13.328508932864608],[121.228226702970488,13.328098971005927],[121.227767762774405,13.327766053135949],[121.227266175544301,13.32739835205877],[121.226885927262103,13.327107251476709],[121.226664088537206,13.326967314547691],[121.226501695613109,13.326946304414747],[121.226421084546615,13.326964229007627],[121.22618873334801,13.327048937370787],[121.223957658162576,13.327900409636005],[121.223748975910965,13.328029511306193],[121.222817714185851,13.328885309459789],[121.222711109359508,13.328952470870039]]}},
{"type":"Feature","properties":{"id":26,"canal_id":26,"canal_type":"SUB LATERAL","remarks":"SUB LATERAL C2","Length":3278,"canal_widt":null,"station_no":null,"canal_leng":null,"station__1":null,"station__2":null,"canal":"Lateral A8","canaltype":"SUB-LATERAL"},"geometry":{"type":"LineString","coordinates":[[121.20137008674628,13.362518166044453],[121.19984268985705,13.360982483404198],[121.199048793958596,13.36119168465326],[121.197279439315892,13.360406671658794],[121.195749539648787,13.360129496212089],[121.19540402473163,13.359054211524883],[121.19557534917503,13.358533190959252],[121.195132642684285,13.358296241205258],[121.194705508721526,13.358050292948001],[121.193967116259429,13.357405382586919],[121.193986919009731,13.357313929181673],[121.193226657503985,13.356205321495766],[121.192176628428058,13.356047025109381],[121.192332069846969,13.355716167662816],[121.19203373378042,13.35552578821475],[121.191734296795445,13.355344509458849],[121.191333079078262,13.355089632693115],[121.190739375710208,13.354727110402699],[121.190434591921814,13.354570082390735],[121.189658492941646,13.353717413299073],[121.189131782055412,13.353104367561796],[121.188941372901596,13.352857067413005],[121.188683873822796,13.35265901564447],[121.18815676065671,13.352401617623562],[121.18765312610762,13.35217594630082],[121.187341012375299,13.352023262624938],[121.186343416550216,13.351537846364154],[121.185801891429008,13.351288858110632],[121.185194291662796,13.350983288985711],[121.184552201657908,13.350702260593581],[121.184188785735699,13.350523187097178],[121.183375353250099,13.350160857789238],[121.18296252892489,13.349975682771351],[121.182327337747594,13.3496825584833],[121.182061729382198,13.349551572149601],[121.181359086313208,13.349248874678358],[121.181036378215708,13.349033757328698],[121.180674366274999,13.348820845229119],[121.180347405713206,13.34858407517798],[121.179847239756398,13.348251520510455],[121.179533713167416,13.348047460276911],[121.179083420754893,13.347746848925681],[121.178856869831705,13.347589924969432],[121.178455105553596,13.347442597471657],[121.1783329766089,13.347429537813611],[121.177743125495169,13.347489600497143]]}},
{"type":"Feature","properties":{"id":654,"canal_id":null,"canal_type":"SUB LATERAL","remarks":"SUB LATERAL A8","Length":1597,"canal_widt":null,"station_no":null,"canal_leng":null,"station__1":null,"station__2":null,"canal":null,"canaltype":null},"geometry":{"type":"LineString","coordinates":[[121.130923466946626,13.378586683140993],[121.130305453394215,13.378761010991015],[121.130084900276785,13.379475005915673],[121.129965795540471,13.379893027952448],[121.12990336386143,13.38047510310942],[121.129846909456433,13.381148857434718],[121.129931681506719,13.381714567248352],[121.12991469111104,13.382183525582606],[121.129785261359501,13.38307273661993],[121.129741883715965,13.383495682086924],[121.129731375299173,13.383990869685109],[121.129679411094244,13.384804291148239],[121.12965126049788,13.385275348462127],[121.129751575494296,13.385559723012221],[121.130502218853579,13.386616898366023],[121.131242332534114,13.387595450015395],[121.132225049334522,13.389481235680442],[121.131604465925292,13.39077262820231],[121.131464749507515,13.391117407945556],[121.131433307815271,13.391581895883601]]}},
{"type":"Feature","properties":{"id":652,"canal_id":null,"canal_type":"MAIN","remarks":"KILO-KILO DAM MAIN CANAL","Length":702,"canal_widt":null,"station_no":null,"canal_leng":null,"station__1":null,"station__2":null,"canal":null,"canaltype":null},"geometry":{"type":"LineString","coordinates":[[121.194386984229908,13.340796736594566],[121.194515579232828,13.340872504689004],[121.195196345842149,13.341568001066097],[121.195586927239717,13.341861253740193],[121.19600352060634,13.342116868966373],[121.196613113420341,13.342439380068498],[121.197013960841304,13.34260315537133],[121.197204862817031,13.342644997200797],[121.197388320011683,13.342715124701213],[121.197595633984491,13.343052615726515],[121.19767724068943,13.343337595721508],[121.198144461460956,13.343994227482062],[121.198440146425597,13.344471509910866],[121.198650732562839,13.34478625142215],[121.198874538452657,13.345068141071792]]}},
{"type":"Feature","properties":{"id":11,"canal_id":11,"canal_type":"SUB LATERAL","remarks":"SUB LATERAL A3","Length":1192,"canal_widt":null,"station_no":null,"canal_leng":null,"station__1":null,"station__2":null,"canal":"Lateral B2A","canaltype":"SUB-LATERAL"},"geometry":{"type":"LineString","coordinates":[[121.150980275932199,13.329120523083898],[121.151041387563097,13.329065988965867],[121.15115890289799,13.328940982807771],[121.151193481686406,13.328868373477881],[121.151217518522998,13.32877388243336],[121.151230819916279,13.328624298178779],[121.151215683164693,13.328199355482088],[121.151212784120901,13.327999373284291],[121.151147627904095,13.327581974326698],[121.151113441721407,13.327267214280921],[121.151010710291004,13.326747959792959],[121.15090941125068,13.326302561551056],[121.150786156514783,13.325785313958789],[121.150711589053003,13.325411357893106],[121.150648506042288,13.325007340633739],[121.150577911743497,13.324552189172179],[121.150463340336017,13.324016600305431],[121.150368999056909,13.323591256124697],[121.15030769304451,13.323295294220149],[121.150220167126193,13.322840049525242],[121.150129147028494,13.32243529483649],[121.150049922303012,13.32208700464783],[121.149966284742703,13.321735724421988],[121.149883276961503,13.32133060058228],[121.149773450379783,13.32084180382383],[121.149708776433897,13.320504930288537],[121.149604706316808,13.32004436732128],[121.149513789384315,13.31985877741875],[121.149357047574711,13.319562241958687],[121.149252565448009,13.31947309822942],[121.148828766705805,13.319176996710649],[121.148597320612197,13.319036003271096],[121.148595201973833,13.319034812271582]]}},
{"type":"Feature","properties":{"id":651,"canal_id":null,"canal_type":"MAIN","remarks":"CALAPAN DAM MAIN CANAL LEFT","Length":1331,"canal_widt":null,"station_no":null,"canal_leng":null,"station__1":null,"station__2":null,"canal":null,"canaltype":null},"geometry":{"type":"LineString","coordinates":[[121.17502112551,13.373519646134691],[121.174947917030522,13.373466549948004],[121.174688001521019,13.373597789803535],[121.173372969688415,13.373488671090206],[121.172858453736126,13.373505303472541],[121.172521089549491,13.373500443571482],[121.172362617858852,13.373623632241602],[121.172266738831254,13.373768530621351],[121.17220443831286,13.373834697891459],[121.172155963848738,13.374058709225904],[121.171957035527385,13.374355485440031],[121.171900920266651,13.374737119950774],[121.171737182598136,13.374768030326127],[121.171555287866497,13.374751154683244],[121.171163091904759,13.374968340548161],[121.17091178505062,13.375206110725649],[121.170784070854907,13.375428613609319],[121.170739546054364,13.37555284966264],[121.170565892692636,13.376531304624528],[121.170490062784296,13.376683845676729],[121.170648680738225,13.377427255714219],[121.170728312063332,13.378009301908742],[121.170796090137358,13.378390739306164],[121.170830848787574,13.378466245345951],[121.170844309648345,13.378580393132852],[121.171138239072548,13.381637574585909],[121.171329353751076,13.382124138881531],[121.171892568307328,13.383661349769485],[121.172114365337904,13.385143739826272],[121.172159171755482,13.386292046804039],[121.173191573801674,13.386138720028809],[121.173143628003942,13.386418825386096]]}},
{"type":"Feature","properties":{"id":657,"canal_id":29,"canal_type":"LATERAL","remarks":"LATERAL D","Length":1548,"canal_widt":null,"station_no":null,"canal_leng":null,"station__1":null,"station__2":null,"canal":"Lateral A2 Extension (BAYOG)","canaltype":"SUB-LATERAL"},"geometry":{"type":"LineString","coordinates":[[121.164657371544223,13.32837049747296],[121.1644464783584,13.3283398456963],[121.164078686639044,13.328328743579718],[121.163814273402608,13.32841472405554],[121.163318129485106,13.32865688795165],[121.1629602944288,13.32883423237003],[121.162341402861415,13.32914130627891],[121.161995963091286,13.32930074683785],[121.161572441918096,13.329498853524449],[121.161045032352504,13.329767195167971],[121.16037841055352,13.330078915494388],[121.160052329679814,13.33023922069512],[121.159291244193994,13.330599253052839],[121.158917229848115,13.330781698018631],[121.158310144647203,13.33106978216307],[121.157666632763011,13.331380603321509],[121.157335381439111,13.331524503232929],[121.156854492784305,13.33176151167155],[121.156564474731084,13.331901474338148],[121.155922204095717,13.332226466373291],[121.155546377416997,13.332427977259499],[121.155281907373109,13.332573638485298],[121.1549433201357,13.332762505970642],[121.15485631884782,13.332824726893747],[121.151955207664841,13.334328267588571]]}},
{"type":"Feature","properties":{"id":668,"canal_id":19,"canal_type":"SUB LATERAL","remarks":"SUB LATERAL B2","Length":4437,"canal_widt":null,"station_no":null,"canal_leng":null,"station__1":null,"station__2":null,"canal":"Lateral AA","canaltype":"SUB-LATERAL"},"geometry":{"type":"LineString","coordinates":[[121.203093630239238,13.326060681417013],[121.203278888487958,13.326905885935901],[121.203459358405624,13.327853705456558],[121.203701528826826,13.328908558795051],[121.203850714189812,13.329452470042229],[121.20432751826327,13.331218643907921],[121.204382433183881,13.331289110298266],[121.204638283280801,13.33193417186347],[121.204533724207167,13.332230801041447],[121.204138992216514,13.333545663573281],[121.204098449584492,13.333782619425859],[121.204222235810519,13.334010589816179],[121.204292038082983,13.334138796810917],[121.205547623142408,13.334931027588489],[121.205668222595733,13.335019235514036],[121.205993443043411,13.335455692875488],[121.206279634710413,13.33574332968627],[121.206405514994302,13.335841160816098],[121.206461865393052,13.335921054758328],[121.206949670101054,13.337292500462031],[121.207031981193822,13.337885288563232],[121.207292021854101,13.339799952919014],[121.207423302164358,13.340586541254684],[121.207450023978652,13.340790054284453],[121.207411621078379,13.341350404407782],[121.2073542072647,13.342848279429468],[121.207341761325722,13.343442371321316],[121.20740413365435,13.344005408076542],[121.207489259036393,13.344733981049961],[121.207496662612883,13.344852916950346],[121.20731064794218,13.3460202206041],[121.207372495765057,13.346654318315148],[121.207291457011578,13.347528235435506],[121.207185370892702,13.347971639069165],[121.206958993487504,13.348597775045961],[121.207143396301987,13.349862552009592],[121.207223167645111,13.350498650443551],[121.207834687154616,13.351499857051131],[121.208892414708927,13.353230657706709],[121.209639893851502,13.354386796484899],[121.210676604658957,13.355963470115274],[121.213741021448669,13.360477982923364],[121.214088076759737,13.362630143269689]]}},
{"type":"Feature","properties":{"id":660,"canal_id":31,"canal_type":"LATERAL","remarks":"LATERAL F","Length":2213,"canal_widt":null,"station_no":null,"canal_leng":null,"station__1":null,"station__2":null,"canal":"Lateral A4 Extension","canaltype":"SUB-LATERAL"},"geometry":{"type":"LineString","coordinates":[[121.164405929418464,13.353322513047292],[121.164461231551741,13.353355290572035],[121.165473021264887,13.353415287526824],[121.1664992954897,13.35345532776817],[121.167315260660033,13.353495968584589],[121.167379285814917,13.353541327663107],[121.167630392948695,13.353858710171387],[121.167943273051819,13.354227910534425],[121.168526327473671,13.354900384612968],[121.168804261064935,13.355227025794434],[121.168982446396569,13.355334510099613],[121.169379301540985,13.355442711770369],[121.169834584677602,13.355508562502461],[121.170024588256254,13.355475553192557],[121.170159616983071,13.355464794871718],[121.170229089474944,13.355510702586182],[121.170605107239084,13.35559576985982],[121.17078180472906,13.35572567524474],[121.171017723295947,13.356128851947402],[121.1713694990205,13.356720219141955],[121.171759305127921,13.357309693177379],[121.172010031956617,13.357725379312711],[121.172297212230106,13.358229202660949],[121.172498419104059,13.358558740412947],[121.172718835853814,13.358913454806084],[121.173015830965468,13.359403409413813],[121.173088725952539,13.359559344341042],[121.173124697052103,13.359817755345254],[121.173156346420555,13.360298887892597],[121.1732338287066,13.361368314777803],[121.173305812556464,13.362113933478806],[121.1733538089577,13.362873470730779],[121.173404644240918,13.363412024855339],[121.173555905566744,13.363681051033456],[121.17378110660961,13.364061527371511],[121.174090992560011,13.364533510647677],[121.174243324248806,13.364777021342331],[121.174718021587111,13.365516199890488],[121.175064751561194,13.366100079860889],[121.175134460830222,13.36612199835062],[121.175283502202788,13.366119619596283],[121.176006036903317,13.366073889119475],[121.176240666297232,13.366064356255544],[121.176415568899799,13.366080696504129]]}},
{"type":"Feature","properties":{"id":662,"canal_id":3,"canal_type":"LATERAL","remarks":"LATERAL A EXTENSION (BAYOG)","Length":6086,"canal_widt":null,"station_no":null,"canal_leng":null,"station__1":null,"station__2":null,"canal":"Lateral B2","canaltype":"SUB-LATERAL"},"geometry":{"type":"LineString","coordinates":[[121.132675529530971,13.267859543512003],[121.132334547456225,13.26793178489997],[121.129627085435828,13.268400612029799],[121.127918108531532,13.26878092702345],[121.126043172688696,13.269115931394719],[121.12582810223843,13.269097101457717],[121.124820795772521,13.268549257977604],[121.12469997052996,13.268487043124198],[121.123957516345698,13.268355093139295],[121.123066363824449,13.268223962067443],[121.122825479202362,13.268254766461018],[121.122499101454864,13.268463167631644],[121.122022742656057,13.268839107660215],[121.121733785126338,13.269015204381965],[121.12098721317949,13.268910045225331],[121.120142513719628,13.268844404663358],[121.118282939001006,13.268812942127587],[121.117438463583596,13.269070945473242],[121.116396583781693,13.269495767166649],[121.116396003127036,13.269504728468084],[121.116356324647299,13.270117087166449],[121.116365079725213,13.270670986542131],[121.116221532092794,13.271036451675227],[121.115587515691303,13.272323221185777],[121.114880073804798,13.273761526816727],[121.114200494539404,13.275132843179742],[121.113724394190712,13.2760933294888],[121.113758167413096,13.276657986133909],[121.114237714189599,13.277488872978267],[121.11443393395561,13.277833040622317],[121.114538987312216,13.278547008833467],[121.114570672353921,13.27899444947311],[121.1146603874965,13.279794672026158],[121.114815982023003,13.280407210311838],[121.115070918998398,13.281270759213758],[121.115264305269505,13.281942708834761],[121.115575326684606,13.282285196739398],[121.11591153298302,13.282703152187635],[121.1163419719839,13.28327826806124],[121.116542423275817,13.283623035148679],[121.116754097326279,13.284085787554439],[121.117019844135584,13.284764070433821],[121.117216501518897,13.285280212871458],[121.117384661475484,13.285719684506789],[121.117816890127699,13.286498208039291],[121.1183996182681,13.287493212217708],[121.118657661146202,13.287963591318251],[121.119008182329694,13.288593896191019],[121.119360283198105,13.28923007023428],[121.119508768376889,13.289472315152317],[121.119053955091502,13.290044214699961],[121.118579203163705,13.290705379019537],[121.118263760355163,13.291103789789807],[121.117821605628663,13.291673625426112],[121.11696337939938,13.292789437110862],[121.116311608273207,13.293646774591684],[121.11566712147301,13.294506780032608],[121.114961143464313,13.295473474198799],[121.114425152489218,13.296182603459171],[121.113817465017704,13.297108420226232],[121.113367275283807,13.297772469801389],[121.112715099326408,13.298741282242348],[121.112600100687203,13.298866562150479],[121.112084864688697,13.299237369962336],[121.111159619670289,13.299952874348122],[121.110798641536121,13.300204682402859],[121.110448783589021,13.300509253801827],[121.110278956858608,13.30065123469822],[121.110181276764294,13.300849787289366],[121.110209471043689,13.301135127733348],[121.110284819034817,13.30157404967564],[121.110428565448316,13.30220281781183],[121.110430027674411,13.302228806011257],[121.110476207809143,13.302374668882461],[121.11022114613084,13.302553664421669],[121.108249184535879,13.303214069093292],[121.108094402160646,13.303384503589738],[121.108033144945281,13.303862486276827],[121.107698063705655,13.308148403964994],[121.10771304901229,13.308524252595026],[121.108261410931647,13.310700096779152]]}},
{"type":"Feature","properties":{"id":663,"canal_id":663,"canal_type":"SUB LATERAL","remarks":"BAYOG SUB LATERAL A4","Length":null,"canal_widt":null,"station_no":null,"canal_leng":null,"station__1":null,"station__2":null,"canal":null,"canaltype":null},"geometry":{"type":"LineString","coordinates":[[121.110462784778605,13.302396398688145],[121.110639970804371,13.303295102838156],[121.111013129978005,13.304071270276109],[121.11265694051653,13.306648521966888],[121.113907422066191,13.308661744641615],[121.114557431397927,13.309939069953719],[121.114878699179854,13.31039985504424],[121.115822687821961,13.311699399245034],[121.115964909603576,13.314806559086675]]}},
{"type":"Feature","properties":{"id":664,"canal_id":6,"canal_type":"SUB LATERAL","remarks":"BAYOG SUB LATERAL A3","Length":3126,"canal_widt":null,"station_no":null,"canal_leng":null,"station__1":null,"station__2":null,"canal":"Lateral C1","canaltype":"SUB-LATERAL"},"geometry":{"type":"LineString","coordinates":[[121.119506074817537,13.289480768836555],[121.119942529537695,13.289844764392409],[121.120511757657695,13.290270178886621],[121.12118685183151,13.290782709937167],[121.121371459458601,13.29092076775451],[121.121698056061589,13.291170745331906],[121.121914671002642,13.291409511453654],[121.122049026426112,13.291615487496626],[121.122187819596263,13.292007322927391],[121.122614000504441,13.293307424430406],[121.122734177405533,13.293703911672324],[121.122995334365925,13.294462556339713],[121.123086971874343,13.294627986282041],[121.123542115428464,13.295088249076974],[121.123965282911385,13.295509960547017],[121.124486702385482,13.296000404981553],[121.124721563350093,13.296236815421251],[121.125039652895083,13.296587826024506],[121.125214388260133,13.296885096475668],[121.125455027849355,13.297387837077727],[121.125790494050989,13.298086234328791],[121.126391363448803,13.299391644372418],[121.126633119337782,13.299907430676839],[121.126744765008411,13.300438908726051],[121.126862594378295,13.301109434493553],[121.126885553235908,13.301543434102328],[121.126862765993806,13.30201542609734],[121.1267691179971,13.302954946026448],[121.12671789188002,13.303467403254439],[121.126548544381109,13.304933282940789],[121.126479713693513,13.305492036150879],[121.12644754231718,13.305881339637288],[121.126370181646109,13.306145686761838],[121.126246325212321,13.30633476578531],[121.125969994906299,13.306564424866091],[121.125376053986315,13.307074622478309],[121.124910516437296,13.307547848178009],[121.124758813583611,13.307872571193201],[121.124624642455117,13.30823213573473],[121.124386874745596,13.308908711311579],[121.124299580950506,13.30910474215829],[121.124191791461016,13.309209745879951],[121.123845923305495,13.309463259637569],[121.123177244787897,13.309956027561299],[121.122728394624318,13.310250591878559],[121.122245138301409,13.310603372741587],[121.122044013711999,13.31074695660452],[121.121888385135989,13.310961336670617],[121.121741750904704,13.311277688353551],[121.121705659310209,13.311500247412511],[121.12168155432208,13.311683474120359],[121.121653082440815,13.31198193079752],[121.1216264656303,13.312362224541399],[121.121602419661798,13.312709461173368],[121.121596819465921,13.3131033142052],[121.121586814128904,13.313393749853629],[121.121614415813013,13.313561354608733],[121.121823394112766,13.315379975273382],[121.121885131310549,13.315491544547115],[121.123268460326628,13.316720180580205],[121.1232704309963,13.317225949601905],[121.123080580246622,13.317492749326517]]}},
{"type":"Feature","properties":{"id":670,"canal_id":21,"canal_type":"SUB LATERAL","remarks":"SUB LATERAL B2A","Length":3076,"canal_widt":null,"station_no":null,"canal_leng":null,"station__1":null,"station__2":null,"canal":"Lateral A3","canaltype":"SUB-LATERAL"},"geometry":{"type":"LineString","coordinates":[[121.205526993881065,13.334895160205688],[121.205791351044354,13.334506358859711],[121.206137058949835,13.334017934321341],[121.206213940629823,13.333963824526105],[121.206286203613502,13.333963620612671],[121.2065743520251,13.334077876327568],[121.207174740224048,13.334298539975968],[121.207332019996713,13.33439094180201],[121.207573889572615,13.334525443319651],[121.208061845130075,13.334956604742162],[121.208824740861232,13.335640104355505],[121.209480856822296,13.336227710327533],[121.20986672666659,13.336565947519574],[121.210264185466841,13.336909579594806],[121.210378018061689,13.336965480870052],[121.210511596276405,13.337008817606941],[121.210931898795508,13.337098447255206],[121.211230107585394,13.337168318589661],[121.211788662175081,13.337300678337188],[121.21217322298331,13.337381988209451],[121.213049692409697,13.337585519384351],[121.213374092559107,13.337653917206801],[121.21355210515911,13.33769732216259],[121.213678439659247,13.33773524421489],[121.213678796515126,13.33782734845092],[121.213408553733629,13.338385139354243],[121.213400426631949,13.338506534883031],[121.213464861461475,13.338599090637754],[121.213550721553588,13.338659571974331],[121.214161772847703,13.338982528508412],[121.214301216486618,13.339135326764628],[121.214677464249647,13.339694635551091],[121.215103122250412,13.340281618757],[121.215291448271827,13.34053394731607],[121.215361328260286,13.340870458956264],[121.215428731953594,13.341121936132458],[121.215464915033238,13.341543227564001],[121.215523002276797,13.341796663363038],[121.21555092393325,13.342076201588814],[121.215604952880767,13.342600853611165],[121.215586581563528,13.342991397739016],[121.215590650422214,13.343352242670619],[121.215551001524744,13.343614099324702],[121.215432971290028,13.344063656009565],[121.215362201108022,13.344552005452694],[121.215352573226596,13.34465497548883],[121.21536492190971,13.344784558526182],[121.215388613233912,13.344896307885978],[121.21543136254239,13.345690100938487],[121.215462825590507,13.345784584778279],[121.215511453290517,13.345897959499119],[121.215649382928163,13.345981098864003],[121.215933595129655,13.346125807127368],[121.216274994847197,13.346224360724966],[121.216680207744645,13.346359798872113],[121.21696993796921,13.346456975858773],[121.217191813821714,13.346562690783106],[121.217379623577401,13.346656223023681],[121.217470767731697,13.346762745896998],[121.217571545831504,13.346870608936539],[121.217830713137118,13.347002242848349],[121.218458591422078,13.347337859798307],[121.219183004180493,13.347781195306],[121.219214960365704,13.34781593606624],[121.21969042395213,13.348638981213107],[121.219995818470423,13.349138072589808],[121.220709136081297,13.350360064779336],[121.220919199021751,13.3507826577678],[121.221409987250709,13.35163022935558],[121.2216122879273,13.352017160275187],[121.222007324326214,13.352721772934789],[121.222338461076518,13.353361880905329],[121.222623253177019,13.353872966969311],[121.222924207598695,13.354401525309539],[121.223169526948809,13.354853167437458],[121.223303727381918,13.355104545598458],[121.223519399771405,13.35548900944875],[121.223574188177182,13.355565425783556],[121.223603649796601,13.355642970218277],[121.223462757264215,13.355755493072062],[121.222932571168698,13.356157127899928],[121.222552178607202,13.356467124881169],[121.220788077091299,13.357844928147008],[121.219551031057605,13.358848571837402],[121.219152296413014,13.359214075909874],[121.218403003168561,13.359845606082404],[121.218026466484574,13.361855025322683],[121.217984559190242,13.362494382053045]]}},
{"type":"Feature","properties":{"id":671,"canal_id":null,"canal_type":"SUB LATERAL","remarks":"SUB LATERAL B2A-1","Length":null,"canal_widt":null,"station_no":null,"canal_leng":null,"station__1":null,"station__2":null,"canal":null,"canaltype":null},"geometry":{"type":"LineString","coordinates":[[121.213678439659247,13.33773524421489],[121.21407880757549,13.33771908759164],[121.215813839480077,13.337482324123471],[121.215955534953395,13.337469151643187],[121.216085683545742,13.337480188435578],[121.217180604939074,13.337852248636279],[121.21798787571403,13.338127144660566],[121.218196218796194,13.338327994384857],[121.21902761942853,13.339259915987586],[121.220209777813935,13.340141668644277],[121.220336553565303,13.340190127830587],[121.220513868570436,13.340253111265689],[121.221279717900202,13.34039916935],[121.222629062224627,13.340611055737142],[121.223869003183097,13.340801926456521],[121.224420141171706,13.340911047068808],[121.2246759314732,13.341126394241543],[121.2279339541209,13.34776740036844],[121.228501014266911,13.3485304507333]]}},
{"type":"Feature","properties":{"id":673,"canal_id":null,"canal_type":null,"remarks":null,"Length":null,"canal_widt":null,"station_no":null,"canal_leng":null,"station__1":null,"station__2":null,"canal":null,"canaltype":null},"geometry":{"type":"LineString","coordinates":[[121.174975628557931,13.373607909982148],[121.174977332101108,13.373913957850521],[121.174591368035223,13.374613484657322],[121.173918601501043,13.375083374967996],[121.173548762581603,13.375237645336631],[121.173088858282028,13.375112693909912],[121.172699870129662,13.376212394874536],[121.172070007621869,13.37630593071516]]}},
{"type":"Feature","properties":{"id":8,"canal_id":8,"canal_type":"LATERAL","remarks":"LATERAL A","Length":12502,"canal_widt":null,"station_no":null,"canal_leng":null,"station__1":null,"station__2":null,"canal":"Lateral C3","canaltype":"SUB-LATERAL"},"geometry":{"type":"LineString","coordinates":[[121.165107585340721,13.294556010521228],[121.164500212403709,13.29507692851123],[121.16363903791158,13.295873342335653],[121.16325033912382,13.296273860785288],[121.162976972451219,13.29648439355374],[121.162725218413001,13.296619146502682],[121.162403570997711,13.296686153550237],[121.162088840379198,13.296735251133718],[121.161668877638903,13.296961943220511],[121.161155087852606,13.297315913300078],[121.160963666712618,13.297417397599638],[121.160819863180095,13.297397960865078],[121.160488587181504,13.297351943504756],[121.160146798281815,13.297414697577491],[121.159582298979586,13.297891942790539],[121.159076247333189,13.298467159928538],[121.158729344277319,13.298870485001508],[121.158163418797201,13.299315790136371],[121.158109940970007,13.299375200941828],[121.158105779873694,13.299379911647609],[121.1576321886306,13.29990680295561],[121.157033634639802,13.300734557953129],[121.156580019432582,13.30128668078472],[121.156088723876096,13.301913651985419],[121.155748698337121,13.30238278187991],[121.155497443445881,13.302639649322412],[121.155157456762282,13.302967805928928],[121.154640120722405,13.303406700371729],[121.154211926988907,13.3037815465871],[121.153105311399699,13.304690943030588],[121.152546053913213,13.30514948936975],[121.152234975719296,13.305427693395247],[121.151920859880804,13.305824937577892],[121.151779049238002,13.305989921800087],[121.151601499124595,13.306203864300638],[121.151443042628117,13.306520338889799],[121.151316788088209,13.3070228171234],[121.1512188493937,13.307558203462561],[121.151137235642608,13.307901176961559],[121.151118995601209,13.308235694794448],[121.151134126420786,13.308761167816421],[121.151235018702693,13.309742764875271],[121.151375184677491,13.311361665491297],[121.151421016804008,13.312008135726678],[121.151487882974081,13.31297435067013],[121.151562373858113,13.314084056626868],[121.1515597464184,13.314798313764982],[121.151621508917799,13.315417759496556],[121.151761208223803,13.316175917939258],[121.151784991358596,13.316545339916539],[121.151738735181084,13.31689185211116],[121.151649428499013,13.317146309720162],[121.151351315409215,13.31750493738417],[121.150940755388092,13.317961291176189],[121.150480926582603,13.318203777924278],[121.1502929498306,13.318281346594537],[121.149181674578614,13.318660796862968],[121.1486762995508,13.318945412325291],[121.14804717821761,13.31963893734428],[121.147730447460205,13.32001328623109],[121.147120166944902,13.32072105972421],[121.146527294183599,13.321371804272069],[121.14615289273992,13.321759896419511],[121.146013467406107,13.321936205972078],[121.145856021933682,13.322195358093818],[121.145666398005901,13.322569817258678],[121.145469324798995,13.322935344741197],[121.145071852655207,13.323482635524821],[121.14481122468149,13.323794552670561],[121.144362081096887,13.324357236258914],[121.144356519722805,13.324364203481402],[121.144021370312402,13.324804259412907],[121.143710866369517,13.325255404489177],[121.143374581123496,13.325727097755809],[121.143124932427199,13.32609541155618],[121.142856435233782,13.32649472430778],[121.142656418246901,13.326708662240208],[121.142182942979915,13.32711466368238],[121.141656851913993,13.327589617461099],[121.141307906565004,13.327894979277389],[121.140778704848117,13.328372850452281],[121.140579841105321,13.328456653692729],[121.14030791181851,13.328486145237978],[121.140063856885902,13.328675604850888],[121.139919139961918,13.329121101852861],[121.139951261193588,13.32983618871789],[121.140151267241507,13.33100198065579],[121.140253919140306,13.331920698912118],[121.140254986122002,13.332401907458648],[121.140144890649921,13.333016409638351],[121.139897138677597,13.334532430371111],[121.139699586713419,13.335752697484089],[121.139608442011607,13.336523190043856],[121.13972658965848,13.337168147327327],[121.139878972000204,13.337632995626761],[121.139928009211005,13.338113225591208],[121.13987953549865,13.338461415066877],[121.139840161094682,13.338902077624722],[121.139893112002298,13.339222498409306],[121.140043885143598,13.339422809687379],[121.140264011174921,13.339524857907069],[121.140303698936506,13.339544614534292],[121.141126726520596,13.339954316887317],[121.141963261585602,13.340357379010069],[121.142689659222697,13.340666070519259],[121.142995732541081,13.340872979062167],[121.143126121386999,13.341019267053699],[121.143122747838703,13.341178339773737],[121.143024242872798,13.341640889928032],[121.1428722039403,13.342445786551568],[121.142616244377706,13.343611399205226],[121.142412881993195,13.344497268121607],[121.142131273363006,13.345188584562198],[121.1415421276416,13.34654201912565],[121.140667870538621,13.348812632819339],[121.139975537542114,13.350236492669211],[121.139561070434794,13.351088858208371],[121.138975598971513,13.352316523592528],[121.137689406442007,13.353150383119941],[121.137111300114015,13.353599105184657],[121.136848475818695,13.353833957525508],[121.13671677559249,13.354064258242486],[121.136582282456814,13.354357760055038],[121.136387142992106,13.355055749251566],[121.136208304148184,13.355241587123579],[121.135224350345695,13.356104239724642],[121.13477183193281,13.356500342618238],[121.133555362994912,13.356730659040618],[121.130756335550316,13.357262522940152],[121.1285720999646,13.357854345136566],[121.127065920492896,13.358220142299418],[121.125874802793007,13.35850853236883],[121.125712406884603,13.358548000927],[121.125539561502293,13.358748779617509],[121.12541420273152,13.35917599699993],[121.125331832291508,13.359417481486551],[121.124654469861213,13.360597261383468],[121.123933144825216,13.361772926235918],[121.123114400688991,13.362907249913039],[121.122480043807215,13.363693594325239],[121.121975307591114,13.364355756990927],[121.121801272219287,13.364658784389169],[121.121435505703516,13.365894279413627],[121.120793297740917,13.36784740284379],[121.120327643750599,13.369138616197988],[121.120090469378596,13.369691746514031],[121.119369598082798,13.371405215515228],[121.119443440006691,13.371575375415178],[121.119974506052401,13.371805126466178],[121.121780704366117,13.372577478373691],[121.122665666796806,13.372940599990066],[121.123049891427996,13.373128984107128],[121.124705863149416,13.37449281285928],[121.125552474010391,13.375190738728488],[121.12558071816818,13.375208548502878],[121.125818845881398,13.375358996088112],[121.126092549886806,13.375297844140199],[121.127188229057495,13.374803810751789],[121.127632689687502,13.37463665189135],[121.129084031069198,13.374434396827832],[121.129381019735106,13.374390441218891],[121.129431887907216,13.374384077970745],[121.12948175328377,13.374416101230519],[121.129517908198835,13.374479149936676],[121.129886524688175,13.375311222347214],[121.130525543354395,13.377274302290811],[121.130564394058453,13.377546817759098],[121.130939734672779,13.378625843889845],[121.131561496033797,13.380732295486304],[121.132428111085332,13.381833943981999],[121.132837061800771,13.382189384955113],[121.133110903666378,13.382735864648851],[121.133139309565593,13.382825762136708],[121.13448464033776,13.384462736398364],[121.134589433965388,13.384849694749128],[121.134746330093591,13.385188500771957],[121.135411371222119,13.385598586244912],[121.135756868825894,13.386078063241058],[121.136147902111645,13.386802670708235],[121.136737641942673,13.387195315595855],[121.137134610645319,13.387288985577531]]}},
{"type":"Feature","properties":{"id":12,"canal_id":12,"canal_type":"SUB LATERAL","remarks":"SUB LATERAL A4","Length":2315,"canal_widt":null,"station_no":null,"canal_leng":null,"station__1":null,"station__2":null,"canal":"Lateral B2A-1","canaltype":"SUB-LATERAL"},"geometry":{"type":"LineString","coordinates":[[121.129025617107899,13.335236630637619],[121.129193926239012,13.334990776120929],[121.12951490305251,13.334443924408427],[121.129837599625617,13.333886845164498],[121.130107901504601,13.333408378299021],[121.130353232466916,13.33298452733975],[121.13070821111522,13.332384599312507],[121.130996607068298,13.331885356779589],[121.13119640422569,13.331523026631022],[121.131561131632409,13.330872724245026],[121.131620430136294,13.330776210939552],[121.131708060383119,13.330716446558229],[121.132079166979096,13.330505842174707],[121.132673874532401,13.330156593242661],[121.133019079742411,13.329954403899928],[121.133327590413515,13.329788226286437],[121.133625128011914,13.32959359641097],[121.134041981757505,13.329297267459259],[121.134152564571593,13.329216226660318],[121.134273614561806,13.329054579577342],[121.134438676866495,13.328781979796686],[121.134611943945785,13.3284301260255],[121.134648896459694,13.32833029683006],[121.134740404890294,13.327926914342319],[121.134903904908697,13.3272816727904],[121.135002762976697,13.32693045556594],[121.135151198235988,13.326346468479516],[121.135203788374099,13.32625843632421],[121.135287286904799,13.3261861431108],[121.135638021479309,13.325924922926196],[121.136192929584894,13.325474442582731],[121.136790704455308,13.325019006408327],[121.137157374289714,13.324749779161907],[121.137322287146802,13.324706805638073],[121.137693937322709,13.324640630290368],[121.138503261523994,13.32451229921117],[121.139154140437498,13.324417510986317],[121.139808634592484,13.324315620724349],[121.14027361585552,13.324236303864431],[121.141148559575399,13.32409997508222],[121.141791118373305,13.323983927603191],[121.142514965777295,13.323890857483882],[121.143069799846216,13.323839085991599],[121.143281499016609,13.323845235243766],[121.143730594464202,13.323984954294993],[121.143873784416982,13.324037865125899],[121.144165894042601,13.324206377427442],[121.144362081096887,13.324357236258914],[121.144362081096887,13.324357236258914],[121.144362081096887,13.324357236258914]]}},
{"type":"Feature","properties":{"id":13,"canal_id":13,"canal_type":"SUB LATERAL","remarks":"SUB LATERAL A5","Length":1295,"canal_widt":null,"station_no":null,"canal_leng":null,"station__1":null,"station__2":null,"canal":"Lateral F","canaltype":"LATERAL"},"geometry":{"type":"LineString","coordinates":[[121.128293440794465,13.344502275982604],[121.129565276849306,13.344321457676788],[121.129764508521902,13.344255281267628],[121.130829358203812,13.343871317941362],[121.132141524636282,13.343406956794201],[121.132879367861335,13.343144937682405],[121.132981737525654,13.343085813615595],[121.133186392394038,13.342978542386913],[121.134230804595489,13.342343539920831],[121.134744771794388,13.342036953856383],[121.135054705643597,13.341889538808267],[121.135223284715451,13.341834892721016],[121.135916158338929,13.341588500423747],[121.136365775469287,13.341433129062372],[121.137805835274136,13.340900815652731],[121.138494307109653,13.340696298151112],[121.13869305253607,13.340694763643867],[121.139459612568359,13.340274256473139],[121.139739797471634,13.34015156603323],[121.139977302615492,13.340012594516008],[121.140043986187024,13.339955201307195],[121.140168998405954,13.339733570328265],[121.140241395694957,13.339595383084417]]}},
{"type":"Feature","properties":{"id":672,"canal_id":null,"canal_type":"MAIN","remarks":"Calapan Dam Right","Length":null,"canal_widt":null,"station_no":null,"canal_leng":null,"station__1":null,"station__2":null,"canal":null,"canaltype":null},"geometry":{"type":"LineString","coordinates":[[121.175377777777783,13.373751666666669],[121.174750594368135,13.374715554856094],[121.174741666666719,13.37532],[121.174588888888891,13.37583],[121.174525,13.376103333333326],[121.174437295035403,13.377192129753405],[121.174440119905753,13.378265956253509],[121.174605988012601,13.379426437042618],[121.174722222222215,13.379743333333341]]}},
{"type":"Feature","properties":{"id":15,"canal_id":15,"canal_type":"SUB LATERAL","remarks":"SUB LATERAL A7","Length":1513,"canal_widt":null,"station_no":null,"canal_leng":null,"station__1":null,"station__2":null,"canal":"Lateral E-1","canaltype":"SUB-LATERAL"},"geometry":{"type":"LineString","coordinates":[[121.122407890144643,13.386015455265371],[121.122718049937774,13.385891795746229],[121.123085013743435,13.38580208038413],[121.123195243590956,13.385770392269901],[121.123247907045581,13.385669199570058],[121.123367397171009,13.385513647863526],[121.123426852256202,13.385339365178945],[121.123566607046797,13.384978764443435],[121.12371150072174,13.384758387450839],[121.123901950731153,13.384550538601056],[121.124203101432414,13.384250054068175],[121.124466601782899,13.383987891556503],[121.124713611322619,13.383711384583684],[121.124885162385795,13.383546929828057],[121.124980993299658,13.383483788722474],[121.125076885321278,13.383427613103018],[121.125220581781718,13.383361633655406],[121.1254454998315,13.383274636626201],[121.125790548675056,13.383049934740693],[121.126434884905294,13.382647360020904],[121.127111371130965,13.381843764578081],[121.127309786296621,13.38167863679227],[121.127425051675203,13.381599239309317],[121.127486350636204,13.381521473673768],[121.127490747829995,13.381445918803939],[121.127458590071583,13.381352510819118],[121.127303561234598,13.38107371454182],[121.127042766534601,13.380620483465441],[121.126914897718621,13.380374470827078],[121.126700352575099,13.379998459459706],[121.126581496857895,13.379773104491248],[121.126506537709815,13.37958959748936],[121.126373043470807,13.379121886565715],[121.126298213524521,13.378911753455224],[121.126205219682006,13.378584034617779],[121.126099183134301,13.378242145589468],[121.125981620336304,13.377931517470019],[121.125839847014106,13.377457014257779],[121.12567363918042,13.37689487130943],[121.125574501878503,13.376540389845006],[121.125444654426914,13.376115947922756],[121.125388562234519,13.37589157792956],[121.125406504724737,13.375556791268991],[121.12544488322385,13.375424000706113],[121.125521318369167,13.375267112062442]]}},
{"type":"Feature","properties":{"id":28,"canal_id":28,"canal_type":"SUB LATERAL","remarks":"SUB LATERAL C4","Length":938,"canal_widt":null,"station_no":null,"canal_leng":null,"station__1":null,"station__2":null,"canal":"Lateral A1 Extension (BAYOG)","canaltype":"SUB-LATERAL"},"geometry":{"type":"LineString","coordinates":[[121.176891412701011,13.370838490293551],[121.177194639276905,13.370167248796159],[121.177443967077508,13.369582598701868],[121.177640605629591,13.36918654564432],[121.177793780132603,13.368967012132778],[121.178234104734813,13.368544344469747],[121.178455458292916,13.368383130659186],[121.178661161200509,13.368235673896445],[121.179254189555408,13.367880849217711],[121.179356842887586,13.36783025907074],[121.179465475730794,13.367753597687678],[121.179624334630418,13.36761420825917],[121.180333949662597,13.366877130042431],[121.18084112548982,13.366285296670561],[121.181166280241186,13.365945171569436],[121.181454593637397,13.365829686487919],[121.181795304574507,13.365842935395218],[121.182013827453503,13.365855926097799],[121.182916463022906,13.365859492157929],[121.183078063860805,13.365870002537831],[121.18307823816663,13.365870017812961]]}},
{"type":"Feature","properties":{"id":656,"canal_id":23,"canal_type":"LATERAL","remarks":"LATERAL C","Length":8011,"canal_widt":null,"station_no":null,"canal_leng":null,"station__1":null,"station__2":null,"canal":"Lateral A5","canaltype":"SUB-LATERAL"},"geometry":{"type":"LineString","coordinates":[[121.173115163146619,13.307977067701724],[121.173699412504348,13.308250811843799],[121.173841906441794,13.30837156936011],[121.173920455376773,13.308488994237118],[121.173966686401513,13.309024071780698],[121.174021958723344,13.309517123240385],[121.174108112134917,13.310094135823171],[121.174417525484202,13.312259563338332],[121.174467474259714,13.312606492425861],[121.174670493614315,13.31386029017971],[121.174746582600704,13.314372400166668],[121.17483581739512,13.314555177385134],[121.174978264909598,13.314697527206404],[121.175730941479884,13.315307226357429],[121.17753232463582,13.31679345041583],[121.180071843059494,13.318857659442852],[121.180631150276781,13.319354574671332],[121.180685360959913,13.319481362799442],[121.18085704400427,13.320274481417075],[121.18089778889491,13.320579428927394],[121.180934782249324,13.322124578382391],[121.181082232322296,13.323651073282567],[121.181163932628394,13.32423288099503],[121.181197067589295,13.325408526852158],[121.18118030978512,13.325879434336693],[121.18109889170141,13.326440626735312],[121.180704369061388,13.327269658791856],[121.180069366861446,13.328390816846671],[121.179147146142043,13.330004705571067],[121.178203806577358,13.331637883644314],[121.177110086981244,13.333609201103179],[121.176863624980754,13.334109785565984],[121.176753068691411,13.334435252091939],[121.176661567236934,13.334867808731458],[121.176649485194176,13.33603772501889],[121.176689931588797,13.336234636871627],[121.177037803525749,13.336776225398504],[121.177163794491435,13.33689380740028],[121.177220376041603,13.337145932331129],[121.177205660890451,13.337784304809057],[121.177264758407077,13.338142320707396],[121.177480990682071,13.339467286158193],[121.177496892354299,13.339700752935507],[121.177336732796235,13.341050020639992],[121.177252910181664,13.34148803400568],[121.17721093794232,13.342377118082039],[121.177137562595163,13.343334307389364],[121.177406714926491,13.345399683015163],[121.177672097949412,13.347526610590938],[121.177712183560274,13.348065986036485],[121.177616733553933,13.348582779906122],[121.177384825656105,13.349640920004155],[121.177279451360761,13.349862710794007],[121.17677494005595,13.350344150433223],[121.176653389266519,13.350516129046694],[121.176593376560461,13.350720960567321],[121.176543146933597,13.350945308494827],[121.176492609668685,13.351945334001595],[121.176442160611131,13.353374252554271],[121.176437195751262,13.353888455705736],[121.176379022775947,13.354435766046038],[121.176337601146813,13.354956188609554],[121.176326251584186,13.355292090642502],[121.176512605176981,13.355747172751629],[121.176678540985648,13.355982800021907],[121.1776103242684,13.356731688169914],[121.178657906242805,13.357585015060009],[121.180103818616914,13.35877118647695],[121.180525355318622,13.359139121685972],[121.180757301513793,13.359256136157573],[121.182052993708396,13.359478278443802],[121.183088621322185,13.359702020157924],[121.183229292227779,13.359776492620078],[121.183434248680584,13.359959460022596],[121.183555040123878,13.36018395654785],[121.18432469682331,13.361575550941751],[121.184418311425162,13.361745835407341],[121.184430443730463,13.361893928665637],[121.184379445536706,13.362073979221009],[121.184202497201554,13.362423819545553],[121.183875317006269,13.362944355358064],[121.18342828623868,13.363703865140238],[121.183218138836239,13.364066430169515],[121.183026237326146,13.364497187138419],[121.182981093669696,13.364631905086771],[121.182982594315064,13.365020836997733],[121.183022762353929,13.365550490274343],[121.183044502829759,13.365888791682607],[121.183111065114943,13.367019301513729],[121.183169637010863,13.368185405033357],[121.183169988141501,13.368727736384033],[121.183278945726215,13.36959856635867],[121.183367810537689,13.370333983670438],[121.183400733003793,13.370708218469369]]}},
{"type":"Feature","properties":{"id":658,"canal_id":30,"canal_type":"LATERAL","remarks":"LATERAL E","Length":2699,"canal_widt":null,"station_no":null,"canal_leng":null,"station__1":null,"station__2":null,"canal":"Lateral A3 Extension (BAYOG)","canaltype":"SUB-LATERAL"},"geometry":{"type":"LineString","coordinates":[[121.162807264342675,13.339711722930964],[121.162651981469395,13.339717239357997],[121.1620899153137,13.33972130997709],[121.161244899745483,13.339737324420263],[121.160849961346585,13.33976190835179],[121.160208553126196,13.339785051831978],[121.159259634663286,13.339818040185147],[121.158879194225193,13.339823802426412],[121.158751395687204,13.339843701360484],[121.158641415669095,13.339862780653206],[121.158567612278503,13.339947862088767],[121.158437171565154,13.340325204178258],[121.158054559451557,13.341720260980507],[121.158026207974586,13.341811787975741],[121.15791537992348,13.34189660004899],[121.157695843441516,13.342332495794301],[121.157492908048496,13.342710475208127],[121.157381371275207,13.34297001846137],[121.156917480969142,13.344365262217174],[121.156695137638735,13.345918736810967],[121.156569729681294,13.346690128387317],[121.156442944501919,13.347525285955465],[121.156348716398327,13.34818507723698],[121.156156070996559,13.348880845293026],[121.155848099379938,13.349724293427329],[121.155530566690373,13.350651541290674],[121.155491649229631,13.350841712779861],[121.155620923199507,13.351911996973445],[121.155700188781026,13.353223043337671],[121.155694012959813,13.353331330480486],[121.155289192754552,13.354002836880952],[121.154884409976574,13.354669100725445],[121.15473062728968,13.354945799528499],[121.15463259802182,13.3551652438759],[121.154332859138222,13.355627838795709],[121.154158477234319,13.356031939143852],[121.153883326921289,13.357015404963969],[121.153728880634247,13.357613599296325],[121.1535977466107,13.357962100996035],[121.153134039790899,13.358631425312529],[121.151986485992964,13.360288217141727],[121.15214624643167,13.360633599134013],[121.153061928223096,13.361776019449424],[121.152628781876317,13.361945840108215],[121.152595571594375,13.362088875367276],[121.153016079603475,13.363110613451198],[121.152742237199959,13.363216946810411],[121.152873863645453,13.363742093998651],[121.15172563799527,13.364780336283028],[121.149860291471498,13.366484287552668],[121.149111029556295,13.367153259948202],[121.147464913016947,13.368654360394942]]}},
{"type":"Feature","properties":{"id":661,"canal_id":32,"canal_type":"LATERAL","remarks":"LATERAL G","Length":948,"canal_widt":null,"station_no":null,"canal_leng":null,"station__1":null,"station__2":null,"canal":"Kilo Kilo Dam Main Canal","canaltype":"MAIN"},"geometry":{"type":"LineString","coordinates":[[121.165522916185694,13.361260001388292],[121.165642626492755,13.361277194525986],[121.165980204385505,13.361370938807317],[121.166646419328643,13.361553074109523],[121.166901078008578,13.361639607581425],[121.167169063400991,13.361724276641459],[121.167254360366925,13.361775831789139],[121.167343291445007,13.362005034390357],[121.167184456664785,13.362200812121882],[121.167289474735,13.362507677932784],[121.16748577055786,13.36300907136766],[121.16762588842451,13.36335277431802],[121.16777276291262,13.363743063508499],[121.167869001282753,13.364009749554254],[121.167859152901173,13.36407191969937],[121.167908864874917,13.364250841086607],[121.167937842558914,13.364413469397007],[121.168013858561039,13.36490615663476],[121.168045553453183,13.364986993845038],[121.16810234901078,13.364986894807975],[121.168217174769254,13.364961196842479],[121.168268725412787,13.364965651385017],[121.168490588462774,13.364910627642821],[121.1685189824547,13.365152656498646],[121.168456800526982,13.365245058469766],[121.168519911193314,13.365305715979693],[121.168835105975873,13.36538044193261],[121.169006520894996,13.365451066185605],[121.169771970491482,13.365655572122346],[121.169876825352759,13.365708368440012],[121.169942317917915,13.365818986381868],[121.169970223763599,13.36590813164999],[121.169902606299402,13.36641959421215],[121.169880173107117,13.366622910885038],[121.170036072377698,13.366610257531859]]}},
{"type":"Feature","properties":{"id":665,"canal_id":9,"canal_type":"SUB LATERAL","remarks":"SUB LATERAL A1","Length":3570,"canal_widt":null,"station_no":null,"canal_leng":null,"station__1":null,"station__2":null,"canal":"Lateral C4","canaltype":"SUB-LATERAL"},"geometry":{"type":"LineString","coordinates":[[121.158003371997182,13.299284528336843],[121.157816708045502,13.29915876105445],[121.156993498512193,13.29851885308967],[121.156727320890596,13.298335053511181],[121.156178292222208,13.298144628325932],[121.15548995403951,13.29804499914002],[121.154915125687396,13.297945920028251],[121.154204098133391,13.29783191912821],[121.153696936368604,13.297729714599958],[121.153411453327706,13.297701072548429],[121.153181936804188,13.297685199264928],[121.152925798878712,13.297680143023507],[121.1526580886989,13.297624602881079],[121.152116841287011,13.297517331383411],[121.151742414765664,13.297467091569533],[121.151082404384596,13.298342178742262],[121.149512911985411,13.298805480598132],[121.148908118493353,13.298954101167677],[121.148144240416812,13.298541634934892],[121.147764334436459,13.298535389598737],[121.147252627383111,13.29858382807007],[121.145102403033647,13.298832461798032],[121.1439605990046,13.299554465787772],[121.143583269657896,13.299914220992683],[121.143300887777713,13.300386058179036],[121.142960344930998,13.30080612267084],[121.142578370221926,13.301071121966807],[121.142261223272072,13.301216610519969],[121.140431273705588,13.301837926325581],[121.139940993139433,13.30233514053927],[121.139476598542132,13.302929921098391],[121.138954621684206,13.303857276938325],[121.138773525070761,13.304554116339551],[121.138669885803694,13.305105455804679],[121.138729465718527,13.305673640772367],[121.138567191847216,13.306453850547662],[121.138569216536098,13.307360062344278],[121.13844101121849,13.307611131436982],[121.138251528321476,13.30862148251879],[121.138155454953079,13.309150307973862],[121.138224760212765,13.310318034097349],[121.138238811331306,13.310633714307432],[121.138016424074948,13.311388502180794],[121.138173548038708,13.312203455258549],[121.138141338309083,13.312468400127692],[121.137944861752374,13.313085135678138],[121.137888731884559,13.313227313238775],[121.137815112973229,13.313334584719126],[121.137686233069701,13.313946995352374]]}},
{"type":"Feature","properties":{"id":666,"canal_id":10,"canal_type":"SUB LATERAL","remarks":"SUB LATERAL A2","Length":2880,"canal_widt":null,"station_no":null,"canal_leng":null,"station__1":null,"station__2":null,"canal":"Lateral B3","canaltype":"SUB-LATERAL"},"geometry":{"type":"LineString","coordinates":[[121.158162144013943,13.299396092418505],[121.158414316588704,13.299621386093021],[121.1587413004507,13.299883208578802],[121.159053028766195,13.300136643067839],[121.159137357695244,13.30023661106517],[121.159169289773104,13.300403613074986],[121.159208659822596,13.300993971384399],[121.1592003896818,13.301458177721912],[121.159132853684213,13.301984485947878],[121.159097540278694,13.302412569099081],[121.159030594860496,13.303052814952689],[121.158990756524119,13.30411090605938],[121.158984882604813,13.30470228912915],[121.158994840007509,13.304915850567641],[121.158998891856115,13.305072972460069],[121.158960057683515,13.305568914576122],[121.158996783636198,13.305866952174231],[121.159077627363715,13.306071568198517],[121.159172038564918,13.306458333330609],[121.159212901633907,13.306935770374917],[121.159236536274491,13.307166954798143],[121.159318901095517,13.307470319075401],[121.159346751180408,13.307707904965262],[121.159381711001515,13.30785148125192],[121.1594297611678,13.308040302725438],[121.159411136865202,13.308230188114488],[121.1594052062743,13.308328698906399],[121.159402849403307,13.308485560821449],[121.159418108562804,13.308633623281059],[121.159456913927897,13.308911295074992],[121.159473999243787,13.309085889247596],[121.159518944192996,13.30922755388657],[121.159537119353217,13.309342843780183],[121.159533910021509,13.30954919358741],[121.159527614771505,13.309724988518068],[121.159513620868708,13.310065765867112],[121.159495000780893,13.310344313167898],[121.159491043727883,13.310648945870511],[121.159490069149115,13.310955345382638],[121.159475012369995,13.311256615687759],[121.159454502357207,13.311386075491789],[121.15941671626392,13.311545878666868],[121.159360129003005,13.311682401962091],[121.159275238892306,13.311841808715979],[121.159151428457804,13.31194203188825],[121.158822223620803,13.312169298542427],[121.158517365833688,13.31236199526367],[121.158208297961195,13.312558479114552],[121.157947586785482,13.312746591132818],[121.157644898919301,13.31290981605104],[121.157513920689809,13.313044731043991],[121.157349782142418,13.313111231402633],[121.157185740789899,13.313239074092481],[121.157067104686817,13.313401191538716],[121.156977711640593,13.313594988360498],[121.156842068299795,13.31394814925568],[121.156725362966398,13.314228333011478],[121.156569789158198,13.314624854811026],[121.156424978316721,13.314958339035249],[121.156476690323998,13.315208103289518],[121.156486613649093,13.315431103368271],[121.156464517366203,13.315753978249882],[121.156460546755582,13.315873466060186],[121.15631944900241,13.316190521442158],[121.156250355491991,13.31636996061353],[121.156189524046496,13.316566574025781],[121.155959715237785,13.317145277698339],[121.155872422681981,13.317389472018609],[121.155238333820918,13.318825412315398],[121.155951785110759,13.32001923012773],[121.156229820113268,13.32067697042295],[121.155662058010847,13.321664313381735],[121.155613911497994,13.32323566463398]]}},
{"type":"Feature","properties":{"id":655,"canal_id":17,"canal_type":null,"remarks":"LATERAL B","Length":10539,"canal_widt":0.0,"station_no":null,"canal_leng":10539.423,"station__1":null,"station__2":null,"canal":"Lateral A","canaltype":"LATERAL"},"geometry":{"type":"LineString","coordinates":[[121.168174029207492,13.301004310879183],[121.168316954450603,13.301003486959329],[121.169023632696394,13.301044239876351],[121.169588788347795,13.301249603548211],[121.170143689274695,13.301473286013048],[121.170840719211895,13.301801703298329],[121.171880852752508,13.30225793647873],[121.172806232564113,13.302650281982851],[121.173725022944112,13.30305782996038],[121.17503401677989,13.303635345496803],[121.176088777890797,13.304092660518931],[121.177596049732301,13.304743874131219],[121.17811548313739,13.304957143136098],[121.178807360742113,13.305337979428039],[121.179136448313599,13.305565438328889],[121.179235593177012,13.30577075711142],[121.179342040054621,13.306547097755086],[121.179607746974511,13.307667430211557],[121.179825636752994,13.308716032057937],[121.180134405737704,13.310080544542588],[121.180417216587003,13.311333114295111],[121.180962415546503,13.311823612931402],[121.181841246112,13.312427239219481],[121.18391155816991,13.313360416638021],[121.186263532722606,13.315114877509412],[121.186377919920801,13.315381369386609],[121.186435032090003,13.3160449465938],[121.186338680205608,13.316744551837559],[121.186316181933407,13.317459142108888],[121.186439656033883,13.317650589648256],[121.187986464519184,13.31885100842654],[121.189278856135104,13.31985292586417],[121.190325383178703,13.320668397878482],[121.191680443936704,13.321729449719438],[121.191982389261014,13.321756702513539],[121.194657139322814,13.32163126535445],[121.195964063501194,13.321547322485561],[121.196136757090486,13.321580680523956],[121.196329351882881,13.32176080968625],[121.196891924544687,13.322634701275987],[121.197471663476705,13.323708779576609],[121.197660396270294,13.324087247230278],[121.198036443027007,13.32439747283534],[121.198303635573595,13.324584341437777],[121.199819037443305,13.325678868007159],[121.200661376294306,13.326304940637563],[121.200849579395609,13.326314486497219],[121.201492323068905,13.326220134800778],[121.203384739893181,13.32590400861614],[121.204731073396005,13.325582684357991],[121.206423482570216,13.325168237148709],[121.207969793721418,13.32480033075468],[121.208098220349498,13.324756151305962],[121.20894725398324,13.324190628623178],[121.209549978136735,13.323662852913237],[121.210312465965416,13.32295684384094],[121.210594069302232,13.322721028555673],[121.210871756024062,13.322598039916144],[121.211183439552897,13.322609305437398],[121.212648259929992,13.322660937728202],[121.213992258800033,13.322702138966379],[121.215288235076031,13.322767682464963],[121.217281261826471,13.323472925592258],[121.218387251659564,13.324192081559376],[121.219769236916818,13.324898439669671],[121.220228450252193,13.325149343281447],[121.222690407731193,13.328966204832325],[121.223051281129599,13.329298478411133],[121.22390546765422,13.329986161156109],[121.2243585862267,13.330367310412912],[121.224450618287321,13.330553388141778],[121.224601074370284,13.330969782675638],[121.224942003813808,13.331349649309608],[121.225433251336213,13.331878033020764],[121.225827687254011,13.332075060812411],[121.226418303371304,13.332592415549332],[121.226992497599213,13.333062739044008],[121.227278933396406,13.333313152750028],[121.227368102793122,13.333482417027405],[121.22786157014545,13.33523814828081],[121.228120802539806,13.335980583958431],[121.2281474281653,13.336150153391957],[121.228134240889815,13.336369616018141],[121.228002604218247,13.33671230075657],[121.226968776688253,13.338714807021466],[121.226687864477995,13.339278126877101],[121.226760185495905,13.339802604111201],[121.226987997742654,13.34073525437031],[121.227060106211638,13.341006813141462],[121.227183501338615,13.341159829385482],[121.227875524806521,13.341760122315851],[121.228705678825179,13.342485252578809],[121.228914588009289,13.342681708003118],[121.229019083888716,13.342828612010898],[121.229133772958605,13.34318315049118],[121.229400471141204,13.3441743332325],[121.229714329352902,13.34524350209532],[121.229957675932397,13.346161609271171],[121.230048718468495,13.346500607426931],[121.230055583040411,13.346980662275133],[121.231098538596584,13.350730552395261]]}},
{"type":"Feature","properties":{"id":667,"canal_id":18,"canal_type":null,"remarks":"SUB LATERAL B1","Length":2812,"canal_widt":0.0,"station_no":null,"canal_leng":3087.843,"station__1":null,"station__2":null,"canal":"Lateral A1","canaltype":"SUB-LATERAL"},"geometry":{"type":"LineString","coordinates":[[121.188637557804711,13.319624432629023],[121.188561837771317,13.31970976154842],[121.188038835958039,13.320309087399661],[121.187522396949404,13.320906484690864],[121.187184740707963,13.321315653194786],[121.187074839105435,13.321456996500498],[121.186996157381884,13.321601523737824],[121.186856625451455,13.321932159532256],[121.186763076843917,13.322178241588501],[121.186631717481006,13.322629349694038],[121.186611738192909,13.322740738081039],[121.186726858960824,13.323251840165051],[121.186843462062001,13.323638586102582],[121.187004689616501,13.32424477423362],[121.187197333589225,13.324902506247636],[121.18733678350101,13.325395029021918],[121.187454704888239,13.32580103537811],[121.187628349058016,13.326438891540816],[121.187731397097807,13.326750334892017],[121.187842563587253,13.326907273170255],[121.187942829681191,13.326995213012811],[121.188149667499957,13.327218397778632],[121.188371870538774,13.327426267743101],[121.188695380327871,13.327700002910744],[121.189129594243596,13.328086447541091],[121.189418714350879,13.328348161028391],[121.189793855718605,13.32867850004957],[121.190164040976896,13.32900584578006],[121.190591813751084,13.32936050295031],[121.191195485188686,13.329911570661439],[121.191673224706889,13.33033029922882],[121.192121410927896,13.330712858186009],[121.192363997644918,13.330924188948368],[121.192762297116403,13.331108783477692],[121.193441605825299,13.331418002925201],[121.194034957336825,13.331667329498288],[121.194523716487723,13.331949144129286],[121.195092083966415,13.332273286388958],[121.195370289520881,13.332473776335599],[121.195547326417781,13.332685824710479],[121.195964188597117,13.333109472272678],[121.196209530011927,13.333364659482353],[121.196719932166857,13.333854882605857],[121.197157252304976,13.334278456047755],[121.197237887185338,13.334414249007649],[121.197327554639003,13.334691247952078],[121.19746510644471,13.335307130162533],[121.197521461657061,13.335727008108574],[121.197511448098851,13.336058077296867],[121.197490913948812,13.336380682141526],[121.197846877886903,13.338670104252722],[121.197865244877718,13.338775844400679],[121.197713742783975,13.339157725561522],[121.196653787416878,13.341957229841428]]}}
]
}
