{
"type": "FeatureCollection",
"name": "Baco_Bucayao_RIS_corrected",
"crs": { "type": "name", "properties": { "name": "urn:ogc:def:crs:OGC:1.3:CRS84" } },
"features": [
{"type":"Feature","properties":{"id":27,"canal_id":27,"canal_type":"SUB LATERAL","remarks":"SUB LATERAL C3","Length":1633.0,"canal_widt":null,"station_no":null,"canal_leng":1633.52,"station__1":"STA.1+633.52","station__2":"STA.0+000.00","canal":"SUB LATERAL C3","canaltype":"SUB LATERAL"},"geometry":{"type":"LineString","coordinates":[[121.18359,13.36014],[121.183595,13.360137],[121.183852,13.360038],[121.184211,13.360012],[121.18456,13.360005],[121.186009,13.359928],[121.186265,13.359981],[121.186476,13.360142],[121.186703,13.360417],[121.187083,13.360968],[121.187356,13.361372],[121.187447,13.361831],[121.187517,13.362264],[121.187629,13.362909],[121.187692,13.363185],[121.18774,13.363253],[121.187873,13.363317],[121.188385,13.363548],[121.188706,13.363695],[121.18927,13.36396],[121.189598,13.364122],[121.189711,13.364185],[121.189851,13.364202],[121.190258,13.364272],[121.190532,13.364307],[121.190722,13.364261],[121.190897,13.36415],[121.191344,13.36387],[121.192241,13.363262],[121.193032,13.362992],[121.194573,13.362985],[121.194728,13.363082],[121.194946,13.363453],[121.195023,13.363685],[121.195039,13.363989]]}},
{"type":"Feature","properties":{"id":2,"canal_id":2,"canal_type":"LATERAL","remarks":"LATERAL CANAL AA","Length":2026.0,"canal_widt":null,"station_no":null,"canal_leng":2001.5,"station__1":"STA.2+001.50","station__2":"STA.0+000.00","canal":"LATERAL CANAL AA","canaltype":"LATERAL"},"geometry":{"type":"LineString","coordinates":[[121.1282,13.254445],[121.128407,13.254463],[121.129732,13.254509],[121.129852,13.254515],[121.130498,13.254481],[121.131106,13.254437],[121.132006,13.254383],[121.132766,13.254276],[121.133315,13.254232],[121.133759,13.254178],[121.134424,13.254157],[121.135734,13.253982],[121.135749,13.254079],[121.135763,13.255123],[121.135776,13.255339],[121.136434,13.255957],[121.136874,13.256419],[121.137355,13.257049],[121.137934,13.257772],[121.138441,13.258313],[121.138745,13.25862],[121.138777,13.258736],[121.13878,13.259392],[121.138835,13.260131],[121.138852,13.260831],[121.140025,13.262492],[121.140384,13.263086]]}},
{"type":"Feature","properties":{"id":5,"canal_id":5,"canal_type":"SUB LATERAL","remarks":"BAYOG SUB LATERAL A2","Length":3065.0,"canal_widt":null,"station_no":null,"canal_leng":3010.98,"station__1":"STA.3+010.98","station__2":"STA.0+000.00","canal":"BAYOG SUB LATERAL A2","canaltype":"SUB LATERAL"},"geometry":{"type":"LineString","coordinates":[[121.116307,13.269502],[121.115989,13.269578],[121.115674,13.269554],[121.114356,13.269525],[121.113766,13.269577],[121.11182,13.26982],[121.110346,13.269987],[121.109539,13.270102],[121.109328,13.270249],[121.109184,13.270436],[121.108951,13.270871],[121.108748,13.271278],[121.108693,13.271551],[121.108674,13.272253],[121.108646,13.27269],[121.108628,13.272931],[121.108562,13.273174],[121.108224,13.274357],[121.108153,13.274627],[121.108068,13.275056],[121.108015,13.275365],[121.107925,13.275913],[121.107871,13.276313],[121.107835,13.276512],[121.107688,13.277512],[121.10747,13.278877],[121.107338,13.279332],[121.106988,13.280053],[121.10632,13.281226],[121.105841,13.28193],[121.105661,13.282025],[121.105029,13.28239],[121.104818,13.282507],[121.104642,13.282763],[121.104546,13.282943],[121.104475,13.283122],[121.10447,13.283246],[121.104492,13.283618],[121.104519,13.283993],[121.104553,13.284381],[121.104579,13.284737],[121.104643,13.285261],[121.104698,13.285737],[121.104763,13.286152],[121.10484,13.286362],[121.10568,13.288702],[121.105814,13.288987]]}},
{"type":"Feature","properties":{"id":1,"canal_id":1,"canal_type":"MAIN","remarks":"MAIN CANAL","Length":23627.0,"canal_widt":null,"station_no":null,"canal_leng":23629.24,"station__1":"STA.23+629.24","station__2":"STA.0+000.00","canal":"MAIN CANAL","canaltype":"MAIN"},"geometry":{"type":"LineString","coordinates":[[121.135645,13.233642],[121.13562,13.234052],[121.135792,13.234589],[121.136016,13.234925],[121.136338,13.235592],[121.136577,13.236652],[121.136563,13.236985],[121.136325,13.237829],[121.136244,13.238019],[121.135461,13.238284],[121.134026,13.238795],[121.132158,13.239511],[121.131904,13.239636],[121.131561,13.240423],[121.131275,13.241142],[121.130713,13.242563],[121.129794,13.244899],[121.129603,13.245364],[121.129478,13.246143],[121.129469,13.246444],[121.129361,13.2473],[121.129286,13.247918],[121.129231,13.248179],[121.12926,13.24859],[121.129321,13.24949],[121.12937,13.250183],[121.129262,13.250602],[121.129169,13.250892],[121.128895,13.251806],[121.128667,13.252525],[121.128392,13.25336],[121.128153,13.254121],[121.128041,13.254496],[121.127828,13.25525],[121.12774,13.255517],[121.127763,13.255698],[121.127845,13.256015],[121.127999,13.256599],[121.128158,13.257133],[121.128506,13.258357],[121.128588,13.258565],[121.128852,13.259195],[121.128963,13.259455],[121.129012,13.259616],[121.129064,13.260135],[121.129093,13.26073],[121.129097,13.26158],[121.129132,13.261748],[121.129217,13.262067],[121.129361,13.262562],[121.129442,13.262903],[121.129541,13.263211],[121.129616,13.263425],[121.129734,13.26366],[121.129983,13.263931],[121.130562,13.264591],[121.13126,13.265366],[121.131808,13.265988],[121.132205,13.266461],[121.132597,13.26692],[121.132737,13.267158],[121.132768,13.267307],[121.132757,13.267832],[121.132757,13.267834],[121.132831,13.268227],[121.132939,13.268831],[121.133041,13.269274],[121.133137,13.26961],[121.133437,13.27009],[121.133783,13.270528],[121.134082,13.270872],[121.134438,13.271045],[121.134711,13.271165],[121.135368,13.271457],[121.13612,13.271736],[121.136949,13.272025],[121.137445,13.27223],[121.138501,13.272689],[121.139922,13.273299],[121.140457,13.273492],[121.140628,13.273577],[121.141368,13.273883],[121.142178,13.274265],[121.143391,13.274761],[121.144064,13.275069],[121.144964,13.275591],[121.145456,13.275835],[121.147083,13.276704],[121.147565,13.276949],[121.147896,13.27717],[121.148632,13.27781],[121.14909,13.278194],[121.149657,13.278708],[121.1506,13.279534],[121.15134,13.280117],[121.151887,13.280601],[121.15253,13.281106],[121.152854,13.281395],[121.153556,13.282015],[121.153966,13.282414],[121.154809,13.283269],[121.155396,13.283831],[121.155939,13.284345],[121.156422,13.284529],[121.157427,13.284885],[121.158609,13.285232],[121.159606,13.285547],[121.16009,13.285579],[121.160516,13.285407],[121.160693,13.285586],[121.161067,13.286421],[121.161471,13.287192],[121.162194,13.288629],[121.162922,13.290051],[121.163989,13.292054],[121.164522,13.29311],[121.165172,13.294406],[121.165831,13.295615],[121.167436,13.298871],[121.167874,13.299844],[121.168018,13.300135],[121.168153,13.300338],[121.168183,13.300514],[121.168088,13.300913],[121.167936,13.301673],[121.167884,13.302236],[121.167895,13.302367],[121.16796,13.302608],[121.168118,13.302721],[121.168464,13.302998],[121.169266,13.303679],[121.170036,13.30438],[121.170783,13.305031],[121.171583,13.305745],[121.172363,13.306467],[121.172697,13.30675],[121.172877,13.306953],[121.17297,13.30719],[121.173064,13.307537],[121.173048,13.307688],[121.173015,13.307894],[121.172998,13.307947],[121.172513,13.309458],[121.171939,13.311046],[121.171695,13.311814],[121.171427,13.312399],[121.171098,13.313142],[121.170615,13.314262],[121.170459,13.314617],[121.17034,13.315199],[121.170316,13.315472],[121.170229,13.31622],[121.170212,13.316596],[121.170269,13.316913],[121.170369,13.317658],[121.170431,13.318172],[121.170428,13.318426],[121.170366,13.318625],[121.170268,13.318774],[121.170015,13.318922],[121.16968,13.319081],[121.169324,13.319627],[121.169046,13.320073],[121.168227,13.321872],[121.167793,13.322606],[121.167368,13.323073],[121.166815,13.324052],[121.16645,13.324658],[121.165856,13.325711],[121.165306,13.326676],[121.165021,13.327188],[121.164877,13.327598],[121.16482,13.327836],[121.164775,13.328388],[121.164772,13.328426],[121.164692,13.329114],[121.164519,13.330091],[121.16432,13.331303],[121.164113,13.332576],[121.163902,13.333907],[121.163808,13.334487],[121.16374,13.334803],[121.163618,13.334955],[121.163254,13.335209],[121.161802,13.336026],[121.161545,13.336181],[121.161449,13.336325],[121.161387,13.336699],[121.16146,13.337492],[121.161599,13.337839],[121.162123,13.33851],[121.162549,13.339046],[121.162953,13.339531],[121.162992,13.33963],[121.162974,13.339713],[121.162945,13.339855],[121.162805,13.34031],[121.162583,13.341079],[121.162333,13.341884],[121.162128,13.342701],[121.161945,13.343224],[121.161949,13.343511],[121.162062,13.343851],[121.162394,13.344916],[121.162547,13.345512],[121.162806,13.346531],[121.163004,13.347293],[121.163194,13.347938],[121.163182,13.348342],[121.163138,13.348839],[121.163149,13.349909],[121.163174,13.350738],[121.163222,13.35104],[121.163607,13.351362],[121.164014,13.351806],[121.16407,13.351949],[121.164431,13.35308],[121.164405,13.35332],[121.164354,13.353701],[121.164353,13.353764],[121.164407,13.353937],[121.164704,13.35477],[121.16502,13.355624],[121.165088,13.355945],[121.16513,13.356062],[121.165144,13.356315],[121.165179,13.356876],[121.165212,13.357345],[121.165265,13.358462],[121.165313,13.359118],[121.165341,13.359666],[121.165404,13.360459],[121.16545,13.361139],[121.165454,13.361276],[121.165459,13.361447],[121.165434,13.361779],[121.165381,13.362981],[121.165364,13.36373],[121.165367,13.363879],[121.165347,13.364027],[121.165236,13.364308],[121.165032,13.364617],[121.164703,13.364987],[121.164206,13.365596],[121.163773,13.366089],[121.163368,13.366577],[121.163027,13.366981],[121.162812,13.367191],[121.162563,13.367419],[121.162458,13.367528],[121.162136,13.368018],[121.161783,13.368566],[121.161699,13.368721],[121.161691,13.369032],[121.161722,13.369801],[121.161707,13.37003],[121.161666,13.370132],[121.161493,13.370349],[121.161384,13.370413],[121.161123,13.370562],[121.16095,13.370724],[121.160867,13.370913],[121.160861,13.371243],[121.161022,13.372041],[121.161279,13.373154],[121.161423,13.373978],[121.161582,13.374706],[121.161615,13.375086],[121.161612,13.375488],[121.161575,13.375712],[121.161264,13.376297],[121.160982,13.376756],[121.160727,13.377159],[121.160575,13.377391],[121.160394,13.377604],[121.159875,13.378355],[121.15924,13.379294],[121.158667,13.380124],[121.158298,13.380679],[121.157959,13.381074],[121.157836,13.381268],[121.157376,13.382649],[121.157152,13.383252],[121.156984,13.383664],[121.156972,13.383809],[121.157008,13.384608],[121.156951,13.384832],[121.157003,13.38512],[121.157228,13.385724],[121.157594,13.386471],[121.157673,13.386698],[121.157841,13.387276],[121.157917,13.387444],[121.158092,13.387747],[121.158456,13.38846],[121.158941,13.38937],[121.159191,13.389695],[121.159922,13.390198],[121.16033,13.390516],[121.160732,13.390829],[121.161245,13.391319],[121.161378,13.391515],[121.161579,13.392032],[121.161683,13.392354],[121.161815,13.392612],[121.161889,13.392844],[121.161946,13.393097],[121.161981,13.393347],[121.16194,13.393626],[121.161869,13.394044],[121.16186,13.394306],[121.161878,13.395091],[121.161871,13.395297],[121.161903,13.396056],[121.161966,13.396311],[121.161967,13.39661],[121.162064,13.397094],[121.16218,13.39757],[121.162322,13.398035],[121.162683,13.398942],[121.162959,13.399532],[121.163173,13.399877],[121.163485,13.400217],[121.16376,13.400538],[121.163917,13.400824],[121.164123,13.401103],[121.164336,13.401209],[121.164765,13.401415],[121.165036,13.401657],[121.165306,13.402042],[121.165451,13.402333],[121.165649,13.402649],[121.166222,13.403799],[121.166672,13.404519],[121.167,13.406065],[121.167718,13.40752],[121.168468,13.409],[121.168898,13.410592]]}},
{"type":"Feature","properties":{"id":28,"canal_id":28,"canal_type":"SUB LATERAL","remarks":"SUB LATERAL C4","Length":938.0,"canal_widt":null,"station_no":null,"canal_leng":937.89,"station__1":"STA.0+937.89","station__2":"STA.0+000.00","canal":"SUB LATERAL C4","canaltype":"SUB LATERAL"},"geometry":{"type":"LineString","coordinates":[[121.183078,13.36587],[121.182916,13.365859],[121.182014,13.365856],[121.181795,13.365843],[121.181455,13.36583],[121.181166,13.365945],[121.180841,13.366285],[121.180334,13.366877],[121.179624,13.367614],[121.179465,13.367754],[121.179357,13.36783],[121.179254,13.367881],[121.178661,13.368236],[121.178455,13.368383],[121.178234,13.368544],[121.177794,13.368967],[121.177641,13.369187],[121.177444,13.369583],[121.177195,13.370167],[121.176891,13.370838]]}},
{"type":"Feature","properties":{"id":4,"canal_id":4,"canal_type":"SUB LATERAL","remarks":"BAYOG SUB LATERAL A1","Length":1188.0,"canal_widt":null,"station_no":null,"canal_leng":1164.82,"station__1":"STA.1+164.82","station__2":"STA.0+000.00","canal":"BAYOG SUB LATERAL A1","canaltype":"SUB LATERAL"},"geometry":{"type":"LineString","coordinates":[[121.127981,13.26878],[121.12812,13.269415],[121.12823,13.2699],[121.128323,13.270235],[121.128466,13.270853],[121.128554,13.271416],[121.128611,13.271886],[121.128682,13.272316],[121.128717,13.272674],[121.128722,13.272952],[121.12864,13.273533],[121.128557,13.274086],[121.128538,13.274366],[121.128527,13.274675],[121.128572,13.27505],[121.128647,13.275437],[121.128746,13.275852],[121.128887,13.276168],[121.12912,13.276504],[121.129375,13.276906],[121.129738,13.277547],[121.130138,13.278296],[121.130376,13.278717],[121.130416,13.278772]]}},
{"type":"Feature","properties":{"id":11,"canal_id":11,"canal_type":"SUB LATERAL","remarks":"SUB LATERAL A3","Length":1192.0,"canal_widt":null,"station_no":null,"canal_leng":1191.88,"station__1":"STA.1+191.88","station__2":"STA.0+000.00","canal":"SUB LATERAL A3","canaltype":"SUB LATERAL"},"geometry":{"type":"LineString","coordinates":[[121.148595,13.319035],[121.148597,13.319036],[121.148829,13.319177],[121.149253,13.319473],[121.149357,13.319562],[121.149514,13.319859],[121.149605,13.320044],[121.149709,13.320505],[121.149773,13.320842],[121.149883,13.321331],[121.149966,13.321736],[121.15005,13.322087],[121.150129,13.322435],[121.15022,13.32284],[121.150308,13.323295],[121.150369,13.323591],[121.150463,13.324017],[121.150578,13.324552],[121.150649,13.325007],[121.150712,13.325411],[121.150786,13.325785],[121.150909,13.326303],[121.151011,13.326748],[121.151113,13.327267],[121.151148,13.327582],[121.151213,13.327999],[121.151216,13.328199],[121.151231,13.328624],[121.151218,13.328774],[121.151193,13.328868],[121.151159,13.328941],[121.151041,13.329066],[121.15098,13.329121]]}},
{"type":"Feature","properties":{"id":12,"canal_id":12,"canal_type":"SUB LATERAL","remarks":"SUB LATERAL A4","Length":2315.0,"canal_widt":null,"station_no":null,"canal_leng":2315.09,"station__1":"STA.2+315.09","station__2":"STA.0+000.00","canal":"SUB LATERAL A4","canaltype":"SUB LATERAL"},"geometry":{"type":"LineString","coordinates":[[121.144362,13.324357],[121.144166,13.324206],[121.143874,13.324038],[121.143731,13.323985],[121.143281,13.323845],[121.14307,13.323839],[121.142515,13.323891],[121.141791,13.323984],[121.141149,13.3241],[121.140274,13.324236],[121.139809,13.324316],[121.139154,13.324418],[121.138503,13.324512],[121.137694,13.324641],[121.137322,13.324707],[121.137157,13.32475],[121.136791,13.325019],[121.136193,13.325474],[121.135638,13.325925],[121.135287,13.326186],[121.135204,13.326258],[121.135151,13.326346],[121.135003,13.32693],[121.134904,13.327282],[121.13474,13.327927],[121.134649,13.32833],[121.134612,13.32843],[121.134439,13.328782],[121.134274,13.329055],[121.134153,13.329216],[121.134042,13.329297],[121.133625,13.329594],[121.133328,13.329788],[121.133019,13.329954],[121.132674,13.330157],[121.132079,13.330506],[121.131708,13.330716],[121.13162,13.330776],[121.131561,13.330873],[121.131196,13.331523],[121.130997,13.331885],[121.130708,13.332385],[121.130353,13.332985],[121.130108,13.333408],[121.129838,13.333887],[121.129515,13.334444],[121.129194,13.334991],[121.129026,13.335237]]}},
{"type":"Feature","properties":{"id":15,"canal_id":15,"canal_type":"SUB LATERAL","remarks":"SUB LATERAL A7","Length":1513.0,"canal_widt":null,"station_no":null,"canal_leng":1504.3,"station__1":"STA.1+504.30","station__2":"STA.0+000.00","canal":"SUB LATERAL A7","canaltype":"SUB LATERAL"},"geometry":{"type":"LineString","coordinates":[[121.125521,13.375267],[121.125445,13.375424],[121.125407,13.375557],[121.125389,13.375892],[121.125445,13.376116],[121.125575,13.37654],[121.125674,13.376895],[121.12584,13.377457],[121.125982,13.377932],[121.126099,13.378242],[121.126205,13.378584],[121.126298,13.378912],[121.126373,13.379122],[121.126507,13.37959],[121.126581,13.379773],[121.1267,13.379998],[121.126915,13.380374],[121.127043,13.38062],[121.127304,13.381074],[121.127459,13.381353],[121.127491,13.381446],[121.127486,13.381521],[121.127425,13.381599],[121.12731,13.381679],[121.127111,13.381844],[121.126435,13.382647],[121.125791,13.38305],[121.125445,13.383275],[121.125221,13.383362],[121.125077,13.383428],[121.124981,13.383484],[121.124885,13.383547],[121.124714,13.383711],[121.124467,13.383988],[121.124203,13.38425],[121.123902,13.384551],[121.123712,13.384758],[121.123567,13.384979],[121.123427,13.385339],[121.123367,13.385514],[121.123248,13.385669],[121.123195,13.38577],[121.123085,13.385802],[121.122718,13.385892],[121.122408,13.386015]]}},
{"type":"Feature","properties":{"id":13,"canal_id":13,"canal_type":"SUB LATERAL","remarks":"SUB LATERAL A5","Length":1295.0,"canal_widt":null,"station_no":null,"canal_leng":1425.27,"station__1":"STA.1+425.27","station__2":"STA.0+000.00","canal":"SUB LATERAL A5","canaltype":"SUB LATERAL"},"geometry":{"type":"LineString","coordinates":[[121.140241,13.339595],[121.140169,13.339734],[121.140044,13.339955],[121.139977,13.340013],[121.13974,13.340152],[121.13946,13.340274],[121.138693,13.340695],[121.138494,13.340696],[121.137806,13.340901],[121.136366,13.341433],[121.135916,13.341589],[121.135223,13.341835],[121.135055,13.34189],[121.134745,13.342037],[121.134231,13.342344],[121.133186,13.342979],[121.132982,13.343086],[121.132879,13.343145],[121.132142,13.343407],[121.130829,13.343871],[121.129765,13.344255],[121.129565,13.344321],[121.128293,13.344502]]}},
{"type":"Feature","properties":{"id":14,"canal_id":14,"canal_type":"SUB LATERAL","remarks":"SUB LATERAL A6","Length":1128.0,"canal_widt":null,"station_no":null,"canal_leng":1126.61,"station__1":"STA.1+126.61","station__2":"STA.0+000.00","canal":"SUB LATERAL A6","canaltype":"SUB LATERAL"},"geometry":{"type":"LineString","coordinates":[[121.139976,13.350236],[121.139976,13.350237],[121.140188,13.350399],[121.140455,13.350618],[121.140672,13.350783],[121.140713,13.350852],[121.14071,13.350934],[121.140689,13.351002],[121.140505,13.351395],[121.140277,13.351835],[121.14012,13.352224],[121.140029,13.352427],[121.139957,13.352521],[121.13978,13.352701],[121.139132,13.353334],[121.13819,13.354319],[121.138099,13.354426],[121.137961,13.354711],[121.137861,13.355008],[121.137617,13.355577],[121.137295,13.356448],[121.137198,13.356667],[121.137071,13.356841],[121.136851,13.3571],[121.136667,13.35734],[121.136433,13.357552],[121.136359,13.357701],[121.136287,13.357861],[121.136499,13.358075],[121.1366,13.358222],[121.136694,13.358342],[121.136713,13.358477],[121.136707,13.358557]]}},
{"type":"Feature","properties":{"id":24,"canal_id":24,"canal_type":"SUB LATERAL","remarks":"SUB LATERAL C1","Length":3085.0,"canal_widt":null,"station_no":null,"canal_leng":3403.02,"station__1":"STA.3+403.02","station__2":"STA.0+000.00","canal":"SUB LATERAL C1","canaltype":"SUB LATERAL"},"geometry":{"type":"LineString","coordinates":[[121.17733,13.338083],[121.17876,13.337584],[121.178876,13.337577],[121.178945,13.337597],[121.180036,13.338074],[121.180544,13.338278],[121.181178,13.338572],[121.181279,13.33863],[121.181347,13.3387],[121.182396,13.340218],[121.182734,13.34068],[121.183126,13.341208],[121.183317,13.341505],[121.183716,13.342065],[121.183844,13.342166],[121.18677,13.343963],[121.186771,13.343964],[121.187198,13.344262],[121.187934,13.344814],[121.188756,13.345447],[121.189361,13.345831],[121.19,13.346354],[121.190361,13.346591],[121.190799,13.346925],[121.190926,13.347016],[121.190983,13.347086],[121.190978,13.347264],[121.191661,13.347248],[121.192735,13.347262],[121.193419,13.347258],[121.194172,13.347239],[121.194338,13.347259],[121.195015,13.347886],[121.19585,13.348712],[121.196619,13.349414],[121.197209,13.349969],[121.197833,13.350534],[121.198929,13.351502],[121.199765,13.352283],[121.200137,13.35263],[121.201566,13.354557]]}},
{"type":"Feature","properties":{"id":25,"canal_id":25,"canal_type":"SUB LATERAL","remarks":"SUB LATERAL C1-A","Length":724.0,"canal_widt":null,"station_no":null,"canal_leng":1031.23,"station__1":"STA.1+031.23","station__2":"STA.0+000.00","canal":"SUB LATERAL C1-A","canaltype":"SUB LATERAL"},"geometry":{"type":"LineString","coordinates":[[121.186771,13.343964],[121.187287,13.343485],[121.187681,13.343002],[121.188601,13.34216],[121.189127,13.341653],[121.189729,13.34107],[121.190328,13.340455],[121.190832,13.339988],[121.191101,13.339831],[121.191308,13.339773],[121.191502,13.339774],[121.191684,13.339828],[121.19191,13.339921],[121.194364,13.340798]]}},
{"type":"Feature","properties":{"id":22,"canal_id":22,"canal_type":"SUB LATERAL","remarks":"SUB LATERAL B3","Length":1673.0,"canal_widt":null,"station_no":null,"canal_leng":1673.82,"station__1":"STA.1+673.82","station__2":"STA.0+000.00","canal":"SUB LATERAL B3","canaltype":"SUB LATERAL"},"geometry":{"type":"LineString","coordinates":[[121.222711,13.328952],[121.222818,13.328885],[121.223749,13.32803],[121.223958,13.3279],[121.226189,13.327049],[121.226421,13.326964],[121.226502,13.326946],[121.226664,13.326967],[121.226886,13.327107],[121.227266,13.327398],[121.227768,13.327766],[121.228227,13.328099],[121.228811,13.328509],[121.229112,13.328739],[121.229774,13.329219],[121.23051,13.329789],[121.231108,13.330243],[121.231531,13.330547],[121.232025,13.330909],[121.2327,13.331415],[121.233337,13.331927],[121.2338,13.332274],[121.234123,13.332542],[121.234353,13.332841],[121.234524,13.333122],[121.234782,13.333764],[121.234812,13.33386]]}},
{"type":"Feature","properties":{"id":26,"canal_id":26,"canal_type":"SUB LATERAL","remarks":"SUB LATERAL C2","Length":3278.0,"canal_widt":null,"station_no":null,"canal_leng":3276.21,"station__1":"STA.3+276.21","station__2":"STA.0+000.00","canal":"SUB LATERAL C2","canaltype":"SUB LATERAL"},"geometry":{"type":"LineString","coordinates":[[121.177743,13.34749],[121.178333,13.34743],[121.178455,13.347443],[121.178857,13.34759],[121.179083,13.347747],[121.179534,13.348047],[121.179847,13.348252],[121.180347,13.348584],[121.180674,13.348821],[121.181036,13.349034],[121.181359,13.349249],[121.182062,13.349552],[121.182327,13.349683],[121.182963,13.349976],[121.183375,13.350161],[121.184189,13.350523],[121.184552,13.350702],[121.185194,13.350983],[121.185802,13.351289],[121.186343,13.351538],[121.187341,13.352023],[121.187653,13.352176],[121.188157,13.352402],[121.188684,13.352659],[121.188941,13.352857],[121.189132,13.353104],[121.189658,13.353717],[121.190435,13.35457],[121.190739,13.354727],[121.191333,13.35509],[121.191734,13.355345],[121.192034,13.355526],[121.192332,13.355716],[121.192177,13.356047],[121.193227,13.356205],[121.193987,13.357314],[121.193967,13.357405],[121.194706,13.35805],[121.195133,13.358296],[121.195575,13.358533],[121.195404,13.359054],[121.19575,13.360129],[121.197279,13.360407],[121.199049,13.361192],[121.199843,13.360982],[121.20137,13.362518]]}},
{"type":"Feature","properties":{"id":null,"canal_id":null,"canal_type":"SUB LATERAL","remarks":"SUB LATERAL A8","Length":1597.0,"canal_widt":null,"station_no":null,"canal_leng":1593.73,"station__1":"STA.1+593.73","station__2":"STA.0+000.00","canal":"SUB LATERAL A8","canaltype":"SUB LATERAL"},"geometry":{"type":"LineString","coordinates":[[121.130923,13.378587],[121.130305,13.378761],[121.130085,13.379475],[121.129966,13.379893],[121.129903,13.380475],[121.129847,13.381149],[121.129932,13.381715],[121.129915,13.382184],[121.129785,13.383073],[121.129742,13.383496],[121.129731,13.383991],[121.129679,13.384804],[121.129651,13.385275],[121.129752,13.38556],[121.130502,13.386617],[121.131242,13.387595],[121.132225,13.389481],[121.131604,13.390773],[121.131465,13.391117],[121.131433,13.391582]]}},
{"type":"Feature","properties":{"id":null,"canal_id":null,"canal_type":"MAIN","remarks":"KILO-KILO DAM MAIN CANAL","Length":702.0,"canal_widt":null,"station_no":null,"canal_leng":701.86,"station__1":"STA.0+701.86","station__2":"STA.0+000.00","canal":"KILO-KILO DAM MAIN CANAL","canaltype":"MAIN"},"geometry":{"type":"LineString","coordinates":[[121.194387,13.340797],[121.194516,13.340873],[121.195196,13.341568],[121.195587,13.341861],[121.196004,13.342117],[121.196613,13.342439],[121.197014,13.342603],[121.197205,13.342645],[121.197388,13.342715],[121.197596,13.343053],[121.197677,13.343338],[121.198144,13.343994],[121.19844,13.344472],[121.198651,13.344786],[121.198875,13.345068]]}},
{"type":"Feature","properties":{"id":9,"canal_id":9,"canal_type":"SUB LATERAL","remarks":"SUB LATERAL A1","Length":3570.0,"canal_widt":null,"station_no":null,"canal_leng":3556.5,"station__1":"STA.3+556.50","station__2":"STA.0+000.00","canal":"SUB LATERAL A1","canaltype":"SUB LATERAL"},"geometry":{"type":"LineString","coordinates":[[121.158003,13.299285],[121.157817,13.299159],[121.156993,13.298519],[121.156727,13.298335],[121.156178,13.298145],[121.15549,13.298045],[121.154915,13.297946],[121.154204,13.297832],[121.153697,13.29773],[121.153411,13.297701],[121.153182,13.297685],[121.152926,13.29768],[121.152658,13.297625],[121.152117,13.297517],[121.151742,13.297467],[121.151082,13.298342],[121.149513,13.298805],[121.148908,13.298954],[121.148144,13.298542],[121.147764,13.298535],[121.147253,13.298584],[121.145102,13.298832],[121.143961,13.299554],[121.143583,13.299914],[121.143301,13.300386],[121.14296,13.300806],[121.142578,13.301071],[121.142261,13.301217],[121.140431,13.301838],[121.139941,13.302335],[121.139477,13.30293],[121.138955,13.303857],[121.138774,13.304554],[121.13867,13.305105],[121.138729,13.305674],[121.138567,13.306454],[121.138569,13.30736],[121.138441,13.307611],[121.138252,13.308621],[121.138155,13.30915],[121.138225,13.310318],[121.138239,13.310634],[121.138016,13.311389],[121.138174,13.312203],[121.138141,13.312468],[121.137945,13.313085],[121.137889,13.313227],[121.137815,13.313335],[121.137686,13.313947]]}},
{"type":"Feature","properties":{"id":null,"canal_id":null,"canal_type":"MAIN","remarks":"CALAPAN DAM MAIN CANAL LEFT","Length":1331.0,"canal_widt":null,"station_no":null,"canal_leng":1960.46,"station__1":"STA.1+960.46","station__2":"STA.0+000.00","canal":"CALAPAN DAM MAIN CANAL LEFT","canaltype":"MAIN"},"geometry":{"type":"LineString","coordinates":[[121.175021,13.37352],[121.174948,13.373467],[121.174688,13.373598],[121.173373,13.373489],[121.172858,13.373505],[121.172521,13.3735],[121.172363,13.373624],[121.172267,13.373769],[121.172204,13.373835],[121.172156,13.374059],[121.171957,13.374355],[121.171901,13.374737],[121.171737,13.374768],[121.171555,13.374751],[121.171163,13.374968],[121.170912,13.375206],[121.170784,13.375429],[121.17074,13.375553],[121.170566,13.376531],[121.17049,13.376684],[121.170649,13.377427],[121.170728,13.378009],[121.170796,13.378391],[121.170831,13.378466],[121.170844,13.37858],[121.171138,13.381638],[121.171329,13.382124],[121.171893,13.383661],[121.172114,13.385144],[121.172159,13.386292],[121.173192,13.386139],[121.173144,13.386419]]}},
{"type":"Feature","properties":{"id":17,"canal_id":17,"canal_type":"LATERAL","remarks":"LATERAL B","Length":10539.0,"canal_widt":null,"station_no":null,"canal_leng":10539.56,"station__1":"STA.10+539.56","station__2":"STA.0+000.00","canal":"LATERAL B","canaltype":"LATERAL"},"geometry":{"type":"LineString","coordinates":[[121.168174,13.301004],[121.168317,13.301003],[121.169024,13.301044],[121.169589,13.30125],[121.170144,13.301473],[121.170841,13.301802],[121.171881,13.302258],[121.172806,13.30265],[121.173725,13.303058],[121.175034,13.303635],[121.176089,13.304093],[121.177596,13.304744],[121.178115,13.304957],[121.178807,13.305338],[121.179136,13.305565],[121.179236,13.305771],[121.179342,13.306547],[121.179608,13.307667],[121.179826,13.308716],[121.180134,13.310081],[121.180417,13.311333],[121.180962,13.311824],[121.181841,13.312427],[121.183912,13.31336],[121.186264,13.315115],[121.186378,13.315381],[121.186435,13.316045],[121.186339,13.316745],[121.186316,13.317459],[121.18644,13.317651],[121.187986,13.318851],[121.189279,13.319853],[121.190325,13.320668],[121.19168,13.321729],[121.191982,13.321757],[121.194657,13.321631],[121.195964,13.321547],[121.196137,13.321581],[121.196329,13.321761],[121.196892,13.322635],[121.197472,13.323709],[121.19766,13.324087],[121.198036,13.324397],[121.198304,13.324584],[121.199819,13.325679],[121.200661,13.326305],[121.20085,13.326314],[121.201492,13.32622],[121.203385,13.325904],[121.204731,13.325583],[121.206423,13.325168],[121.20797,13.3248],[121.208098,13.324756],[121.208947,13.324191],[121.20955,13.323663],[121.210312,13.322957],[121.210594,13.322721],[121.210872,13.322598],[121.211183,13.322609],[121.212648,13.322661],[121.213992,13.322702],[121.215288,13.322768],[121.217281,13.323473],[121.218387,13.324192],[121.219769,13.324898],[121.220228,13.325149],[121.22269,13.328966],[121.223051,13.329298],[121.223905,13.329986],[121.224359,13.330367],[121.224451,13.330553],[121.224601,13.33097],[121.224942,13.33135],[121.225433,13.331878],[121.225828,13.332075],[121.226418,13.332592],[121.226992,13.333063],[121.227279,13.333313],[121.227368,13.333482],[121.227862,13.335238],[121.228121,13.335981],[121.228147,13.33615],[121.228134,13.33637],[121.228003,13.336712],[121.226969,13.338715],[121.226688,13.339278],[121.22676,13.339803],[121.226988,13.340735],[121.22706,13.341007],[121.227184,13.34116],[121.227876,13.34176],[121.228706,13.342485],[121.228915,13.342682],[121.229019,13.342829],[121.229134,13.343183],[121.2294,13.344174],[121.229714,13.345244],[121.229958,13.346162],[121.230049,13.346501],[121.230056,13.346981],[121.231099,13.350731]]}},
{"type":"Feature","properties":{"id":30,"canal_id":30,"canal_type":"LATERAL","remarks":"LATERAL E","Length":2699.0,"canal_widt":null,"station_no":null,"canal_leng":4158.76,"station__1":"STA.4+158.76","station__2":"STA.0+000.00","canal":"LATERAL E","canaltype":"LATERAL"},"geometry":{"type":"LineString","coordinates":[[121.162807,13.339712],[121.162652,13.339717],[121.16209,13.339721],[121.161245,13.339737],[121.16085,13.339762],[121.160209,13.339785],[121.15926,13.339818],[121.158879,13.339824],[121.158751,13.339844],[121.158641,13.339863],[121.158568,13.339948],[121.158437,13.340325],[121.158055,13.34172],[121.158026,13.341812],[121.157915,13.341897],[121.157696,13.342332],[121.157493,13.34271],[121.157381,13.34297],[121.156917,13.344365],[121.156695,13.345919],[121.15657,13.34669],[121.156443,13.347525],[121.156349,13.348185],[121.156156,13.348881],[121.155848,13.349724],[121.155531,13.350652],[121.155492,13.350842],[121.155621,13.351912],[121.1557,13.353223],[121.155694,13.353331],[121.155289,13.354003],[121.154884,13.354669],[121.154731,13.354946],[121.154633,13.355165],[121.154333,13.355628],[121.154158,13.356032],[121.153883,13.357015],[121.153729,13.357614],[121.153598,13.357962],[121.153134,13.358631],[121.151986,13.360288],[121.152146,13.360634],[121.153062,13.361776],[121.152629,13.361946],[121.152596,13.362089],[121.153016,13.363111],[121.152742,13.363217],[121.152874,13.363742],[121.151726,13.36478],[121.14986,13.366484],[121.149111,13.367153],[121.147465,13.368654]]}},
{"type":"Feature","properties":{"id":23,"canal_id":23,"canal_type":"LATERAL","remarks":"LATERAL C","Length":8011.0,"canal_widt":null,"station_no":null,"canal_leng":7991.51,"station__1":"STA.7+991.51","station__2":"STA.0+000.00","canal":"LATERAL C","canaltype":"LATERAL"},"geometry":{"type":"LineString","coordinates":[[121.173115,13.307977],[121.173699,13.308251],[121.173842,13.308372],[121.17392,13.308489],[121.173967,13.309024],[121.174022,13.309517],[121.174108,13.310094],[121.174418,13.31226],[121.174467,13.312606],[121.17467,13.31386],[121.174747,13.314372],[121.174836,13.314555],[121.174978,13.314698],[121.175731,13.315307],[121.177532,13.316793],[121.180072,13.318858],[121.180631,13.319355],[121.180685,13.319481],[121.180857,13.320274],[121.180898,13.320579],[121.180935,13.322125],[121.181082,13.323651],[121.181164,13.324233],[121.181197,13.325409],[121.18118,13.325879],[121.181099,13.326441],[121.180704,13.32727],[121.180069,13.328391],[121.179147,13.330005],[121.178204,13.331638],[121.17711,13.333609],[121.176864,13.33411],[121.176753,13.334435],[121.176662,13.334868],[121.176649,13.336038],[121.17669,13.336235],[121.177038,13.336776],[121.177164,13.336894],[121.17722,13.337146],[121.177206,13.337784],[121.177265,13.338142],[121.177481,13.339467],[121.177497,13.339701],[121.177337,13.34105],[121.177253,13.341488],[121.177211,13.342377],[121.177138,13.343334],[121.177407,13.3454],[121.177672,13.347527],[121.177712,13.348066],[121.177617,13.348583],[121.177385,13.349641],[121.177279,13.349863],[121.176775,13.350344],[121.176653,13.350516],[121.176593,13.350721],[121.176543,13.350945],[121.176493,13.351945],[121.176442,13.353374],[121.176437,13.353888],[121.176379,13.354436],[121.176338,13.354956],[121.176326,13.355292],[121.176513,13.355747],[121.176679,13.355983],[121.17761,13.356732],[121.178658,13.357585],[121.180104,13.358771],[121.180525,13.359139],[121.180757,13.359256],[121.182053,13.359478],[121.183089,13.359702],[121.183229,13.359776],[121.183434,13.359959],[121.183555,13.360184],[121.184325,13.361576],[121.184418,13.361746],[121.18443,13.361894],[121.184379,13.362074],[121.184202,13.362424],[121.183875,13.362944],[121.183428,13.363704],[121.183218,13.364066],[121.183026,13.364497],[121.182981,13.364632],[121.182983,13.365021],[121.183023,13.36555],[121.183045,13.365889],[121.183111,13.367019],[121.18317,13.368185],[121.18317,13.368728],[121.183279,13.369599],[121.183368,13.370334],[121.183401,13.370708]]}},
{"type":"Feature","properties":{"id":29,"canal_id":29,"canal_type":"LATERAL","remarks":"LATERAL D","Length":1548.0,"canal_widt":null,"station_no":null,"canal_leng":1535.47,"station__1":"STA.1+535.47","station__2":"STA.0+000.00","canal":"LATERAL D","canaltype":"LATERAL"},"geometry":{"type":"LineString","coordinates":[[121.164657,13.32837],[121.164446,13.32834],[121.164079,13.328329],[121.163814,13.328415],[121.163318,13.328657],[121.16296,13.328834],[121.162341,13.329141],[121.161996,13.329301],[121.161572,13.329499],[121.161045,13.329767],[121.160378,13.330079],[121.160052,13.330239],[121.159291,13.330599],[121.158917,13.330782],[121.15831,13.33107],[121.157667,13.331381],[121.157335,13.331525],[121.156854,13.331762],[121.156564,13.331901],[121.155922,13.332226],[121.155546,13.332428],[121.155282,13.332574],[121.154943,13.332763],[121.154856,13.332825],[121.151955,13.334328]]}},
{"type":"Feature","properties":{"id":10,"canal_id":10,"canal_type":"SUB LATERAL","remarks":"SUB LATERAL A2","Length":2880.0,"canal_widt":null,"station_no":null,"canal_leng":2907.41,"station__1":"STA.2+907.41","station__2":"STA.0+000.00","canal":"SUB LATERAL A2","canaltype":"SUB LATERAL"},"geometry":{"type":"LineString","coordinates":[[121.158162,13.299396],[121.158414,13.299621],[121.158741,13.299883],[121.159053,13.300137],[121.159137,13.300237],[121.159169,13.300404],[121.159209,13.300994],[121.1592,13.301458],[121.159133,13.301984],[121.159098,13.302413],[121.159031,13.303053],[121.158991,13.304111],[121.158985,13.304702],[121.158995,13.304916],[121.158999,13.305073],[121.15896,13.305569],[121.158997,13.305867],[121.159078,13.306072],[121.159172,13.306458],[121.159213,13.306936],[121.159237,13.307167],[121.159319,13.30747],[121.159347,13.307708],[121.159382,13.307851],[121.15943,13.30804],[121.159411,13.30823],[121.159405,13.308329],[121.159403,13.308486],[121.159418,13.308634],[121.159457,13.308911],[121.159474,13.309086],[121.159519,13.309228],[121.159537,13.309343],[121.159534,13.309549],[121.159528,13.309725],[121.159514,13.310066],[121.159495,13.310344],[121.159491,13.310649],[121.15949,13.310955],[121.159475,13.311257],[121.159455,13.311386],[121.159417,13.311546],[121.15936,13.311682],[121.159275,13.311842],[121.159151,13.311942],[121.158822,13.312169],[121.158517,13.312362],[121.158208,13.312558],[121.157948,13.312747],[121.157645,13.31291],[121.157514,13.313045],[121.15735,13.313111],[121.157186,13.313239],[121.157067,13.313401],[121.156978,13.313595],[121.156842,13.313948],[121.156725,13.314228],[121.15657,13.314625],[121.156425,13.314958],[121.156477,13.315208],[121.156487,13.315431],[121.156465,13.315754],[121.156461,13.315873],[121.156319,13.316191],[121.15625,13.31637],[121.15619,13.316567],[121.15596,13.317145],[121.155872,13.317389],[121.155238,13.318825],[121.155952,13.320019],[121.15623,13.320677],[121.155662,13.321664],[121.155614,13.323236]]}},
{"type":"Feature","properties":{"id":18,"canal_id":18,"canal_type":"SUB LATERAL","remarks":"SUB LATERAL B1","Length":2812.0,"canal_widt":null,"station_no":null,"canal_leng":3087.83,"station__1":"STA.3+087.83","station__2":"STA.0+000.00","canal":"SUB LATERAL B1","canaltype":"SUB LATERAL"},"geometry":{"type":"LineString","coordinates":[[121.188638,13.319624],[121.188562,13.31971],[121.188039,13.320309],[121.187522,13.320906],[121.187185,13.321316],[121.187075,13.321457],[121.186996,13.321602],[121.186857,13.321932],[121.186763,13.322178],[121.186632,13.322629],[121.186612,13.322741],[121.186727,13.323252],[121.186843,13.323639],[121.187005,13.324245],[121.187197,13.324903],[121.187337,13.325395],[121.187455,13.325801],[121.187628,13.326439],[121.187731,13.32675],[121.187843,13.326907],[121.187943,13.326995],[121.18815,13.327218],[121.188372,13.327426],[121.188695,13.3277],[121.18913,13.328086],[121.189419,13.328348],[121.189794,13.328679],[121.190164,13.329006],[121.190592,13.329361],[121.191195,13.329912],[121.191673,13.33033],[121.192121,13.330713],[121.192364,13.330924],[121.192762,13.331109],[121.193442,13.331418],[121.194035,13.331667],[121.194524,13.331949],[121.195092,13.332273],[121.19537,13.332474],[121.195547,13.332686],[121.195964,13.333109],[121.19621,13.333365],[121.19672,13.333855],[121.197157,13.334278],[121.197238,13.334414],[121.197328,13.334691],[121.197465,13.335307],[121.197521,13.335727],[121.197511,13.336058],[121.197491,13.336381],[121.197847,13.33867],[121.197865,13.338776],[121.197714,13.339158],[121.196654,13.341957]]}},
{"type":"Feature","properties":{"id":19,"canal_id":19,"canal_type":"SUB LATERAL","remarks":"SUB LATERAL B2","Length":4437.0,"canal_widt":null,"station_no":null,"canal_leng":4429.28,"station__1":"STA.4+429.28","station__2":"STA.0+000.00","canal":"SUB LATERAL B2","canaltype":"SUB LATERAL"},"geometry":{"type":"LineString","coordinates":[[121.203094,13.326061],[121.203279,13.326906],[121.203459,13.327854],[121.203702,13.328909],[121.203851,13.329452],[121.204328,13.331219],[121.204382,13.331289],[121.204638,13.331934],[121.204534,13.332231],[121.204139,13.333546],[121.204098,13.333783],[121.204222,13.334011],[121.204292,13.334139],[121.205548,13.334931],[121.205668,13.335019],[121.205993,13.335456],[121.20628,13.335743],[121.206406,13.335841],[121.206462,13.335921],[121.20695,13.337293],[121.207032,13.337885],[121.207292,13.3398],[121.207423,13.340587],[121.20745,13.34079],[121.207412,13.34135],[121.207354,13.342848],[121.207342,13.343442],[121.207404,13.344005],[121.207489,13.344734],[121.207497,13.344853],[121.207311,13.34602],[121.207372,13.346654],[121.207291,13.347528],[121.207185,13.347972],[121.206959,13.348598],[121.207143,13.349863],[121.207223,13.350499],[121.207835,13.3515],[121.208892,13.353231],[121.20964,13.354387],[121.210677,13.355963],[121.213741,13.360478],[121.214088,13.36263]]}},
{"type":"Feature","properties":{"id":8,"canal_id":8,"canal_type":"LATERAL","remarks":"LATERAL A","Length":12502.0,"canal_widt":null,"station_no":null,"canal_leng":14207.36,"station__1":"STA.14+207.36","station__2":"STA.0+000.00","canal":"LATERAL A","canaltype":"LATERAL"},"geometry":{"type":"LineString","coordinates":[[121.165108,13.294556],[121.1645,13.295077],[121.163639,13.295873],[121.16325,13.296274],[121.162977,13.296484],[121.162725,13.296619],[121.162404,13.296686],[121.162089,13.296735],[121.161669,13.296962],[121.161155,13.297316],[121.160964,13.297417],[121.16082,13.297398],[121.160489,13.297352],[121.160147,13.297415],[121.159582,13.297892],[121.159076,13.298467],[121.158729,13.29887],[121.158163,13.299316],[121.15811,13.299375],[121.158106,13.29938],[121.157632,13.299907],[121.157034,13.300735],[121.15658,13.301287],[121.156089,13.301914],[121.155749,13.302383],[121.155497,13.30264],[121.155157,13.302968],[121.15464,13.303407],[121.154212,13.303782],[121.153105,13.304691],[121.152546,13.305149],[121.152235,13.305428],[121.151921,13.305825],[121.151779,13.30599],[121.151601,13.306204],[121.151443,13.30652],[121.151317,13.307023],[121.151219,13.307558],[121.151137,13.307901],[121.151119,13.308236],[121.151134,13.308761],[121.151235,13.309743],[121.151375,13.311362],[121.151421,13.312008],[121.151488,13.312974],[121.151562,13.314084],[121.15156,13.314798],[121.151622,13.315418],[121.151761,13.316176],[121.151785,13.316545],[121.151739,13.316892],[121.151649,13.317146],[121.151351,13.317505],[121.150941,13.317961],[121.150481,13.318204],[121.150293,13.318281],[121.149182,13.318661],[121.148676,13.318945],[121.148047,13.319639],[121.14773,13.320013],[121.14712,13.320721],[121.146527,13.321372],[121.146153,13.32176],[121.146013,13.321936],[121.145856,13.322195],[121.145666,13.32257],[121.145469,13.322935],[121.145072,13.323483],[121.144811,13.323795],[121.144362,13.324357],[121.144357,13.324364],[121.144021,13.324804],[121.143711,13.325255],[121.143375,13.325727],[121.143125,13.326095],[121.142856,13.326495],[121.142656,13.326709],[121.142183,13.327115],[121.141657,13.32759],[121.141308,13.327895],[121.140779,13.328373],[121.14058,13.328457],[121.140308,13.328486],[121.140064,13.328676],[121.139919,13.329121],[121.139951,13.329836],[121.140151,13.331002],[121.140254,13.331921],[121.140255,13.332402],[121.140145,13.333016],[121.139897,13.334532],[121.1397,13.335753],[121.139608,13.336523],[121.139727,13.337168],[121.139879,13.337633],[121.139928,13.338113],[121.13988,13.338461],[121.13984,13.338902],[121.139893,13.339222],[121.140044,13.339423],[121.140264,13.339525],[121.140304,13.339545],[121.141127,13.339954],[121.141963,13.340357],[121.14269,13.340666],[121.142996,13.340873],[121.143126,13.341019],[121.143123,13.341178],[121.143024,13.341641],[121.142872,13.342446],[121.142616,13.343611],[121.142413,13.344497],[121.142131,13.345189],[121.141542,13.346542],[121.140668,13.348813],[121.139976,13.350236],[121.139561,13.351089],[121.138976,13.352317],[121.137689,13.35315],[121.137111,13.353599],[121.136848,13.353834],[121.136717,13.354064],[121.136582,13.354358],[121.136387,13.355056],[121.136208,13.355242],[121.135224,13.356104],[121.134772,13.3565],[121.133555,13.356731],[121.130756,13.357263],[121.128572,13.357854],[121.127066,13.35822],[121.125875,13.358509],[121.125712,13.358548],[121.12554,13.358749],[121.125414,13.359176],[121.125332,13.359417],[121.124654,13.360597],[121.123933,13.361773],[121.123114,13.362907],[121.12248,13.363694],[121.121975,13.364356],[121.121801,13.364659],[121.121436,13.365894],[121.120793,13.367847],[121.120328,13.369139],[121.12009,13.369692],[121.11937,13.371405],[121.119443,13.371575],[121.119975,13.371805],[121.121781,13.372577],[121.122666,13.372941],[121.12305,13.373129],[121.124706,13.374493],[121.125552,13.375191],[121.125581,13.375209],[121.125819,13.375359],[121.126093,13.375298],[121.127188,13.374804],[121.127633,13.374637],[121.129084,13.374434],[121.129381,13.37439],[121.129432,13.374384],[121.129482,13.374416],[121.129518,13.374479],[121.129887,13.375311],[121.130526,13.377274],[121.130564,13.377547],[121.13094,13.378626],[121.131561,13.380732],[121.132428,13.381834],[121.132837,13.382189],[121.133111,13.382736],[121.133139,13.382826],[121.134485,13.384463],[121.134589,13.38485],[121.134746,13.385189],[121.135411,13.385599],[121.135757,13.386078],[121.136148,13.386803],[121.136738,13.387195],[121.137135,13.387289]]}},
{"type":"Feature","properties":{"id":31,"canal_id":31,"canal_type":"LATERAL","remarks":"LATERAL F","Length":2213.0,"canal_widt":null,"station_no":null,"canal_leng":2209.8,"station__1":"STA.2+209.80","station__2":"STA.0+000.00","canal":"LATERAL F","canaltype":"LATERAL"},"geometry":{"type":"LineString","coordinates":[[121.164406,13.353323],[121.164461,13.353355],[121.165473,13.353415],[121.166499,13.353455],[121.167315,13.353496],[121.167379,13.353541],[121.16763,13.353859],[121.167943,13.354228],[121.168526,13.3549],[121.168804,13.355227],[121.168982,13.355335],[121.169379,13.355443],[121.169835,13.355509],[121.170025,13.355476],[121.17016,13.355465],[121.170229,13.355511],[121.170605,13.355596],[121.170782,13.355726],[121.171018,13.356129],[121.171369,13.35672],[121.171759,13.35731],[121.17201,13.357725],[121.172297,13.358229],[121.172498,13.358559],[121.172719,13.358913],[121.173016,13.359403],[121.173089,13.359559],[121.173125,13.359818],[121.173156,13.360299],[121.173234,13.361368],[121.173306,13.362114],[121.173354,13.362873],[121.173405,13.363412],[121.173556,13.363681],[121.173781,13.364062],[121.174091,13.364534],[121.174243,13.364777],[121.174718,13.365516],[121.175065,13.3661],[121.175134,13.366122],[121.175284,13.36612],[121.176006,13.366074],[121.176241,13.366064],[121.176416,13.366081]]}},
{"type":"Feature","properties":{"id":32,"canal_id":32,"canal_type":"LATERAL","remarks":"LATERAL G","Length":948.0,"canal_widt":null,"station_no":null,"canal_leng":948.54,"station__1":"STA.0+948.54","station__2":"STA.0+000.00","canal":"LATERAL G","canaltype":"LATERAL"},"geometry":{"type":"LineString","coordinates":[[121.165523,13.36126],[121.165643,13.361277],[121.16598,13.361371],[121.166646,13.361553],[121.166901,13.36164],[121.167169,13.361724],[121.167254,13.361776],[121.167343,13.362005],[121.167184,13.362201],[121.167289,13.362508],[121.167486,13.363009],[121.167626,13.363353],[121.167773,13.363743],[121.167869,13.36401],[121.167859,13.364072],[121.167909,13.364251],[121.167938,13.364413],[121.168014,13.364906],[121.168046,13.364987],[121.168102,13.364987],[121.168217,13.364961],[121.168269,13.364966],[121.168491,13.364911],[121.168519,13.365153],[121.168457,13.365245],[121.16852,13.365306],[121.168835,13.36538],[121.169007,13.365451],[121.169772,13.365656],[121.169877,13.365708],[121.169942,13.365819],[121.16997,13.365908],[121.169903,13.36642],[121.16988,13.366623],[121.170036,13.36661]]}},
{"type":"Feature","properties":{"id":3,"canal_id":3,"canal_type":"LATERAL","remarks":"LATERAL A EXTENSION (BAYOG)","Length":6086.0,"canal_widt":null,"station_no":null,"canal_leng":7170.05,"station__1":"STA.7+170.05","station__2":"STA.0+000.00","canal":"LATERAL A EXTENSION (BAYOG)","canaltype":"LATERAL"},"geometry":{"type":"LineString","coordinates":[[121.132676,13.26786],[121.132335,13.267932],[121.129627,13.268401],[121.127918,13.268781],[121.126043,13.269116],[121.125828,13.269097],[121.124821,13.268549],[121.1247,13.268487],[121.123958,13.268355],[121.123066,13.268224],[121.122825,13.268255],[121.122499,13.268463],[121.122023,13.268839],[121.121734,13.269015],[121.120987,13.26891],[121.120143,13.268844],[121.118283,13.268813],[121.117438,13.269071],[121.116397,13.269496],[121.116396,13.269505],[121.116356,13.270117],[121.116365,13.270671],[121.116222,13.271036],[121.115588,13.272323],[121.11488,13.273762],[121.1142,13.275133],[121.113724,13.276093],[121.113758,13.276658],[121.114238,13.277489],[121.114434,13.277833],[121.114539,13.278547],[121.114571,13.278994],[121.11466,13.279795],[121.114816,13.280407],[121.115071,13.281271],[121.115264,13.281943],[121.115575,13.282285],[121.115912,13.282703],[121.116342,13.283278],[121.116542,13.283623],[121.116754,13.284086],[121.11702,13.284764],[121.117217,13.28528],[121.117385,13.28572],[121.117817,13.286498],[121.1184,13.287493],[121.118658,13.287964],[121.119008,13.288594],[121.11936,13.28923],[121.119509,13.289472],[121.119054,13.290044],[121.118579,13.290705],[121.118264,13.291104],[121.117822,13.291674],[121.116963,13.292789],[121.116312,13.293647],[121.115667,13.294507],[121.114961,13.295473],[121.114425,13.296183],[121.113817,13.297108],[121.113367,13.297772],[121.112715,13.298741],[121.1126,13.298867],[121.112085,13.299237],[121.11116,13.299953],[121.110799,13.300205],[121.110449,13.300509],[121.110279,13.300651],[121.110181,13.30085],[121.110209,13.301135],[121.110285,13.301574],[121.110429,13.302203],[121.11043,13.302229],[121.110476,13.302375],[121.110221,13.302554],[121.108249,13.303214],[121.108094,13.303385],[121.108033,13.303862],[121.107698,13.308148],[121.107713,13.308524],[121.108261,13.3107]]}},
{"type":"Feature","properties":{"id":663,"canal_id":663,"canal_type":"SUB LATERAL","remarks":"BAYOG SUB LATERAL A4","Length":null,"canal_widt":null,"station_no":null,"canal_leng":1533.52,"station__1":"STA.1+533.52","station__2":"STA.0+000.00","canal":"BAYOG SUB LATERAL A4","canaltype":"SUB LATERAL"},"geometry":{"type":"LineString","coordinates":[[121.110463,13.302396],[121.11064,13.303295],[121.111013,13.304071],[121.112657,13.306649],[121.113907,13.308662],[121.114557,13.309939],[121.114879,13.3104],[121.115823,13.311699],[121.115965,13.314807]]}},
{"type":"Feature","properties":{"id":6,"canal_id":6,"canal_type":"SUB LATERAL","remarks":"BAYOG SUB LATERAL A3","Length":3126.0,"canal_widt":null,"station_no":null,"canal_leng":3666.3,"station__1":"STA.3+666.30","station__2":"STA.0+000.00","canal":"BAYOG SUB LATERAL A3","canaltype":"SUB LATERAL"},"geometry":{"type":"LineString","coordinates":[[121.119506,13.289481],[121.119943,13.289845],[121.120512,13.29027],[121.121187,13.290783],[121.121371,13.290921],[121.121698,13.291171],[121.121915,13.29141],[121.122049,13.291615],[121.122188,13.292007],[121.122614,13.293307],[121.122734,13.293704],[121.122995,13.294463],[121.123087,13.294628],[121.123542,13.295088],[121.123965,13.29551],[121.124487,13.296],[121.124722,13.296237],[121.12504,13.296588],[121.125214,13.296885],[121.125455,13.297388],[121.12579,13.298086],[121.126391,13.299392],[121.126633,13.299907],[121.126745,13.300439],[121.126863,13.301109],[121.126886,13.301543],[121.126863,13.302015],[121.126769,13.302955],[121.126718,13.303467],[121.126549,13.304933],[121.12648,13.305492],[121.126448,13.305881],[121.12637,13.306146],[121.126246,13.306335],[121.12597,13.306564],[121.125376,13.307075],[121.124911,13.307548],[121.124759,13.307873],[121.124625,13.308232],[121.124387,13.308909],[121.1243,13.309105],[121.124192,13.30921],[121.123846,13.309463],[121.123177,13.309956],[121.122728,13.310251],[121.122245,13.310603],[121.122044,13.310747],[121.121888,13.310961],[121.121742,13.311278],[121.121706,13.3115],[121.121682,13.311683],[121.121653,13.311982],[121.121626,13.312362],[121.121602,13.312709],[121.121597,13.313103],[121.121587,13.313394],[121.121614,13.313561],[121.121823,13.31538],[121.121885,13.315492],[121.123268,13.31672],[121.12327,13.317226],[121.123081,13.317493]]}},
{"type":"Feature","properties":{"id":21,"canal_id":21,"canal_type":"SUB LATERAL","remarks":"SUB LATERAL B2A","Length":3076.0,"canal_widt":null,"station_no":null,"canal_leng":4540.74,"station__1":"STA.4+540.74","station__2":"STA.0+000.00","canal":"SUB LATERAL B2A","canaltype":"SUB LATERAL"},"geometry":{"type":"LineString","coordinates":[[121.205527,13.334895],[121.205791,13.334506],[121.206137,13.334018],[121.206214,13.333964],[121.206286,13.333964],[121.206574,13.334078],[121.207175,13.334299],[121.207332,13.334391],[121.207574,13.334525],[121.208062,13.334957],[121.208825,13.33564],[121.209481,13.336228],[121.209867,13.336566],[121.210264,13.33691],[121.210378,13.336965],[121.210512,13.337009],[121.210932,13.337098],[121.21123,13.337168],[121.211789,13.337301],[121.212173,13.337382],[121.21305,13.337586],[121.213374,13.337654],[121.213552,13.337697],[121.213678,13.337735],[121.213679,13.337827],[121.213409,13.338385],[121.2134,13.338507],[121.213465,13.338599],[121.213551,13.33866],[121.214162,13.338983],[121.214301,13.339135],[121.214677,13.339695],[121.215103,13.340282],[121.215291,13.340534],[121.215361,13.34087],[121.215429,13.341122],[121.215465,13.341543],[121.215523,13.341797],[121.215551,13.342076],[121.215605,13.342601],[121.215587,13.342991],[121.215591,13.343352],[121.215551,13.343614],[121.215433,13.344064],[121.215362,13.344552],[121.215353,13.344655],[121.215365,13.344785],[121.215389,13.344896],[121.215431,13.34569],[121.215463,13.345785],[121.215511,13.345898],[121.215649,13.345981],[121.215934,13.346126],[121.216275,13.346224],[121.21668,13.34636],[121.21697,13.346457],[121.217192,13.346563],[121.21738,13.346656],[121.217471,13.346763],[121.217572,13.346871],[121.217831,13.347002],[121.218459,13.347338],[121.219183,13.347781],[121.219215,13.347816],[121.21969,13.348639],[121.219996,13.349138],[121.220709,13.35036],[121.220919,13.350783],[121.22141,13.35163],[121.221612,13.352017],[121.222007,13.352722],[121.222338,13.353362],[121.222623,13.353873],[121.222924,13.354402],[121.22317,13.354853],[121.223304,13.355105],[121.223519,13.355489],[121.223574,13.355565],[121.223604,13.355643],[121.223463,13.355755],[121.222933,13.356157],[121.222552,13.356467],[121.220788,13.357845],[121.219551,13.358849],[121.219152,13.359214],[121.218403,13.359846],[121.218026,13.361855],[121.217985,13.362494]]}},
{"type":"Feature","properties":{"id":null,"canal_id":null,"canal_type":"SUB LATERAL","remarks":"SUB LATERAL B2A-1","Length":null,"canal_widt":null,"station_no":null,"canal_leng":2231.34,"station__1":"STA.2+231.34","station__2":"STA.0+000.00","canal":"SUB LATERAL B2A-1","canaltype":"SUB LATERAL"},"geometry":{"type":"LineString","coordinates":[[121.213678,13.337735],[121.214079,13.337719],[121.215814,13.337482],[121.215956,13.337469],[121.216086,13.33748],[121.217181,13.337852],[121.217988,13.338127],[121.218196,13.338328],[121.219028,13.33926],[121.22021,13.340142],[121.220337,13.34019],[121.220514,13.340253],[121.22128,13.340399],[121.222629,13.340611],[121.223869,13.340802],[121.22442,13.340911],[121.224676,13.341126],[121.227934,13.347767],[121.228501,13.34853]]}},
{"type":"Feature","properties":{"id":null,"canal_id":null,"canal_type":"","remarks":"Calapan Dam Right","Length":null,"canal_widt":null,"station_no":null,"canal_leng":689.64,"station__1":"STA.0+689.64","station__2":"STA.0+000.00","canal":"Calapan Dam Right","canaltype":""},"geometry":{"type":"LineString","coordinates":[[121.175378,13.373752],[121.174751,13.374716],[121.174742,13.37532],[121.174589,13.37583],[121.174525,13.376103],[121.174437,13.377192],[121.17444,13.378266],[121.174606,13.379426],[121.174722,13.379743]]}}
]
}
