{
"type": "FeatureCollection",
"name": "Bansud RIS",
"crs": { "type": "name", "properties": { "name": "urn:ogc:def:crs:OGC:1.3:CRS84" } },
"features": [
{"type":"Feature","properties":{"id":350,"canal_id":null,"canal_type":"South Main Canal","remarks":null,"canal_widt":null,"station_no":null,"canal_leng":null,"station__1":null,"station__2":null,"canal":null,"canaltype":null},"geometry":{"type":"LineString","coordinates":[[121.427784365366293,12.849267092133505],[121.427663798076637,12.848635071721127],[121.429247335461397,12.848360951158904],[121.430200601630219,12.848195173774524],[121.430508051452961,12.848115669257936],[121.430756203691544,12.848023718433669],[121.430877584930585,12.847960688809126],[121.43094619223433,12.847917129796732],[121.430994642105134,12.847872351069746],[121.431052203942016,12.847803443802462],[121.43110772313193,12.847702646741702],[121.431234608365429,12.847474765818722],[121.431383214322523,12.847176664068192],[121.431740104133951,12.846531351428117],[121.431930524242532,12.846181323975122],[121.432038133419155,12.845983517809],[121.432501465686556,12.845154169081313],[121.432927370948377,12.844398244067643],[121.433149536338604,12.843979664720129],[121.433251548011711,12.843787908469816],[121.433359126552361,12.843601681509323],[121.433447341165774,12.843467002694673],[121.433508282330209,12.843394817157677],[121.433709035872468,12.843177268143775],[121.433935588048627,12.842954376633047],[121.434208436451129,12.842642713994897],[121.434291362511587,12.842523731788605],[121.434347022524349,12.842383678605513],[121.434367317852647,12.842219519274536],[121.434264667373185,12.841134095297674],[121.434173994282077,12.840175317064652],[121.434094427104284,12.839424131457816],[121.434089742255395,12.839361378315383],[121.434099145150981,12.839317626276792],[121.434134024793224,12.839256104606489],[121.434212595225944,12.839184886961203],[121.4343662545283,12.839113121168772],[121.434517727360515,12.839066731030423],[121.434701643712202,12.839024516666836],[121.434788858905435,12.839032005787324],[121.43489826663756,12.839060535509478],[121.43498331707147,12.839089915723148],[121.43509062167918,12.839130380506683],[121.435235135132402,12.839224831383708],[121.435777062149924,12.839701982997287],[121.436182717016123,12.840064819599828],[121.436347327212729,12.840191250058291],[121.436466635864704,12.840259663707714],[121.436574918967651,12.840306107621547],[121.436740144912577,12.840332977591986],[121.436994769802595,12.840342457912307],[121.437613902036375,12.840313285060006],[121.438135561390226,12.84029448322762],[121.438162993514936,12.840288672494113],[121.438192540987856,12.840268935373894],[121.438215084355662,12.84023322636541]]}},
{"type":"Feature","properties":{"id":352,"canal_id":null,"canal_type":"Sub Lateral A1","remarks":null,"canal_widt":null,"station_no":null,"canal_leng":null,"station__1":null,"station__2":null,"canal":null,"canaltype":null},"geometry":{"type":"LineString","coordinates":[[121.472562867436878,12.847484440536673],[121.472059407569844,12.847443123028393],[121.470939854040424,12.847655736591594],[121.470687270474727,12.847641469418482],[121.47032689905889,12.847660163491874],[121.470023212223438,12.84773996835224],[121.469633780280716,12.847712106644755],[121.469131444768109,12.847485248294939],[121.468886953888955,12.847480623591581],[121.467880156734907,12.84789712835155],[121.466685344297233,12.848441868321844],[121.465175169459343,12.848598465600666],[121.464973429814833,12.848612675464121],[121.464803284351873,12.848589695688474],[121.464528208803841,12.848504544537766],[121.464204323127262,12.848339962148186],[121.463634102201425,12.848003561828758],[121.463617153717408,12.84799356308466],[121.462697755590057,12.847381399774102],[121.462514850278112,12.847246221284447],[121.462360697193304,12.847172768592449],[121.462242138054435,12.84714129546337],[121.462189818925893,12.847130804007175],[121.461756525461979,12.847043916061029],[121.461077909618012,12.846998168172007],[121.459769983514917,12.846904757970133],[121.459364561594086,12.846884791493487],[121.45920776736439,12.846877275965351],[121.458916771511994,12.846831598526077],[121.458306109726365,12.846665326083015],[121.456905523429199,12.846336120680935],[121.456272325608282,12.846191696096938],[121.456124643439367,12.846178745637529],[121.455922984925735,12.846161061780721],[121.455259923300346,12.846137375433667],[121.454294450980072,12.84610311345906],[121.454012123677416,12.846105848248417],[121.453750095181405,12.84608671752331],[121.453579966718792,12.846061532380213],[121.453432202736408,12.846043074283342],[121.453228547897893,12.84600450059809],[121.453156866066607,12.846001879848135],[121.453111935448902,12.84602140142125],[121.45305016088416,12.846047419172297],[121.453031560760365,12.845974759941255],[121.4527920449937,12.845938173124225],[121.451876726896373,12.84576349561577],[121.450954608192134,12.845601965762304],[121.450925576354521,12.845586405186694],[121.450888810637565,12.845553211204152],[121.450868868667882,12.845516818763379],[121.450855607701868,12.845487061153882],[121.450818218076563,12.845190046821374],[121.450762431157941,12.844787397282225]]}},
{"type":"Feature","properties":{"id":353,"canal_id":null,"canal_type":"Aguila Canal A","remarks":null,"canal_widt":null,"station_no":null,"canal_leng":null,"station__1":null,"station__2":null,"canal":null,"canaltype":null},"geometry":{"type":"LineString","coordinates":[[121.479498493033432,12.845006277979888],[121.479500489326568,12.844403276002319],[121.479212633160387,12.844291243278093],[121.47879928046639,12.844220458310808],[121.478400659716385,12.844363448324577],[121.477776422540359,12.844575631381366],[121.477699778444716,12.844309669386671],[121.477082903433569,12.844313662253592],[121.475658294363981,12.84431590295995],[121.475620596390826,12.844257422431529],[121.474654595186365,12.844280119202791],[121.470819824368533,12.84430110819471],[121.47084595763755,12.843278375762704],[121.470370080436069,12.843304778712049],[121.469934198902266,12.843331413807352],[121.469419202869588,12.843388150536775],[121.468996516034281,12.843398537295572],[121.468653108458255,12.843410080279536],[121.468475962450754,12.843379352141186],[121.468418238061034,12.843384225182341],[121.468373357936954,12.843401502682033],[121.468337326402761,12.843418831780021],[121.468301650911712,12.843435815637443],[121.468279110259701,12.843446450832555],[121.468255687902143,12.843456559915548],[121.468214496574518,12.84344919977586],[121.468148051919769,12.843432835885077],[121.468029836577315,12.843402624835431],[121.468013013947967,12.843433437433744],[121.467990477926961,12.843501726351878],[121.467939118606765,12.843566026692734],[121.467904493535301,12.843614101003668],[121.467856913517849,12.843638829854079],[121.467777446957612,12.843668582330761],[121.467717460986705,12.843696190919532],[121.467676647971089,12.843714012986034],[121.467643045552691,12.843739344316845],[121.467594323673964,12.843777264288924],[121.467566208427243,12.843802453970731],[121.467532895572333,12.843809205809091],[121.467500663493567,12.843812838146439],[121.46747133453843,12.84380467883053],[121.467425642378714,12.843765851152243],[121.467333004709189,12.843696262879599],[121.467101637994602,12.843870941509723],[121.467043051230831,12.843808835978674],[121.466606502886975,12.843862638635166],[121.465115138357149,12.844022661722517],[121.465055278141691,12.84404893903732],[121.464993533813683,12.844078469125824]]}},
{"type":"Feature","properties":{"id":167,"canal_id":null,"canal_type":"South Main Canal","remarks":null,"canal_widt":null,"station_no":null,"canal_leng":null,"station__1":null,"station__2":null,"canal":null,"canaltype":null},"geometry":{"type":"LineString","coordinates":[[121.438215084355662,12.84023322636541],[121.438211992678774,12.840158783888063],[121.439242530474573,12.839725831487817],[121.439869316564042,12.839484135443938],[121.441321215078275,12.838992301516418],[121.442801003612686,12.838889385376751],[121.443242644701584,12.838856186172316],[121.443371981293609,12.83876125490788],[121.444156885609772,12.838249652045484],[121.444366271245229,12.838217098025353],[121.444639466448265,12.838030468066364],[121.444608909295525,12.837521735654029],[121.44510027458297,12.837410851700717],[121.445211945094471,12.837401556123471],[121.445906575450195,12.837469386999597],[121.447370951251798,12.837600509042902],[121.448476363113684,12.837694655936071],[121.448876055274056,12.837708963705168],[121.449533513278539,12.837716827007698],[121.449978956734498,12.837799106978105],[121.449977786539222,12.837824489028948],[121.450171086559521,12.837823638083311],[121.451455748040104,12.837809308931163],[121.45209917283735,12.837789205036207],[121.452163145417032,12.837306709030164],[121.452498960070002,12.83734470816697],[121.454368364887941,12.837307704880631],[121.454952500872466,12.837694736693042]]}},
{"type":"Feature","properties":{"id":168,"canal_id":null,"canal_type":"Badyang Supply Canal","remarks":null,"canal_widt":null,"station_no":null,"canal_leng":null,"station__1":null,"station__2":null,"canal":null,"canaltype":null},"geometry":{"type":"LineString","coordinates":[[121.443181189777448,12.845256649440682],[121.443205792532424,12.8451741047675],[121.443254900845361,12.84510868354494],[121.443344534227819,12.84505345896866],[121.443637136316269,12.844993463568827],[121.443909126459729,12.844985119077634],[121.444122192811292,12.844988372887414],[121.444329232489764,12.844981634397255],[121.444538417879087,12.844955991245968],[121.444517097535751,12.844844758191359]]}},
{"type":"Feature","properties":{"id":355,"canal_id":null,"canal_type":"North Main Canal","remarks":null,"canal_widt":null,"station_no":null,"canal_leng":null,"station__1":null,"station__2":null,"canal":null,"canaltype":null},"geometry":{"type":"LineString","coordinates":[[121.427818458732631,12.849840671178784],[121.428214722556007,12.850116751260368],[121.428279402731931,12.850164405229332],[121.428345312552295,12.850194478946403],[121.428393428361488,12.850203560834576],[121.428440526463902,12.850196148244615],[121.428469734835872,12.85018313241522],[121.428568904121263,12.850089192757411],[121.428830652610117,12.849792869543943],[121.429164840186147,12.849737709867547],[121.429434039945335,12.84968435937982],[121.429934289525335,12.849587322392376],[121.430325697853277,12.849518213478902],[121.430846118138305,12.849420196062393],[121.43135198863996,12.849319892171138],[121.431965545264276,12.849197146753143],[121.432166266263081,12.849166468049027],[121.432244676355452,12.849168035565484],[121.432325292844595,12.849175112370068],[121.432413710127378,12.84918883109556],[121.432502086519307,12.849209144910812],[121.43262393385497,12.849251643089806],[121.432693170742851,12.849287231747534],[121.432805783573158,12.849373643804464],[121.432912733925349,12.849469915063091],[121.433042895981359,12.849616889302702],[121.433148426431586,12.84976151801369],[121.433303557146345,12.850037250800449],[121.433541780098096,12.850462974353812],[121.433748936554949,12.850840146374834],[121.434038011306484,12.851376095831521],[121.43421850780868,12.851716834038259],[121.434645004877908,12.852494333741504],[121.434972904133545,12.853093170088354],[121.435379363267302,12.853850763419917],[121.435766000129775,12.854553276772759],[121.436233540967208,12.85539807238823],[121.436665470589162,12.85620473189339],[121.436763991418161,12.856396584672133],[121.436782627952056,12.856462649424673],[121.436806743430168,12.856548532934736],[121.436822969363106,12.856642064038754],[121.436828169395966,12.856706949507402],[121.436834723464727,12.857096115474327],[121.436823810938122,12.857541668631105],[121.436815234397443,12.857891840809852],[121.436797191777387,12.858634811740655],[121.436798677124401,12.858756834947034],[121.436811344925289,12.858882222473662],[121.436834374277879,12.858962603378506],[121.436872958402191,12.859063962310708],[121.436913871576749,12.85915104514817],[121.436959313555832,12.859230460367659],[121.437030474589534,12.859317723424429],[121.43725098582577,12.859530089092603],[121.437697740087145,12.859933968776398],[121.438346344538402,12.860488544828396],[121.438677271075605,12.860781810615586],[121.439061714476267,12.861117165277419],[121.439315763259103,12.861341820655772],[121.439412542665778,12.861425745665542],[121.440044561348557,12.861973816505371],[121.44059278339634,12.862457440219366],[121.441178935135241,12.862967669980506],[121.44137170326718,12.863138097192756],[121.441497633114537,12.863246570182492],[121.441532199836544,12.863273157136277],[121.441561273589528,12.863282123757788],[121.441601597935446,12.863283462621606],[121.44166328279519,12.863272836877385],[121.441759198566615,12.863221474248109],[121.44186224239273,12.863166294499498],[121.442369066423424,12.862862496440401],[121.44316558874884,12.862351010846455],[121.44395350943276,12.86181726442174],[121.444378304209991,12.861508107026848],[121.444620048664774,12.861327209484932],[121.444933653053027,12.861079496085532],[121.44504604744526,12.861015720377525],[121.445168583111581,12.860977487113262],[121.445414438884981,12.860902583437309],[121.44584758786219,12.860758441071319],[121.446227189575893,12.860607896696967],[121.446555948734158,12.860459596878517],[121.446585572825612,12.860446233730448],[121.446665316932524,12.860413729001332],[121.446711330339639,12.860400810693967],[121.446770706196162,12.860401162301741],[121.446845698633339,12.860412598697978],[121.447447865547787,12.86050630077219],[121.448169709347908,12.860632587365764],[121.448325302848772,12.860654393310661],[121.448660177621861,12.860854236245581],[121.449152401350077,12.861155039530525],[121.44964580061945,12.861447055085614],[121.449753682632263,12.861495204748152],[121.45018991853685,12.861689903984148],[121.450355881473925,12.861767524183595],[121.451063523734931,12.862098483988648],[121.451914867344755,12.862483846025938],[121.452708085519717,12.862847977154846],[121.452903601459568,12.862937069485595],[121.45301301501334,12.862999272129153],[121.45313337583373,12.863103310265544],[121.453305879745713,12.863291197822011],[121.453684235262514,12.863710039515794],[121.453976933288857,12.864029444536545],[121.454266304739377,12.864343333512533],[121.454342109635135,12.864405337580422],[121.454445868760473,12.864476300286444],[121.454554257287583,12.864523107041769],[121.454718991041361,12.864582084860032],[121.455050610461115,12.864700810538698],[121.455236803599504,12.864771688845627],[121.456173960204282,12.865128434565703],[121.456260090791659,12.865150926410347],[121.456345127961143,12.865169014842602],[121.456404498488368,12.865170463594962],[121.45646392951366,12.865162019555241],[121.45659977790983,12.865115552012396],[121.456969225074886,12.864977023974008],[121.457114076216286,12.864924013695717],[121.457350894690393,12.864855055840945],[121.457430299175201,12.864843187050633],[121.457826981601954,12.864877779141866],[121.458595674706245,12.864949120724845],[121.45950294186872,12.865018394010388],[121.460290456186044,12.865088634869897],[121.460581485365708,12.865114592068164],[121.461417117529109,12.865185166418561],[121.461518049871472,12.865193823352744],[121.461608442479047,12.865197810008928],[121.461694180405416,12.86519485672204],[121.461946823737108,12.865165232066941],[121.462800032425321,12.865049264754608],[121.463419478608373,12.864957173339647],[121.463776714316708,12.864904063349575],[121.465137680676008,12.864723099556532],[121.465386732419503,12.864689983055127],[121.466955665810033,12.864473348169284],[121.468347117935892,12.864293782484005],[121.468486501654539,12.864293996771233],[121.468648367634771,12.864316835188136],[121.46891642997106,12.864419168738538],[121.46967423125119,12.864764285087933],[121.470095404872168,12.864972478034185],[121.470198325069916,12.865037858131963],[121.470283737321679,12.865117231621667],[121.470406060601505,12.865309884852081],[121.470726651078365,12.865874377947097],[121.470666080221918,12.865983190331029],[121.470989079211861,12.866352158746485],[121.471388871273788,12.866558425858271],[121.471652780994233,12.866589954982652],[121.472376536286305,12.866602570349984]]}},
{"type":"Feature","properties":{"id":354,"canal_id":null,"canal_type":"North Lateral C","remarks":null,"canal_widt":null,"station_no":null,"canal_leng":null,"station__1":null,"station__2":null,"canal":null,"canaltype":null},"geometry":{"type":"LineString","coordinates":[[121.457350894690393,12.864855055840945],[121.457354643083647,12.864241703273748],[121.457368707827584,12.86377351074673],[121.457386430270574,12.863073400540157],[121.457393991738201,12.862936040292631],[121.45740893196691,12.862874570855199],[121.457488777867113,12.862642002075299],[121.457948932006616,12.861225591702553],[121.458076762685408,12.860840510593729],[121.458412533961877,12.860642940775737],[121.458676060429838,12.860487879684941],[121.459843108401614,12.859811008178747],[121.460243228502165,12.859582964589192],[121.460431091294495,12.859475894100363],[121.460577045540987,12.859425086422524],[121.460651079293442,12.859410131527556],[121.460739583166969,12.85941065087558],[121.461211170175176,12.859423310842487],[121.461682603323396,12.859461251585476],[121.462261445274976,12.859522905211024],[121.462752044598744,12.85954117009074],[121.46307015740112,12.859551828058134],[121.463939968212173,12.859482174514108],[121.464729076869929,12.859418641166979],[121.46532480403512,12.859360988831531],[121.465759046321935,12.859172761113422],[121.466340607581373,12.858647202213234],[121.466764023493113,12.858372562821341],[121.467768587527289,12.858188335692754],[121.467808159233257,12.858304353674407],[121.4683833902522,12.858177640832057],[121.46871258450895,12.85793748435562],[121.469150673973473,12.858565108724894],[121.469412179248422,12.858454809376774],[121.469919137704693,12.859630709114448],[121.470543092085393,12.860736031223755]]}},
{"type":"Feature","properties":{"id":349,"canal_id":null,"canal_type":"South Lateral A","remarks":null,"canal_widt":null,"station_no":null,"canal_leng":null,"station__1":null,"station__2":null,"canal":null,"canaltype":null},"geometry":{"type":"LineString","coordinates":[[121.438215084355662,12.84023322636541],[121.438316609648354,12.840223873568705],[121.438631227404684,12.8402128005109],[121.438748894718344,12.840218478095878],[121.438848175643329,12.840243959163356],[121.438932163271417,12.840281296994814],[121.439002813144612,12.840342450911249],[121.439070173348739,12.840443410880823],[121.439154450684313,12.840598235946757],[121.439557870081472,12.841324463524714],[121.440102931938043,12.842282520625332],[121.440196606327646,12.842394588730956],[121.440280355388381,12.842470754799367],[121.440387459836586,12.842544072615377],[121.440671593768457,12.842705062280903],[121.44099122856187,12.842868253697995],[121.441354113298246,12.843093431207981],[121.444005144300505,12.844574864739737],[121.444517097535751,12.844844758191359],[121.44462935001097,12.844903935677266],[121.444688641023944,12.844917477657681],[121.444786128034806,12.844913658113194],[121.444904885885933,12.84491216296734],[121.445030229909335,12.844932691436179],[121.445346869667404,12.844997222575442],[121.445522549815166,12.845030140394554],[121.445919954619342,12.845077561228864],[121.445959436588893,12.845077179998933],[121.445990535918469,12.845076879705896],[121.44604664204833,12.845061822462908],[121.446112965367291,12.845024840990103],[121.446396215918057,12.844871524981723],[121.446481549282865,12.844840152044398],[121.446581270022349,12.844837444275447],[121.446629439917487,12.844837729227933],[121.446711068149128,12.844862395237641],[121.446806044625802,12.844902529455801],[121.446858384842386,12.844953403810031],[121.446985166119745,12.845104748747213],[121.447028666094738,12.845135784573827],[121.447076782043069,12.845144863006055],[121.447651825462515,12.845088904461075],[121.448179825785147,12.845031567388292],[121.448269483567231,12.845020159449563],[121.448361451761926,12.845008457503569],[121.448426573615592,12.844984659127823],[121.448558153368438,12.844901894695496],[121.448805663117525,12.844730776982493],[121.448854015125477,12.844701383249557],[121.448895558072621,12.844686239344968],[121.449025592493797,12.844672717338842],[121.449253221821124,12.844637786914451],[121.449467320707299,12.84461706645617],[121.449609704594678,12.844599220128899],[121.449721781583847,12.844591087925105],[121.449799057284025,12.844594841825003],[121.449913179301902,12.844618599446814],[121.450001403489424,12.844637128866513],[121.450403227432304,12.844721522153653],[121.450762431157941,12.844787397282225],[121.450877862213929,12.84478038361372],[121.451217366650738,12.844770294622815],[121.451406773439956,12.844757121596995],[121.45169038071819,12.844728015321937],[121.451929165212135,12.844700842969679],[121.452005341013319,12.844701292032473],[121.452078082092655,12.844713812430703],[121.45213514665501,12.844725141168704],[121.452175481757138,12.844724279682286],[121.452210269530312,12.844714591598471],[121.452291188700627,12.844672198300479],[121.452384638980746,12.844595802483074],[121.452576399836218,12.844399466591526],[121.452625889030728,12.844348796603896],[121.453566024368683,12.843395799503115],[121.453688904035545,12.84326690676048],[121.453722038711973,12.843241215043621],[121.453764283991802,12.843219061724387],[121.453815099062368,12.843205919670293],[121.454305233523954,12.843199844012835],[121.455613924057076,12.843160249851215],[121.455633220807201,12.843157376383752],[121.45567136474358,12.843142168151207],[121.455692809379457,12.843119892186202],[121.455728027900776,12.843085251618824],[121.456684930111891,12.842412840380522],[121.457758621549488,12.841640052550717],[121.457772416514274,12.841624203177194],[121.457794036915004,12.84157305423431],[121.457807038828804,12.841520859037024],[121.457886822963474,12.840334514550339],[121.457894778842771,12.840277809293529],[121.457917203844488,12.840177878267976],[121.457946518896406,12.840112835382774],[121.457978376619039,12.840046811769852],[121.458373990598602,12.83948260968606],[121.458544850024381,12.839251626136909],[121.458611217487174,12.839183813606619],[121.458658592565897,12.839152230807851],[121.458731270023179,12.839131250761483],[121.458896970933822,12.839129632387817],[121.460068698059914,12.839118185332767],[121.46027874154521,12.83911742519183],[121.46104607932476,12.839078112876289],[121.461275519861715,12.839074571100298],[121.462892972189962,12.83904959747527],[121.462972667221521,12.839042596383148],[121.463084976088751,12.839011890451477],[121.463894503771897,12.838458064911903],[121.464118049235921,12.838313755083272],[121.46417797049331,12.838292955568051],[121.464266347931641,12.838280509404859],[121.464369642514868,12.838273267294289],[121.466075479538205,12.838225582212171],[121.466183473304781,12.83818868882744],[121.466243083842372,12.838104437509946],[121.466285229971632,12.838033729275754],[121.4662907242313,12.837905289670106],[121.466258237809143,12.837071241296357],[121.466259224990338,12.836992092705467],[121.466266568898462,12.836952309484369],[121.466280507952774,12.83691256476032],[121.466768784533429,12.835871970675514],[121.467105625402652,12.835123213767099],[121.469076760310585,12.835183491726367],[121.469166990342856,12.835195965222889],[121.469249031043958,12.835220338828332],[121.47042003463558,12.83527491682387],[121.470505387616598,12.83530253322915],[121.470562508374144,12.83534226586303],[121.470610667163839,12.83539806457817],[121.470625474123253,12.836471925382998],[121.470632420112167,12.836497852819486],[121.470653565027874,12.836524858554368],[121.472375195256618,12.83757831980685],[121.473343271556871,12.838070822114499],[121.473590698411442,12.838192990637962],[121.474356770593033,12.838073269977942],[121.474893519540871,12.837323063634109],[121.475260232541274,12.836827514206922],[121.475938723946612,12.835912124213635],[121.476045295556432,12.83585729719797],[121.476293719595276,12.835732243288694],[121.476478066420455,12.83568483919821],[121.476606177415547,12.835649061198692]]}},
{"type":"Feature","properties":{"id":105,"canal_id":null,"canal_type":"Moralles  Canal","remarks":null,"canal_widt":null,"station_no":null,"canal_leng":null,"station__1":null,"station__2":null,"canal":null,"canaltype":null},"geometry":{"type":"LineString","coordinates":[[121.467865022175729,12.848926221478512],[121.467894360613499,12.848560486091435],[121.46787915463166,12.847850327774127],[121.467877625630777,12.847778919897593],[121.467875151897942,12.847663390999918],[121.467810360097019,12.846893542159815],[121.468826345933039,12.846727987006002],[121.469669626062668,12.84659220008125],[121.470263864234923,12.846512120262592],[121.471010243444368,12.846468100912357]]}},
{"type":"Feature","properties":{"id":103,"canal_id":null,"canal_type":"Falculan Canal","remarks":null,"canal_widt":null,"station_no":null,"canal_leng":null,"station__1":null,"station__2":null,"canal":null,"canaltype":null},"geometry":{"type":"LineString","coordinates":[[121.478282614723597,12.846375141647547],[121.478348705136995,12.846562396971578],[121.478357137849144,12.846650385748999]]}},
{"type":"Feature","properties":{"id":303,"canal_id":null,"canal_type":"Aguila Canal B","remarks":null,"canal_widt":null,"station_no":null,"canal_leng":null,"station__1":null,"station__2":null,"canal":null,"canaltype":null},"geometry":{"type":"LineString","coordinates":[[121.465024737158203,12.844199099449769],[121.465031955205987,12.844352693225163],[121.465592496676791,12.844387959002962],[121.465608078502996,12.844640770422419],[121.465679849122978,12.844633192294264],[121.465680547358716,12.844786747996585],[121.465770282524218,12.844773676575445],[121.465820440482972,12.844768371383285],[121.465927809869584,12.844948099759536],[121.465936999046846,12.844964240170942],[121.465946829177611,12.844972610543239],[121.465956075465499,12.844975184584504],[121.465966591631698,12.844975664459641],[121.466305935931032,12.844948991309369],[121.466477942084865,12.844926911553637],[121.466569521842871,12.844973614580624],[121.466647472073632,12.845051016811414],[121.466770165374058,12.845139672712122],[121.466817122221599,12.84515533629326],[121.466886537247746,12.84516233703931],[121.466952718194491,12.845148433256764],[121.466997787826656,12.845105825873956],[121.467066762417815,12.845000701140876],[121.467081572153603,12.84496011557694],[121.467109684824592,12.844942691786272],[121.467150066832232,12.844934133562791],[121.467187241390235,12.844900274003242],[121.467204551481359,12.844816832516157],[121.467220421446555,12.84478614632326],[121.467247433839773,12.844765418360721],[121.467295650837642,12.844758005086899],[121.467391791645625,12.844791543531873],[121.467454511812733,12.844794108069435],[121.467493826852021,12.844776749610682],[121.467552459144528,12.844714434873682],[121.467580784955373,12.844661836462052],[121.467604476561235,12.844634493615253],[121.467641511113726,12.844623717286803],[121.467766724894744,12.844666219196014],[121.467899906968611,12.844687881901491],[121.46793687491332,12.844688097583781],[121.467969428502357,12.844677295065386],[121.468010043569905,12.844630264514759],[121.468033661866542,12.844615012882405],[121.468051559073245,12.844619514268],[121.468071636819957,12.844633921571033],[121.468098149628219,12.844695633914265],[121.468115527356332,12.844785873315788],[121.46815114863935,12.844823455417806],[121.468251664035392,12.844874606989912],[121.468394855216289,12.84490841953197],[121.468506866099972,12.844911271309732],[121.468612195487154,12.844907488608447],[121.468635399236732,12.844900081034796],[121.468695768833072,12.844866396658199],[121.469033282705993,12.844560384146959],[121.469279762309881,12.844557424029251],[121.470185608846307,12.844448381202271],[121.470222557566004,12.845023211891743],[121.470252744426261,12.845637165008888],[121.471892032806537,12.845784236922611],[121.472872197294222,12.845930725529463],[121.473646437933667,12.845941625343016],[121.474631782129094,12.84581699189849],[121.475616339586551,12.84555239359535],[121.477018298481084,12.84554293416271]]}},
{"type":"Feature","properties":{"id":351,"canal_id":null,"canal_type":"Canrazon Canal Intake","remarks":null,"canal_widt":null,"station_no":null,"canal_leng":null,"station__1":null,"station__2":null,"canal":null,"canaltype":null},"geometry":{"type":"LineString","coordinates":[[121.423325132698338,12.857267656684963],[121.423431448416054,12.856982191174421],[121.424250384022955,12.85623316260355],[121.424379034216926,12.856188950215085],[121.42534902917626,12.856801171367625],[121.425817917417874,12.858709392913108]]}},
{"type":"Feature","properties":{"id":348,"canal_id":null,"canal_type":"North Lateral A","remarks":null,"canal_widt":null,"station_no":null,"canal_leng":null,"station__1":null,"station__2":null,"canal":null,"canaltype":null},"geometry":{"type":"LineString","coordinates":[[121.441759198566615,12.863221474248109],[121.441758321008535,12.863349248507944],[121.441789905458577,12.863768242969568],[121.441840167943539,12.864292031944727],[121.441877647663773,12.864687997920045],[121.441971818695137,12.865696637124033],[121.441997877024193,12.865998619683186],[121.442050629009742,12.866625690751199],[121.442073388404211,12.866933434275428],[121.442095036839973,12.867040707374223],[121.442151299756858,12.867247265980341],[121.442203392174179,12.867368545069144],[121.44227787272321,12.867477284177919],[121.442451293208549,12.867727166219845],[121.44292991779453,12.868374028425139],[121.443295563091311,12.868871599293422],[121.443812528799342,12.869585509312518],[121.444251599025918,12.870173378257102],[121.444667586005195,12.870902522930862],[121.44508679367604,12.87162163237382],[121.445611964842129,12.872530080399166],[121.445717040083863,12.872665667464485],[121.445846231244914,12.87275587537046],[121.446011656212306,12.872830356572203],[121.446718134959056,12.873069220669416],[121.447975951246661,12.87347630678771],[121.448376598897596,12.87361009069728],[121.449988582843019,12.874160835585771],[121.450405451563142,12.874300788806751],[121.450952193144445,12.874470844402076],[121.451548862989895,12.874270375353733],[121.451759723538729,12.87420577555646],[121.452258885687385,12.874049225031399],[121.452580909613886,12.874040446992213],[121.452820373945016,12.873672380177846],[121.453892019142103,12.874181343285459]]}},
{"type":"Feature","properties":{"id":356,"canal_id":null,"canal_type":"Left Main Canal","remarks":null,"canal_widt":null,"station_no":null,"canal_leng":null,"station__1":null,"station__2":null,"canal":null,"canaltype":null},"geometry":{"type":"LineString","coordinates":[[121.460235791731293,12.873730693103349],[121.460255586453741,12.873855485132182],[121.460228746735652,12.874502082682028],[121.460993507618653,12.874613374959946],[121.461782445311172,12.874744058413111],[121.462179692922305,12.874799102332405],[121.463069698892596,12.874895195506641],[121.463726098706886,12.87505030605168],[121.464092106354187,12.875133697361989],[121.464655926685893,12.875224549930779],[121.464939503519702,12.875303217181816],[121.465952504188976,12.875495132699189]]}},
{"type":"Feature","properties":{"id":357,"canal_id":null,"canal_type":"Leftt Laterl A","remarks":null,"canal_widt":null,"station_no":null,"canal_leng":null,"station__1":null,"station__2":null,"canal":null,"canaltype":null},"geometry":{"type":"LineString","coordinates":[[121.462492997291633,12.874832929882917],[121.462080646147584,12.875948563595754],[121.463617579806936,12.876490317871333]]}},
{"type":"Feature","properties":{"id":358,"canal_id":null,"canal_type":"Right Lateral A","remarks":null,"canal_widt":null,"station_no":null,"canal_leng":null,"station__1":null,"station__2":null,"canal":null,"canaltype":null},"geometry":{"type":"LineString","coordinates":[[121.461738754826698,12.872991995654184],[121.46179194346341,12.872270389882861],[121.461877366174335,12.870898931570501]]}},
{"type":"Feature","properties":{"id":359,"canal_id":null,"canal_type":"Right Main Canal","remarks":null,"canal_widt":null,"station_no":null,"canal_leng":null,"station__1":null,"station__2":null,"canal":null,"canaltype":null},"geometry":{"type":"LineString","coordinates":[[121.461275558832298,12.873122875573584],[121.461738754826698,12.872991995654184],[121.461750482676251,12.87303199971317],[121.462564286524383,12.873344792093823],[121.463118003614142,12.873856679864057],[121.463171849940792,12.87388978862765],[121.463242465302372,12.873913576469256],[121.464439794853519,12.874190265422005],[121.464468274528798,12.874067981932566],[121.464493860494827,12.874070573893071],[121.464561195270662,12.874107598910618],[121.464595382552389,12.874215946296474],[121.465238428339219,12.874336233195409],[121.46530900426643,12.874337344277842],[121.465378082022156,12.87432170120978],[121.465494251748552,12.874280518140848],[121.465599822325856,12.874228109378668],[121.466000186356069,12.87399741384306],[121.466064328482986,12.873974764451193],[121.466138311927281,12.873971011182142],[121.466227042524949,12.873998044043368],[121.46653429788293,12.874109384880462],[121.466992260829372,12.874464414966459],[121.467660361140872,12.874792241107073],[121.468100333379397,12.874889878601625],[121.468173856984308,12.875020433968624],[121.468229439983858,12.875031224770337],[121.468275970628042,12.875068825018623],[121.468341499703598,12.875139852641098],[121.469308639108377,12.875498552852802],[121.469320313633162,12.875508389196108],[121.469326959365532,12.875526568853005],[121.469277293625169,12.87562465783113],[121.469538970887356,12.875717762797878],[121.469717488342368,12.875715316878496],[121.469848977384487,12.875786554987158],[121.470839240216648,12.87608572959855],[121.470913340014988,12.875886961642184],[121.470979012209185,12.875905224099267]]}},
{"type":"Feature","properties":{"id":360,"canal_id":null,"canal_type":"Manato Supply Canal","remarks":null,"canal_widt":null,"station_no":null,"canal_leng":null,"station__1":null,"station__2":null,"canal":null,"canaltype":null},"geometry":{"type":"LineString","coordinates":[[121.472583515559478,12.86475404616745],[121.473272213418966,12.86469294770373],[121.473678262331504,12.864679991725209],[121.474264387193969,12.865335771891816],[121.474698026213247,12.865063814600953],[121.475242509342493,12.864643771045229],[121.475351959550693,12.864618874403577],[121.475545991724175,12.864593192802586],[121.475797753639526,12.864272939834102],[121.475845288440894,12.864158317374317],[121.476162273336584,12.863595240636492],[121.476612565302105,12.863042512643297],[121.476912736148591,12.862462102131602],[121.477165903014466,12.862070043777681],[121.47747015959105,12.861782648125203],[121.477917952208713,12.861805354526773],[121.478462232337023,12.860553242111983],[121.479347934957673,12.860466698611203]]}}
]
}
