{
  "type": "FeatureCollection",
  "name": "Bansud RIS",
  "crs": {
    "type": "name",
    "properties": {
      "name": "urn:ogc:def:crs:OGC:1.3:CRS84"
    }
  },
  "features": [
    {
      "type": "Feature",
      "properties": {
        "id": 350,
        "canal_id": 350,
        "canal_type": "Main",
        "remarks": "SOUTH MAIN CANAL",
        "canal_widt": null,
        "station_no": "STA 0+000",
        "canal_leng": 2006.21,
        "station__1": "STA 2+006.2",
        "station__2": "2006.21",
        "canal": "SOUTH MAIN CANAL",
        "canaltype": "Main Canal",
        "canal_lining": "Unspecified"
      },
      "geometry": {
        "type": "LineString",
        "coordinates": [
          [
            121.42778436536629,
            12.849267092133505
          ],
          [
            121.42766379807664,
            12.848635071721127
          ],
          [
            121.4292473354614,
            12.848360951158904
          ],
          [
            121.43020060163022,
            12.848195173774524
          ],
          [
            121.43050805145296,
            12.848115669257936
          ],
          [
            121.43075620369154,
            12.84802371843367
          ],
          [
            121.43087758493058,
            12.847960688809126
          ],
          [
            121.43094619223433,
            12.847917129796732
          ],
          [
            121.43099464210513,
            12.847872351069746
          ],
          [
            121.43105220394202,
            12.847803443802462
          ],
          [
            121.43110772313193,
            12.847702646741702
          ],
          [
            121.43123460836543,
            12.847474765818722
          ],
          [
            121.43138321432252,
            12.847176664068192
          ],
          [
            121.43174010413395,
            12.846531351428117
          ],
          [
            121.43193052424253,
            12.846181323975122
          ],
          [
            121.43203813341916,
            12.845983517809
          ],
          [
            121.43250146568656,
            12.845154169081313
          ],
          [
            121.43292737094838,
            12.844398244067643
          ],
          [
            121.4331495363386,
            12.843979664720129
          ],
          [
            121.43325154801171,
            12.843787908469816
          ],
          [
            121.43335912655236,
            12.843601681509323
          ],
          [
            121.43344734116577,
            12.843467002694673
          ],
          [
            121.43350828233021,
            12.843394817157677
          ],
          [
            121.43370903587247,
            12.843177268143775
          ],
          [
            121.43393558804863,
            12.842954376633047
          ],
          [
            121.43420843645113,
            12.842642713994897
          ],
          [
            121.43429136251159,
            12.842523731788605
          ],
          [
            121.43434702252435,
            12.842383678605513
          ],
          [
            121.43436731785265,
            12.842219519274536
          ],
          [
            121.43426466737318,
            12.841134095297674
          ],
          [
            121.43417399428208,
            12.840175317064652
          ],
          [
            121.43409442710428,
            12.839424131457816
          ],
          [
            121.4340897422554,
            12.839361378315383
          ],
          [
            121.43409914515098,
            12.839317626276792
          ],
          [
            121.43413402479322,
            12.83925610460649
          ],
          [
            121.43421259522594,
            12.839184886961203
          ],
          [
            121.4343662545283,
            12.839113121168772
          ],
          [
            121.43451772736051,
            12.839066731030423
          ],
          [
            121.4347016437122,
            12.839024516666836
          ],
          [
            121.43478885890543,
            12.839032005787324
          ],
          [
            121.43489826663756,
            12.839060535509478
          ],
          [
            121.43498331707147,
            12.839089915723148
          ],
          [
            121.43509062167918,
            12.839130380506683
          ],
          [
            121.4352351351324,
            12.839224831383708
          ],
          [
            121.43577706214992,
            12.839701982997287
          ],
          [
            121.43618271701612,
            12.840064819599828
          ],
          [
            121.43634732721273,
            12.840191250058291
          ],
          [
            121.4364666358647,
            12.840259663707714
          ],
          [
            121.43657491896765,
            12.840306107621547
          ],
          [
            121.43674014491258,
            12.840332977591986
          ],
          [
            121.4369947698026,
            12.840342457912307
          ],
          [
            121.43761390203638,
            12.840313285060006
          ],
          [
            121.43813556139023,
            12.84029448322762
          ],
          [
            121.43816299351494,
            12.840288672494113
          ],
          [
            121.43819254098786,
            12.840268935373894
          ],
          [
            121.43821508435566,
            12.84023322636541
          ]
        ]
      }
    },
    {
      "type": "Feature",
      "properties": {
        "id": 352,
        "canal_id": 352,
        "canal_type": "Lateral",
        "remarks": "SOUTH SUB-LATERAL A-1",
        "canal_widt": null,
        "station_no": "STA 0+000",
        "canal_leng": 2541.38,
        "station__1": "STA 2+541.4",
        "station__2": "2541.38",
        "canal": "SOUTH SUB-LATERAL A-1",
        "canaltype": "Sub-Lateral",
        "canal_lining": "Unspecified"
      },
      "geometry": {
        "type": "LineString",
        "coordinates": [
          [
            121.45076243115794,
            12.844787397282225
          ],
          [
            121.45081821807656,
            12.845190046821374
          ],
          [
            121.45085560770187,
            12.845487061153882
          ],
          [
            121.45086886866788,
            12.845516818763379
          ],
          [
            121.45088881063757,
            12.845553211204152
          ],
          [
            121.45092557635452,
            12.845586405186694
          ],
          [
            121.45095460819213,
            12.845601965762304
          ],
          [
            121.45187672689637,
            12.84576349561577
          ],
          [
            121.4527920449937,
            12.845938173124225
          ],
          [
            121.45303156076037,
            12.845974759941255
          ],
          [
            121.45305016088416,
            12.846047419172297
          ],
          [
            121.4531119354489,
            12.84602140142125
          ],
          [
            121.4531568660666,
            12.846001879848135
          ],
          [
            121.4532285478979,
            12.84600450059809
          ],
          [
            121.45343220273641,
            12.846043074283342
          ],
          [
            121.45357996671879,
            12.846061532380213
          ],
          [
            121.4537500951814,
            12.84608671752331
          ],
          [
            121.45401212367742,
            12.846105848248417
          ],
          [
            121.45429445098007,
            12.84610311345906
          ],
          [
            121.45525992330035,
            12.846137375433667
          ],
          [
            121.45592298492573,
            12.846161061780721
          ],
          [
            121.45612464343937,
            12.846178745637529
          ],
          [
            121.45627232560828,
            12.846191696096938
          ],
          [
            121.4569055234292,
            12.846336120680935
          ],
          [
            121.45830610972637,
            12.846665326083015
          ],
          [
            121.458916771512,
            12.846831598526077
          ],
          [
            121.45920776736439,
            12.846877275965351
          ],
          [
            121.45936456159409,
            12.846884791493487
          ],
          [
            121.45976998351492,
            12.846904757970133
          ],
          [
            121.46107790961801,
            12.846998168172007
          ],
          [
            121.46175652546198,
            12.847043916061029
          ],
          [
            121.46218981892589,
            12.847130804007175
          ],
          [
            121.46224213805444,
            12.84714129546337
          ],
          [
            121.4623606971933,
            12.847172768592449
          ],
          [
            121.46251485027811,
            12.847246221284447
          ],
          [
            121.46269775559006,
            12.847381399774102
          ],
          [
            121.46361715371741,
            12.84799356308466
          ],
          [
            121.46363410220142,
            12.848003561828758
          ],
          [
            121.46420432312726,
            12.848339962148186
          ],
          [
            121.46452820880384,
            12.848504544537766
          ],
          [
            121.46480328435187,
            12.848589695688474
          ],
          [
            121.46497342981483,
            12.848612675464121
          ],
          [
            121.46517516945934,
            12.848598465600666
          ],
          [
            121.46668534429723,
            12.848441868321844
          ],
          [
            121.4678801567349,
            12.84789712835155
          ],
          [
            121.46888695388895,
            12.847480623591581
          ],
          [
            121.46913144476811,
            12.847485248294939
          ],
          [
            121.46963378028072,
            12.847712106644755
          ],
          [
            121.47002321222344,
            12.84773996835224
          ],
          [
            121.47032689905889,
            12.847660163491874
          ],
          [
            121.47068727047473,
            12.847641469418482
          ],
          [
            121.47093985404042,
            12.847655736591594
          ],
          [
            121.47205940756984,
            12.847443123028393
          ],
          [
            121.47256286743688,
            12.847484440536673
          ]
        ]
      }
    },
    {
      "type": "Feature",
      "properties": {
        "id": 353,
        "canal_id": 353,
        "canal_type": "Lateral",
        "remarks": "SOUTH SUB-LATERAL A-1-B",
        "canal_widt": null,
        "station_no": "STA 0+000",
        "canal_leng": 1832.74,
        "station__1": "STA 1+832.7",
        "station__2": "1832.74",
        "canal": "SOUTH SUB-LATERAL A-1-B",
        "canaltype": "Sub-Lateral",
        "canal_lining": "Unspecified"
      },
      "geometry": {
        "type": "LineString",
        "coordinates": [
          [
            121.46499353381368,
            12.844078469125824
          ],
          [
            121.46505527814169,
            12.84404893903732
          ],
          [
            121.46511513835715,
            12.844022661722517
          ],
          [
            121.46660650288698,
            12.843862638635166
          ],
          [
            121.46704305123083,
            12.843808835978674
          ],
          [
            121.4671016379946,
            12.843870941509723
          ],
          [
            121.46733300470919,
            12.843696262879599
          ],
          [
            121.46742564237871,
            12.843765851152243
          ],
          [
            121.46747133453843,
            12.84380467883053
          ],
          [
            121.46750066349357,
            12.84381283814644
          ],
          [
            121.46753289557233,
            12.843809205809091
          ],
          [
            121.46756620842724,
            12.843802453970731
          ],
          [
            121.46759432367396,
            12.843777264288924
          ],
          [
            121.46764304555269,
            12.843739344316845
          ],
          [
            121.46767664797109,
            12.843714012986034
          ],
          [
            121.4677174609867,
            12.843696190919532
          ],
          [
            121.46777744695761,
            12.84366858233076
          ],
          [
            121.46785691351785,
            12.84363882985408
          ],
          [
            121.4679044935353,
            12.843614101003668
          ],
          [
            121.46793911860676,
            12.843566026692734
          ],
          [
            121.46799047792696,
            12.843501726351878
          ],
          [
            121.46801301394797,
            12.843433437433744
          ],
          [
            121.46802983657732,
            12.84340262483543
          ],
          [
            121.46814805191977,
            12.843432835885077
          ],
          [
            121.46821449657452,
            12.84344919977586
          ],
          [
            121.46825568790214,
            12.843456559915548
          ],
          [
            121.4682791102597,
            12.843446450832555
          ],
          [
            121.46830165091171,
            12.843435815637443
          ],
          [
            121.46833732640276,
            12.84341883178002
          ],
          [
            121.46837335793695,
            12.843401502682033
          ],
          [
            121.46841823806103,
            12.84338422518234
          ],
          [
            121.46847596245075,
            12.843379352141186
          ],
          [
            121.46865310845826,
            12.843410080279536
          ],
          [
            121.46899651603428,
            12.843398537295572
          ],
          [
            121.46941920286959,
            12.843388150536775
          ],
          [
            121.46993419890227,
            12.843331413807352
          ],
          [
            121.47037008043607,
            12.84330477871205
          ],
          [
            121.47084595763755,
            12.843278375762704
          ],
          [
            121.47081982436853,
            12.84430110819471
          ],
          [
            121.47465459518637,
            12.844280119202791
          ],
          [
            121.47562059639083,
            12.844257422431529
          ],
          [
            121.47565829436398,
            12.84431590295995
          ],
          [
            121.47708290343357,
            12.844313662253592
          ],
          [
            121.47769977844472,
            12.844309669386671
          ],
          [
            121.47777642254036,
            12.844575631381366
          ],
          [
            121.47840065971639,
            12.844363448324577
          ],
          [
            121.47879928046639,
            12.844220458310808
          ],
          [
            121.47921263316039,
            12.844291243278093
          ],
          [
            121.47950048932657,
            12.84440327600232
          ],
          [
            121.47949849303343,
            12.845006277979888
          ]
        ]
      }
    },
    {
      "type": "Feature",
      "properties": {
        "id": 167,
        "canal_id": 167,
        "canal_type": "Lateral",
        "remarks": "SOUTH LATERAL A (UPPER)",
        "canal_widt": null,
        "station_no": "STA 0+000",
        "canal_leng": 2004.05,
        "station__1": "STA 2+004.0",
        "station__2": "2004.05",
        "canal": "SOUTH LATERAL A (UPPER)",
        "canaltype": "Lateral",
        "canal_lining": "Unspecified"
      },
      "geometry": {
        "type": "LineString",
        "coordinates": [
          [
            121.43821508435566,
            12.84023322636541
          ],
          [
            121.43821199267877,
            12.840158783888063
          ],
          [
            121.43924253047457,
            12.839725831487817
          ],
          [
            121.43986931656404,
            12.839484135443938
          ],
          [
            121.44132121507828,
            12.838992301516418
          ],
          [
            121.44280100361269,
            12.838889385376751
          ],
          [
            121.44324264470158,
            12.838856186172316
          ],
          [
            121.44337198129361,
            12.83876125490788
          ],
          [
            121.44415688560977,
            12.838249652045484
          ],
          [
            121.44436627124523,
            12.838217098025353
          ],
          [
            121.44463946644827,
            12.838030468066364
          ],
          [
            121.44460890929552,
            12.837521735654029
          ],
          [
            121.44510027458297,
            12.837410851700717
          ],
          [
            121.44521194509447,
            12.83740155612347
          ],
          [
            121.4459065754502,
            12.837469386999597
          ],
          [
            121.4473709512518,
            12.837600509042902
          ],
          [
            121.44847636311368,
            12.83769465593607
          ],
          [
            121.44887605527406,
            12.837708963705168
          ],
          [
            121.44953351327854,
            12.837716827007698
          ],
          [
            121.4499789567345,
            12.837799106978105
          ],
          [
            121.44997778653922,
            12.837824489028948
          ],
          [
            121.45017108655952,
            12.83782363808331
          ],
          [
            121.4514557480401,
            12.837809308931163
          ],
          [
            121.45209917283735,
            12.837789205036207
          ],
          [
            121.45216314541703,
            12.837306709030164
          ],
          [
            121.45249896007,
            12.83734470816697
          ],
          [
            121.45436836488794,
            12.837307704880631
          ],
          [
            121.45495250087247,
            12.837694736693042
          ]
        ]
      }
    },
    {
      "type": "Feature",
      "properties": {
        "id": 168,
        "canal_id": 168,
        "canal_type": "Main",
        "remarks": "BADJANG INTAKE CANAL",
        "canal_widt": null,
        "station_no": "STA 0+000",
        "canal_leng": 173,
        "station__1": "STA 0+173.0",
        "station__2": "173.0",
        "canal": "BADJANG INTAKE CANAL",
        "canaltype": "Main Canal",
        "canal_lining": "Unspecified"
      },
      "geometry": {
        "type": "LineString",
        "coordinates": [
          [
            121.44318118977745,
            12.845256649440682
          ],
          [
            121.44320579253242,
            12.8451741047675
          ],
          [
            121.44325490084536,
            12.84510868354494
          ],
          [
            121.44334453422782,
            12.84505345896866
          ],
          [
            121.44363713631627,
            12.844993463568827
          ],
          [
            121.44390912645973,
            12.844985119077634
          ],
          [
            121.44412219281129,
            12.844988372887414
          ],
          [
            121.44432923248976,
            12.844981634397255
          ],
          [
            121.44453841787909,
            12.844955991245968
          ],
          [
            121.44451709753575,
            12.844844758191359
          ]
        ]
      }
    },
    {
      "type": "Feature",
      "properties": {
        "id": 355,
        "canal_id": 355,
        "canal_type": "Main",
        "remarks": "NORTH MAIN CANAL",
        "canal_widt": null,
        "station_no": "STA 0+000",
        "canal_leng": 6178.56,
        "station__1": "STA 6+178.6",
        "station__2": "6178.56",
        "canal": "NORTH MAIN CANAL",
        "canaltype": "Main Canal",
        "canal_lining": "Unspecified"
      },
      "geometry": {
        "type": "LineString",
        "coordinates": [
          [
            121.42781845873263,
            12.849840671178784
          ],
          [
            121.428214722556,
            12.850116751260368
          ],
          [
            121.42827940273193,
            12.850164405229332
          ],
          [
            121.4283453125523,
            12.850194478946403
          ],
          [
            121.42839342836149,
            12.850203560834576
          ],
          [
            121.4284405264639,
            12.850196148244615
          ],
          [
            121.42846973483587,
            12.85018313241522
          ],
          [
            121.42856890412126,
            12.85008919275741
          ],
          [
            121.42883065261012,
            12.849792869543943
          ],
          [
            121.42916484018615,
            12.849737709867547
          ],
          [
            121.42943403994533,
            12.84968435937982
          ],
          [
            121.42993428952533,
            12.849587322392376
          ],
          [
            121.43032569785328,
            12.849518213478902
          ],
          [
            121.4308461181383,
            12.849420196062393
          ],
          [
            121.43135198863996,
            12.849319892171138
          ],
          [
            121.43196554526428,
            12.849197146753143
          ],
          [
            121.43216626626308,
            12.849166468049027
          ],
          [
            121.43224467635545,
            12.849168035565484
          ],
          [
            121.4323252928446,
            12.849175112370068
          ],
          [
            121.43241371012738,
            12.84918883109556
          ],
          [
            121.4325020865193,
            12.849209144910812
          ],
          [
            121.43262393385497,
            12.849251643089806
          ],
          [
            121.43269317074285,
            12.849287231747534
          ],
          [
            121.43280578357316,
            12.849373643804464
          ],
          [
            121.43291273392535,
            12.849469915063091
          ],
          [
            121.43304289598136,
            12.849616889302702
          ],
          [
            121.43314842643159,
            12.84976151801369
          ],
          [
            121.43330355714635,
            12.85003725080045
          ],
          [
            121.4335417800981,
            12.850462974353812
          ],
          [
            121.43374893655495,
            12.850840146374834
          ],
          [
            121.43403801130648,
            12.85137609583152
          ],
          [
            121.43421850780868,
            12.851716834038259
          ],
          [
            121.43464500487791,
            12.852494333741504
          ],
          [
            121.43497290413355,
            12.853093170088354
          ],
          [
            121.4353793632673,
            12.853850763419917
          ],
          [
            121.43576600012977,
            12.854553276772759
          ],
          [
            121.43623354096721,
            12.85539807238823
          ],
          [
            121.43666547058916,
            12.85620473189339
          ],
          [
            121.43676399141816,
            12.856396584672133
          ],
          [
            121.43678262795206,
            12.856462649424673
          ],
          [
            121.43680674343017,
            12.856548532934736
          ],
          [
            121.4368229693631,
            12.856642064038754
          ],
          [
            121.43682816939597,
            12.856706949507402
          ],
          [
            121.43683472346473,
            12.857096115474327
          ],
          [
            121.43682381093812,
            12.857541668631105
          ],
          [
            121.43681523439744,
            12.857891840809852
          ],
          [
            121.43679719177739,
            12.858634811740655
          ],
          [
            121.4367986771244,
            12.858756834947034
          ],
          [
            121.43681134492529,
            12.858882222473662
          ],
          [
            121.43683437427788,
            12.858962603378506
          ],
          [
            121.43687295840219,
            12.859063962310708
          ],
          [
            121.43691387157675,
            12.85915104514817
          ],
          [
            121.43695931355583,
            12.859230460367659
          ],
          [
            121.43703047458953,
            12.859317723424429
          ],
          [
            121.43725098582577,
            12.859530089092603
          ],
          [
            121.43769774008715,
            12.859933968776398
          ],
          [
            121.4383463445384,
            12.860488544828396
          ],
          [
            121.4386772710756,
            12.860781810615586
          ],
          [
            121.43906171447627,
            12.861117165277419
          ],
          [
            121.4393157632591,
            12.861341820655772
          ],
          [
            121.43941254266578,
            12.861425745665542
          ],
          [
            121.44004456134856,
            12.86197381650537
          ],
          [
            121.44059278339634,
            12.862457440219366
          ],
          [
            121.44117893513524,
            12.862967669980506
          ],
          [
            121.44137170326718,
            12.863138097192756
          ],
          [
            121.44149763311454,
            12.863246570182492
          ],
          [
            121.44153219983654,
            12.863273157136277
          ],
          [
            121.44156127358953,
            12.863282123757788
          ],
          [
            121.44160159793545,
            12.863283462621606
          ],
          [
            121.44166328279519,
            12.863272836877385
          ],
          [
            121.44175919856661,
            12.863221474248109
          ],
          [
            121.44186224239273,
            12.863166294499498
          ],
          [
            121.44236906642342,
            12.862862496440401
          ],
          [
            121.44316558874884,
            12.862351010846455
          ],
          [
            121.44395350943276,
            12.86181726442174
          ],
          [
            121.44437830420999,
            12.861508107026848
          ],
          [
            121.44462004866477,
            12.861327209484932
          ],
          [
            121.44493365305303,
            12.861079496085532
          ],
          [
            121.44504604744526,
            12.861015720377525
          ],
          [
            121.44516858311158,
            12.860977487113262
          ],
          [
            121.44541443888498,
            12.860902583437309
          ],
          [
            121.44584758786219,
            12.860758441071319
          ],
          [
            121.4462271895759,
            12.860607896696967
          ],
          [
            121.44655594873416,
            12.860459596878517
          ],
          [
            121.44658557282561,
            12.860446233730448
          ],
          [
            121.44666531693252,
            12.860413729001332
          ],
          [
            121.44671133033964,
            12.860400810693967
          ],
          [
            121.44677070619616,
            12.860401162301741
          ],
          [
            121.44684569863334,
            12.860412598697978
          ],
          [
            121.44744786554779,
            12.86050630077219
          ],
          [
            121.44816970934791,
            12.860632587365764
          ],
          [
            121.44832530284877,
            12.86065439331066
          ],
          [
            121.44866017762186,
            12.860854236245581
          ],
          [
            121.44915240135008,
            12.861155039530525
          ],
          [
            121.44964580061945,
            12.861447055085614
          ],
          [
            121.44975368263226,
            12.861495204748152
          ],
          [
            121.45018991853685,
            12.861689903984148
          ],
          [
            121.45035588147393,
            12.861767524183595
          ],
          [
            121.45106352373493,
            12.862098483988648
          ],
          [
            121.45191486734475,
            12.862483846025938
          ],
          [
            121.45270808551972,
            12.862847977154846
          ],
          [
            121.45290360145957,
            12.862937069485595
          ],
          [
            121.45301301501334,
            12.862999272129153
          ],
          [
            121.45313337583373,
            12.863103310265544
          ],
          [
            121.45330587974571,
            12.863291197822011
          ],
          [
            121.45368423526251,
            12.863710039515794
          ],
          [
            121.45397693328886,
            12.864029444536545
          ],
          [
            121.45426630473938,
            12.864343333512533
          ],
          [
            121.45434210963514,
            12.864405337580422
          ],
          [
            121.45444586876047,
            12.864476300286444
          ],
          [
            121.45455425728758,
            12.86452310704177
          ],
          [
            121.45471899104136,
            12.864582084860032
          ],
          [
            121.45505061046111,
            12.864700810538698
          ],
          [
            121.4552368035995,
            12.864771688845627
          ],
          [
            121.45617396020428,
            12.865128434565703
          ],
          [
            121.45626009079166,
            12.865150926410347
          ],
          [
            121.45634512796114,
            12.865169014842602
          ],
          [
            121.45640449848837,
            12.865170463594962
          ],
          [
            121.45646392951366,
            12.86516201955524
          ],
          [
            121.45659977790983,
            12.865115552012396
          ],
          [
            121.45696922507489,
            12.864977023974008
          ],
          [
            121.45711407621629,
            12.864924013695717
          ],
          [
            121.45735089469039,
            12.864855055840945
          ],
          [
            121.4574302991752,
            12.864843187050633
          ],
          [
            121.45782698160195,
            12.864877779141866
          ],
          [
            121.45859567470625,
            12.864949120724845
          ],
          [
            121.45950294186872,
            12.865018394010388
          ],
          [
            121.46029045618604,
            12.865088634869897
          ],
          [
            121.46058148536571,
            12.865114592068164
          ],
          [
            121.46141711752911,
            12.865185166418561
          ],
          [
            121.46151804987147,
            12.865193823352744
          ],
          [
            121.46160844247905,
            12.865197810008928
          ],
          [
            121.46169418040542,
            12.86519485672204
          ],
          [
            121.46194682373711,
            12.865165232066941
          ],
          [
            121.46280003242532,
            12.865049264754608
          ],
          [
            121.46341947860837,
            12.864957173339647
          ],
          [
            121.46377671431671,
            12.864904063349575
          ],
          [
            121.46513768067601,
            12.864723099556532
          ],
          [
            121.4653867324195,
            12.864689983055127
          ],
          [
            121.46695566581003,
            12.864473348169284
          ],
          [
            121.46834711793589,
            12.864293782484005
          ],
          [
            121.46848650165454,
            12.864293996771233
          ],
          [
            121.46864836763477,
            12.864316835188136
          ],
          [
            121.46891642997106,
            12.864419168738538
          ],
          [
            121.46967423125119,
            12.864764285087933
          ],
          [
            121.47009540487217,
            12.864972478034185
          ],
          [
            121.47019832506992,
            12.865037858131963
          ],
          [
            121.47028373732168,
            12.865117231621667
          ],
          [
            121.4704060606015,
            12.865309884852081
          ],
          [
            121.47072665107837,
            12.865874377947097
          ],
          [
            121.47066608022192,
            12.865983190331029
          ],
          [
            121.47098907921186,
            12.866352158746485
          ],
          [
            121.47138887127379,
            12.86655842585827
          ],
          [
            121.47165278099423,
            12.866589954982652
          ],
          [
            121.4723765362863,
            12.866602570349984
          ]
        ]
      }
    },
    {
      "type": "Feature",
      "properties": {
        "id": 354,
        "canal_id": 354,
        "canal_type": "Lateral",
        "remarks": "NORTH LATERAL C",
        "canal_widt": null,
        "station_no": "STA 0+000",
        "canal_leng": 2107.85,
        "station__1": "STA 2+107.8",
        "station__2": "2107.85",
        "canal": "NORTH LATERAL C",
        "canaltype": "Lateral",
        "canal_lining": "Unspecified"
      },
      "geometry": {
        "type": "LineString",
        "coordinates": [
          [
            121.45735089469039,
            12.864855055840945
          ],
          [
            121.45735464308365,
            12.864241703273748
          ],
          [
            121.45736870782758,
            12.86377351074673
          ],
          [
            121.45738643027057,
            12.863073400540157
          ],
          [
            121.4573939917382,
            12.862936040292631
          ],
          [
            121.45740893196691,
            12.8628745708552
          ],
          [
            121.45748877786711,
            12.8626420020753
          ],
          [
            121.45794893200662,
            12.861225591702553
          ],
          [
            121.45807676268541,
            12.860840510593729
          ],
          [
            121.45841253396188,
            12.860642940775737
          ],
          [
            121.45867606042984,
            12.860487879684941
          ],
          [
            121.45984310840161,
            12.859811008178747
          ],
          [
            121.46024322850216,
            12.859582964589192
          ],
          [
            121.4604310912945,
            12.859475894100363
          ],
          [
            121.46057704554099,
            12.859425086422524
          ],
          [
            121.46065107929344,
            12.859410131527556
          ],
          [
            121.46073958316697,
            12.85941065087558
          ],
          [
            121.46121117017518,
            12.859423310842487
          ],
          [
            121.4616826033234,
            12.859461251585476
          ],
          [
            121.46226144527498,
            12.859522905211024
          ],
          [
            121.46275204459874,
            12.85954117009074
          ],
          [
            121.46307015740112,
            12.859551828058134
          ],
          [
            121.46393996821217,
            12.859482174514108
          ],
          [
            121.46472907686993,
            12.859418641166979
          ],
          [
            121.46532480403512,
            12.859360988831531
          ],
          [
            121.46575904632193,
            12.859172761113422
          ],
          [
            121.46634060758137,
            12.858647202213234
          ],
          [
            121.46676402349311,
            12.85837256282134
          ],
          [
            121.46776858752729,
            12.858188335692754
          ],
          [
            121.46780815923326,
            12.858304353674407
          ],
          [
            121.4683833902522,
            12.858177640832057
          ],
          [
            121.46871258450895,
            12.85793748435562
          ],
          [
            121.46915067397347,
            12.858565108724894
          ],
          [
            121.46941217924842,
            12.858454809376774
          ],
          [
            121.4699191377047,
            12.859630709114448
          ],
          [
            121.47054309208539,
            12.860736031223755
          ]
        ]
      }
    },
    {
      "type": "Feature",
      "properties": {
        "id": 349,
        "canal_id": 349,
        "canal_type": "Lateral",
        "remarks": "SOUTH LATERAL A (MAIN)",
        "canal_widt": null,
        "station_no": "STA 0+000",
        "canal_leng": 5337.3,
        "station__1": "STA 5+337.3",
        "station__2": "5337.3",
        "canal": "SOUTH LATERAL A (MAIN)",
        "canaltype": "Lateral",
        "canal_lining": "Unspecified"
      },
      "geometry": {
        "type": "LineString",
        "coordinates": [
          [
            121.43821508435566,
            12.84023322636541
          ],
          [
            121.43831660964835,
            12.840223873568705
          ],
          [
            121.43863122740468,
            12.8402128005109
          ],
          [
            121.43874889471834,
            12.840218478095878
          ],
          [
            121.43884817564333,
            12.840243959163356
          ],
          [
            121.43893216327142,
            12.840281296994814
          ],
          [
            121.43900281314461,
            12.84034245091125
          ],
          [
            121.43907017334874,
            12.840443410880823
          ],
          [
            121.43915445068431,
            12.840598235946757
          ],
          [
            121.43955787008147,
            12.841324463524714
          ],
          [
            121.44010293193804,
            12.842282520625332
          ],
          [
            121.44019660632765,
            12.842394588730956
          ],
          [
            121.44028035538838,
            12.842470754799367
          ],
          [
            121.44038745983659,
            12.842544072615377
          ],
          [
            121.44067159376846,
            12.842705062280903
          ],
          [
            121.44099122856187,
            12.842868253697995
          ],
          [
            121.44135411329825,
            12.843093431207981
          ],
          [
            121.4440051443005,
            12.844574864739737
          ],
          [
            121.44451709753575,
            12.844844758191359
          ],
          [
            121.44462935001097,
            12.844903935677266
          ],
          [
            121.44468864102394,
            12.844917477657681
          ],
          [
            121.4447861280348,
            12.844913658113194
          ],
          [
            121.44490488588593,
            12.84491216296734
          ],
          [
            121.44503022990934,
            12.84493269143618
          ],
          [
            121.4453468696674,
            12.844997222575442
          ],
          [
            121.44552254981517,
            12.845030140394554
          ],
          [
            121.44591995461934,
            12.845077561228864
          ],
          [
            121.4459594365889,
            12.845077179998933
          ],
          [
            121.44599053591847,
            12.845076879705896
          ],
          [
            121.44604664204833,
            12.845061822462908
          ],
          [
            121.44611296536729,
            12.845024840990103
          ],
          [
            121.44639621591806,
            12.844871524981723
          ],
          [
            121.44648154928286,
            12.844840152044398
          ],
          [
            121.44658127002235,
            12.844837444275447
          ],
          [
            121.44662943991749,
            12.844837729227933
          ],
          [
            121.44671106814913,
            12.84486239523764
          ],
          [
            121.4468060446258,
            12.844902529455801
          ],
          [
            121.44685838484239,
            12.844953403810031
          ],
          [
            121.44698516611975,
            12.845104748747213
          ],
          [
            121.44702866609474,
            12.845135784573827
          ],
          [
            121.44707678204307,
            12.845144863006055
          ],
          [
            121.44765182546251,
            12.845088904461075
          ],
          [
            121.44817982578515,
            12.845031567388292
          ],
          [
            121.44826948356723,
            12.845020159449563
          ],
          [
            121.44836145176193,
            12.84500845750357
          ],
          [
            121.44842657361559,
            12.844984659127823
          ],
          [
            121.44855815336844,
            12.844901894695496
          ],
          [
            121.44880566311753,
            12.844730776982493
          ],
          [
            121.44885401512548,
            12.844701383249557
          ],
          [
            121.44889555807262,
            12.844686239344968
          ],
          [
            121.4490255924938,
            12.844672717338842
          ],
          [
            121.44925322182112,
            12.84463778691445
          ],
          [
            121.4494673207073,
            12.84461706645617
          ],
          [
            121.44960970459468,
            12.844599220128899
          ],
          [
            121.44972178158385,
            12.844591087925105
          ],
          [
            121.44979905728403,
            12.844594841825003
          ],
          [
            121.4499131793019,
            12.844618599446814
          ],
          [
            121.45000140348942,
            12.844637128866513
          ],
          [
            121.4504032274323,
            12.844721522153653
          ],
          [
            121.45076243115794,
            12.844787397282225
          ],
          [
            121.45087786221393,
            12.84478038361372
          ],
          [
            121.45121736665074,
            12.844770294622815
          ],
          [
            121.45140677343996,
            12.844757121596995
          ],
          [
            121.45169038071819,
            12.844728015321937
          ],
          [
            121.45192916521214,
            12.84470084296968
          ],
          [
            121.45200534101332,
            12.844701292032473
          ],
          [
            121.45207808209265,
            12.844713812430703
          ],
          [
            121.45213514665501,
            12.844725141168704
          ],
          [
            121.45217548175714,
            12.844724279682286
          ],
          [
            121.45221026953031,
            12.844714591598471
          ],
          [
            121.45229118870063,
            12.84467219830048
          ],
          [
            121.45238463898075,
            12.844595802483074
          ],
          [
            121.45257639983622,
            12.844399466591526
          ],
          [
            121.45262588903073,
            12.844348796603896
          ],
          [
            121.45356602436868,
            12.843395799503115
          ],
          [
            121.45368890403554,
            12.84326690676048
          ],
          [
            121.45372203871197,
            12.843241215043621
          ],
          [
            121.4537642839918,
            12.843219061724387
          ],
          [
            121.45381509906237,
            12.843205919670293
          ],
          [
            121.45430523352395,
            12.843199844012835
          ],
          [
            121.45561392405708,
            12.843160249851215
          ],
          [
            121.4556332208072,
            12.843157376383752
          ],
          [
            121.45567136474358,
            12.843142168151207
          ],
          [
            121.45569280937946,
            12.843119892186202
          ],
          [
            121.45572802790078,
            12.843085251618824
          ],
          [
            121.45668493011189,
            12.842412840380522
          ],
          [
            121.45775862154949,
            12.841640052550717
          ],
          [
            121.45777241651427,
            12.841624203177194
          ],
          [
            121.457794036915,
            12.84157305423431
          ],
          [
            121.4578070388288,
            12.841520859037024
          ],
          [
            121.45788682296347,
            12.840334514550339
          ],
          [
            121.45789477884277,
            12.840277809293529
          ],
          [
            121.45791720384449,
            12.840177878267976
          ],
          [
            121.4579465188964,
            12.840112835382774
          ],
          [
            121.45797837661904,
            12.840046811769852
          ],
          [
            121.4583739905986,
            12.83948260968606
          ],
          [
            121.45854485002438,
            12.839251626136909
          ],
          [
            121.45861121748717,
            12.839183813606619
          ],
          [
            121.4586585925659,
            12.839152230807851
          ],
          [
            121.45873127002318,
            12.839131250761483
          ],
          [
            121.45889697093382,
            12.839129632387817
          ],
          [
            121.46006869805991,
            12.839118185332767
          ],
          [
            121.46027874154521,
            12.83911742519183
          ],
          [
            121.46104607932476,
            12.839078112876289
          ],
          [
            121.46127551986172,
            12.839074571100298
          ],
          [
            121.46289297218996,
            12.83904959747527
          ],
          [
            121.46297266722152,
            12.839042596383148
          ],
          [
            121.46308497608875,
            12.839011890451477
          ],
          [
            121.4638945037719,
            12.838458064911903
          ],
          [
            121.46411804923592,
            12.838313755083272
          ],
          [
            121.46417797049331,
            12.83829295556805
          ],
          [
            121.46426634793164,
            12.838280509404859
          ],
          [
            121.46436964251487,
            12.838273267294289
          ],
          [
            121.4660754795382,
            12.838225582212171
          ],
          [
            121.46618347330478,
            12.83818868882744
          ],
          [
            121.46624308384237,
            12.838104437509946
          ],
          [
            121.46628522997163,
            12.838033729275754
          ],
          [
            121.4662907242313,
            12.837905289670106
          ],
          [
            121.46625823780914,
            12.837071241296357
          ],
          [
            121.46625922499034,
            12.836992092705467
          ],
          [
            121.46626656889846,
            12.836952309484369
          ],
          [
            121.46628050795277,
            12.83691256476032
          ],
          [
            121.46676878453343,
            12.835871970675514
          ],
          [
            121.46710562540265,
            12.8351232137671
          ],
          [
            121.46907676031059,
            12.835183491726367
          ],
          [
            121.46916699034286,
            12.835195965222889
          ],
          [
            121.46924903104396,
            12.835220338828332
          ],
          [
            121.47042003463558,
            12.83527491682387
          ],
          [
            121.4705053876166,
            12.83530253322915
          ],
          [
            121.47056250837414,
            12.83534226586303
          ],
          [
            121.47061066716384,
            12.83539806457817
          ],
          [
            121.47062547412325,
            12.836471925382998
          ],
          [
            121.47063242011217,
            12.836497852819486
          ],
          [
            121.47065356502787,
            12.836524858554368
          ],
          [
            121.47237519525662,
            12.83757831980685
          ],
          [
            121.47334327155687,
            12.8380708221145
          ],
          [
            121.47359069841144,
            12.838192990637962
          ],
          [
            121.47435677059303,
            12.838073269977942
          ],
          [
            121.47489351954087,
            12.83732306363411
          ],
          [
            121.47526023254127,
            12.836827514206922
          ],
          [
            121.47593872394661,
            12.835912124213635
          ],
          [
            121.47604529555643,
            12.83585729719797
          ],
          [
            121.47629371959528,
            12.835732243288694
          ],
          [
            121.47647806642046,
            12.83568483919821
          ],
          [
            121.47660617741555,
            12.835649061198692
          ]
        ]
      }
    },
    {
      "type": "Feature",
      "properties": {
        "id": 105,
        "canal_id": 105,
        "canal_type": "Lateral",
        "remarks": "SOUTH SUB-LATERAL A-1-C",
        "canal_widt": null,
        "station_no": "STA 0+000",
        "canal_leng": 576.11,
        "station__1": "STA 0+576.1",
        "station__2": "576.11",
        "canal": "SOUTH SUB-LATERAL A-1-C",
        "canaltype": "Sub-Lateral",
        "canal_lining": "Unspecified"
      },
      "geometry": {
        "type": "LineString",
        "coordinates": [
          [
            121.46786502217573,
            12.848926221478512
          ],
          [
            121.4678943606135,
            12.848560486091435
          ],
          [
            121.46787915463166,
            12.847850327774127
          ],
          [
            121.46787762563078,
            12.847778919897593
          ],
          [
            121.46787515189794,
            12.847663390999918
          ],
          [
            121.46781036009702,
            12.846893542159815
          ],
          [
            121.46882634593304,
            12.846727987006002
          ],
          [
            121.46966962606267,
            12.84659220008125
          ],
          [
            121.47026386423492,
            12.846512120262592
          ],
          [
            121.47101024344437,
            12.846468100912357
          ]
        ]
      }
    },
    {
      "type": "Feature",
      "properties": {
        "id": 103,
        "canal_id": 103,
        "canal_type": "Lateral",
        "remarks": "SOUTH SUB-LATERAL A-1-C SPUR",
        "canal_widt": null,
        "station_no": "STA 0+000",
        "canal_leng": 31.7,
        "station__1": "STA 0+031.7",
        "station__2": "31.7",
        "canal": "SOUTH SUB-LATERAL A-1-C SPUR",
        "canaltype": "Sub-Lateral",
        "canal_lining": "Unspecified"
      },
      "geometry": {
        "type": "LineString",
        "coordinates": [
          [
            121.4782826147236,
            12.846375141647547
          ],
          [
            121.478348705137,
            12.846562396971578
          ],
          [
            121.47835713784914,
            12.846650385749
          ]
        ]
      }
    },
    {
      "type": "Feature",
      "properties": {
        "id": 303,
        "canal_id": 303,
        "canal_type": "Lateral",
        "remarks": "SOUTH SUB-LATERAL A-1-A",
        "canal_widt": null,
        "station_no": "STA 0+000",
        "canal_leng": 1583.9,
        "station__1": "STA 1+583.9",
        "station__2": "1583.9",
        "canal": "SOUTH SUB-LATERAL A-1-A",
        "canaltype": "Sub-Lateral",
        "canal_lining": "Unspecified"
      },
      "geometry": {
        "type": "LineString",
        "coordinates": [
          [
            121.4650247371582,
            12.844199099449769
          ],
          [
            121.46503195520599,
            12.844352693225163
          ],
          [
            121.46559249667679,
            12.844387959002962
          ],
          [
            121.465608078503,
            12.84464077042242
          ],
          [
            121.46567984912298,
            12.844633192294264
          ],
          [
            121.46568054735872,
            12.844786747996585
          ],
          [
            121.46577028252422,
            12.844773676575445
          ],
          [
            121.46582044048297,
            12.844768371383285
          ],
          [
            121.46592780986958,
            12.844948099759536
          ],
          [
            121.46593699904685,
            12.844964240170942
          ],
          [
            121.46594682917761,
            12.84497261054324
          ],
          [
            121.4659560754655,
            12.844975184584504
          ],
          [
            121.4659665916317,
            12.844975664459641
          ],
          [
            121.46630593593103,
            12.84494899130937
          ],
          [
            121.46647794208486,
            12.844926911553637
          ],
          [
            121.46656952184287,
            12.844973614580624
          ],
          [
            121.46664747207363,
            12.845051016811414
          ],
          [
            121.46677016537406,
            12.845139672712122
          ],
          [
            121.4668171222216,
            12.84515533629326
          ],
          [
            121.46688653724775,
            12.84516233703931
          ],
          [
            121.46695271819449,
            12.845148433256764
          ],
          [
            121.46699778782666,
            12.845105825873956
          ],
          [
            121.46706676241782,
            12.845000701140876
          ],
          [
            121.4670815721536,
            12.84496011557694
          ],
          [
            121.46710968482459,
            12.844942691786272
          ],
          [
            121.46715006683223,
            12.844934133562791
          ],
          [
            121.46718724139023,
            12.844900274003242
          ],
          [
            121.46720455148136,
            12.844816832516157
          ],
          [
            121.46722042144656,
            12.84478614632326
          ],
          [
            121.46724743383977,
            12.844765418360721
          ],
          [
            121.46729565083764,
            12.844758005086899
          ],
          [
            121.46739179164562,
            12.844791543531873
          ],
          [
            121.46745451181273,
            12.844794108069435
          ],
          [
            121.46749382685202,
            12.844776749610682
          ],
          [
            121.46755245914453,
            12.844714434873682
          ],
          [
            121.46758078495537,
            12.844661836462052
          ],
          [
            121.46760447656123,
            12.844634493615253
          ],
          [
            121.46764151111373,
            12.844623717286803
          ],
          [
            121.46776672489474,
            12.844666219196014
          ],
          [
            121.46789990696861,
            12.844687881901491
          ],
          [
            121.46793687491332,
            12.84468809758378
          ],
          [
            121.46796942850236,
            12.844677295065386
          ],
          [
            121.4680100435699,
            12.844630264514759
          ],
          [
            121.46803366186654,
            12.844615012882405
          ],
          [
            121.46805155907325,
            12.844619514268
          ],
          [
            121.46807163681996,
            12.844633921571033
          ],
          [
            121.46809814962822,
            12.844695633914265
          ],
          [
            121.46811552735633,
            12.844785873315788
          ],
          [
            121.46815114863935,
            12.844823455417806
          ],
          [
            121.46825166403539,
            12.844874606989912
          ],
          [
            121.46839485521629,
            12.84490841953197
          ],
          [
            121.46850686609997,
            12.844911271309732
          ],
          [
            121.46861219548715,
            12.844907488608447
          ],
          [
            121.46863539923673,
            12.844900081034796
          ],
          [
            121.46869576883307,
            12.8448663966582
          ],
          [
            121.469033282706,
            12.844560384146959
          ],
          [
            121.46927976230988,
            12.84455742402925
          ],
          [
            121.47018560884631,
            12.844448381202271
          ],
          [
            121.470222557566,
            12.845023211891743
          ],
          [
            121.47025274442626,
            12.845637165008888
          ],
          [
            121.47189203280654,
            12.845784236922611
          ],
          [
            121.47287219729422,
            12.845930725529463
          ],
          [
            121.47364643793367,
            12.845941625343016
          ],
          [
            121.4746317821291,
            12.84581699189849
          ],
          [
            121.47561633958655,
            12.84555239359535
          ],
          [
            121.47701829848108,
            12.84554293416271
          ]
        ]
      }
    },
    {
      "type": "Feature",
      "properties": {
        "id": 351,
        "canal_id": 351,
        "canal_type": "Main",
        "remarks": "BADJANG FEEDER CANAL",
        "canal_widt": null,
        "station_no": "STA 0+000",
        "canal_leng": 512.27,
        "station__1": "STA 0+512.3",
        "station__2": "512.27",
        "canal": "BADJANG FEEDER CANAL",
        "canaltype": "Supply Canal",
        "canal_lining": "Unspecified"
      },
      "geometry": {
        "type": "LineString",
        "coordinates": [
          [
            121.42332513269834,
            12.857267656684963
          ],
          [
            121.42343144841605,
            12.85698219117442
          ],
          [
            121.42425038402295,
            12.85623316260355
          ],
          [
            121.42437903421693,
            12.856188950215085
          ],
          [
            121.42534902917626,
            12.856801171367625
          ],
          [
            121.42581791741787,
            12.858709392913108
          ]
        ]
      }
    },
    {
      "type": "Feature",
      "properties": {
        "id": 348,
        "canal_id": 348,
        "canal_type": "Lateral",
        "remarks": "NORTH LATERAL A",
        "canal_widt": null,
        "station_no": "STA 0+000",
        "canal_leng": 2127.48,
        "station__1": "STA 2+127.5",
        "station__2": "2127.48",
        "canal": "NORTH LATERAL A",
        "canaltype": "Lateral",
        "canal_lining": "Unspecified"
      },
      "geometry": {
        "type": "LineString",
        "coordinates": [
          [
            121.44175919856661,
            12.863221474248109
          ],
          [
            121.44175832100854,
            12.863349248507944
          ],
          [
            121.44178990545858,
            12.863768242969568
          ],
          [
            121.44184016794354,
            12.864292031944727
          ],
          [
            121.44187764766377,
            12.864687997920045
          ],
          [
            121.44197181869514,
            12.865696637124033
          ],
          [
            121.44199787702419,
            12.865998619683186
          ],
          [
            121.44205062900974,
            12.8666256907512
          ],
          [
            121.44207338840421,
            12.866933434275428
          ],
          [
            121.44209503683997,
            12.867040707374223
          ],
          [
            121.44215129975686,
            12.86724726598034
          ],
          [
            121.44220339217418,
            12.867368545069144
          ],
          [
            121.44227787272321,
            12.86747728417792
          ],
          [
            121.44245129320855,
            12.867727166219845
          ],
          [
            121.44292991779453,
            12.868374028425139
          ],
          [
            121.44329556309131,
            12.868871599293422
          ],
          [
            121.44381252879934,
            12.869585509312518
          ],
          [
            121.44425159902592,
            12.870173378257102
          ],
          [
            121.4446675860052,
            12.870902522930862
          ],
          [
            121.44508679367604,
            12.87162163237382
          ],
          [
            121.44561196484213,
            12.872530080399166
          ],
          [
            121.44571704008386,
            12.872665667464485
          ],
          [
            121.44584623124491,
            12.87275587537046
          ],
          [
            121.4460116562123,
            12.872830356572203
          ],
          [
            121.44671813495906,
            12.873069220669416
          ],
          [
            121.44797595124666,
            12.87347630678771
          ],
          [
            121.4483765988976,
            12.87361009069728
          ],
          [
            121.44998858284302,
            12.874160835585771
          ],
          [
            121.45040545156314,
            12.874300788806751
          ],
          [
            121.45095219314445,
            12.874470844402076
          ],
          [
            121.4515488629899,
            12.874270375353733
          ],
          [
            121.45175972353873,
            12.87420577555646
          ],
          [
            121.45225888568739,
            12.8740492250314
          ],
          [
            121.45258090961389,
            12.874040446992213
          ],
          [
            121.45282037394502,
            12.873672380177846
          ],
          [
            121.4538920191421,
            12.874181343285459
          ]
        ]
      }
    },
    {
      "type": "Feature",
      "properties": {
        "id": 356,
        "canal_id": 356,
        "canal_type": "Main",
        "remarks": "FAMPULME LEFT MAIN CANAL",
        "canal_widt": null,
        "station_no": "STA 0+000",
        "canal_leng": 717.06,
        "station__1": "STA 0+717.1",
        "station__2": "717.06",
        "canal": "FAMPULME LEFT MAIN CANAL",
        "canaltype": "Main Canal",
        "canal_lining": "Unspecified"
      },
      "geometry": {
        "type": "LineString",
        "coordinates": [
          [
            121.4602357917313,
            12.873730693103349
          ],
          [
            121.46025558645374,
            12.873855485132182
          ],
          [
            121.46022874673565,
            12.874502082682028
          ],
          [
            121.46099350761865,
            12.874613374959946
          ],
          [
            121.46178244531117,
            12.87474405841311
          ],
          [
            121.4621796929223,
            12.874799102332405
          ],
          [
            121.4630696988926,
            12.87489519550664
          ],
          [
            121.46372609870689,
            12.87505030605168
          ],
          [
            121.46409210635419,
            12.875133697361989
          ],
          [
            121.4646559266859,
            12.87522454993078
          ],
          [
            121.4649395035197,
            12.875303217181816
          ],
          [
            121.46595250418898,
            12.87549513269919
          ]
        ]
      }
    },
    {
      "type": "Feature",
      "properties": {
        "id": 357,
        "canal_id": 357,
        "canal_type": "Lateral",
        "remarks": "FAMPULME LEFT LATERAL A",
        "canal_widt": null,
        "station_no": "STA 0+000",
        "canal_leng": 308.53,
        "station__1": "STA 0+308.5",
        "station__2": "308.53",
        "canal": "FAMPULME LEFT LATERAL A",
        "canaltype": "Lateral",
        "canal_lining": "Unspecified"
      },
      "geometry": {
        "type": "LineString",
        "coordinates": [
          [
            121.46249299729163,
            12.874832929882917
          ],
          [
            121.46208064614758,
            12.875948563595754
          ],
          [
            121.46361757980694,
            12.876490317871333
          ]
        ]
      }
    },
    {
      "type": "Feature",
      "properties": {
        "id": 358,
        "canal_id": 358,
        "canal_type": "Lateral",
        "remarks": "FAMPULME RIGHT LATERAL A",
        "canal_widt": null,
        "station_no": "STA 0+000",
        "canal_leng": 232.03,
        "station__1": "STA 0+232.0",
        "station__2": "232.03",
        "canal": "FAMPULME RIGHT LATERAL A",
        "canaltype": "Lateral",
        "canal_lining": "Unspecified"
      },
      "geometry": {
        "type": "LineString",
        "coordinates": [
          [
            121.4617387548267,
            12.872991995654184
          ],
          [
            121.46179194346341,
            12.87227038988286
          ],
          [
            121.46187736617433,
            12.870898931570501
          ]
        ]
      }
    },
    {
      "type": "Feature",
      "properties": {
        "id": 359,
        "canal_id": 359,
        "canal_type": "Main",
        "remarks": "FAMPULME RIGHT MAIN CANAL",
        "canal_widt": null,
        "station_no": "STA 0+000",
        "canal_leng": 1215.04,
        "station__1": "STA 1+215.0",
        "station__2": "1215.04",
        "canal": "FAMPULME RIGHT MAIN CANAL",
        "canaltype": "Main Canal",
        "canal_lining": "Unspecified"
      },
      "geometry": {
        "type": "LineString",
        "coordinates": [
          [
            121.4612755588323,
            12.873122875573584
          ],
          [
            121.4617387548267,
            12.872991995654184
          ],
          [
            121.46175048267625,
            12.87303199971317
          ],
          [
            121.46256428652438,
            12.873344792093823
          ],
          [
            121.46311800361414,
            12.873856679864057
          ],
          [
            121.46317184994079,
            12.87388978862765
          ],
          [
            121.46324246530237,
            12.873913576469256
          ],
          [
            121.46443979485352,
            12.874190265422005
          ],
          [
            121.4644682745288,
            12.874067981932566
          ],
          [
            121.46449386049483,
            12.874070573893071
          ],
          [
            121.46456119527066,
            12.874107598910618
          ],
          [
            121.46459538255239,
            12.874215946296474
          ],
          [
            121.46523842833922,
            12.87433623319541
          ],
          [
            121.46530900426643,
            12.874337344277842
          ],
          [
            121.46537808202216,
            12.87432170120978
          ],
          [
            121.46549425174855,
            12.874280518140848
          ],
          [
            121.46559982232586,
            12.874228109378668
          ],
          [
            121.46600018635607,
            12.87399741384306
          ],
          [
            121.46606432848299,
            12.873974764451193
          ],
          [
            121.46613831192728,
            12.873971011182142
          ],
          [
            121.46622704252495,
            12.873998044043368
          ],
          [
            121.46653429788293,
            12.874109384880462
          ],
          [
            121.46699226082937,
            12.874464414966459
          ],
          [
            121.46766036114087,
            12.874792241107073
          ],
          [
            121.4681003333794,
            12.874889878601625
          ],
          [
            121.46817385698431,
            12.875020433968624
          ],
          [
            121.46822943998386,
            12.875031224770337
          ],
          [
            121.46827597062804,
            12.875068825018623
          ],
          [
            121.4683414997036,
            12.875139852641098
          ],
          [
            121.46930863910838,
            12.875498552852802
          ],
          [
            121.46932031363316,
            12.875508389196108
          ],
          [
            121.46932695936553,
            12.875526568853005
          ],
          [
            121.46927729362517,
            12.87562465783113
          ],
          [
            121.46953897088736,
            12.875717762797878
          ],
          [
            121.46971748834237,
            12.875715316878496
          ],
          [
            121.46984897738449,
            12.875786554987158
          ],
          [
            121.47083924021665,
            12.87608572959855
          ],
          [
            121.47091334001499,
            12.875886961642184
          ],
          [
            121.47097901220918,
            12.875905224099267
          ]
        ]
      }
    },
    {
      "type": "Feature",
      "properties": {
        "id": 360,
        "canal_id": 360,
        "canal_type": "Main",
        "remarks": "MANATO SUPPLY CANAL",
        "canal_widt": null,
        "station_no": "STA 0+000",
        "canal_leng": 1053.02,
        "station__1": "STA 1+053.0",
        "station__2": "1053.02",
        "canal": "MANATO SUPPLY CANAL",
        "canaltype": "Supply Canal",
        "canal_lining": "Unspecified"
      },
      "geometry": {
        "type": "LineString",
        "coordinates": [
          [
            121.47258351555948,
            12.86475404616745
          ],
          [
            121.47327221341897,
            12.86469294770373
          ],
          [
            121.4736782623315,
            12.86467999172521
          ],
          [
            121.47426438719397,
            12.865335771891816
          ],
          [
            121.47469802621325,
            12.865063814600953
          ],
          [
            121.4752425093425,
            12.864643771045229
          ],
          [
            121.4753519595507,
            12.864618874403577
          ],
          [
            121.47554599172418,
            12.864593192802586
          ],
          [
            121.47579775363953,
            12.864272939834102
          ],
          [
            121.4758452884409,
            12.864158317374317
          ],
          [
            121.47616227333658,
            12.863595240636492
          ],
          [
            121.4766125653021,
            12.863042512643297
          ],
          [
            121.47691273614859,
            12.862462102131602
          ],
          [
            121.47716590301447,
            12.862070043777681
          ],
          [
            121.47747015959105,
            12.861782648125203
          ],
          [
            121.47791795220871,
            12.861805354526773
          ],
          [
            121.47846223233702,
            12.860553242111983
          ],
          [
            121.47934793495767,
            12.860466698611203
          ]
        ]
      }
    }
  ]
}