{
  "type": "FeatureCollection",
  "name": "Cantingas_structures",
  "crs": {
    "type": "name",
    "properties": {
      "name": "urn:ogc:def:crs:OGC:1.3:CRS84"
    }
  },
  "features": [
    {
      "type": "Feature",
      "properties": {
        "id": 15,
        "name": "Cantingas RIS Diversion Dam",
        "type": "Other Structures",
        "Structure_Category": "Diversion Dam / Weir",
        "canal_name": "WEST MAIN CANAL",
        "station": "STA 0+215.2",
        "station_m": 215.21,
        "offset_m": 40.46,
        "desc": "",
        "comment": "",
        "elevation_m": null,
        "photo_filename": null,
        "photo_path": null,
        "surveyor_comment": null,
        "survey_date": null,
        "station_source": "Geometric Projection",
        "native_station": null
      },
      "geometry": {
        "type": "Point",
        "coordinates": [
          122.5764181,
          12.3248875
        ]
      }
    },
    {
      "type": "Feature",
      "properties": {
        "id": 22,
        "name": "Road Crossing Nt'l Road (Sta. 0+670 WMC)",
        "type": "Road Crossing",
        "Structure_Category": "Road Crossing",
        "canal_name": "WEST MAIN CANAL",
        "station": "STA 0+670.0",
        "station_m": 670,
        "offset_m": 0.28,
        "desc": "",
        "comment": "",
        "elevation_m": null,
        "photo_filename": null,
        "photo_path": null,
        "surveyor_comment": null,
        "survey_date": null,
        "station_source": "Native (Survey / POW)",
        "native_station": "Sta. 0+670"
      },
      "geometry": {
        "type": "Point",
        "coordinates": [
          122.5723223,
          12.3236551
        ]
      }
    },
    {
      "type": "Feature",
      "properties": {
        "id": 23,
        "name": "Road Crossing (Sta. 0+260 Lat B)",
        "type": "Road Crossing",
        "Structure_Category": "Road Crossing",
        "canal_name": "LATERAL B",
        "station": "STA 0+260.0",
        "station_m": 260,
        "offset_m": 5.75,
        "desc": "",
        "comment": "",
        "elevation_m": null,
        "photo_filename": null,
        "photo_path": null,
        "surveyor_comment": null,
        "survey_date": null,
        "station_source": "Native (Survey / POW)",
        "native_station": "Sta. 0+260"
      },
      "geometry": {
        "type": "Point",
        "coordinates": [
          122.5722911,
          12.3250484
        ]
      }
    },
    {
      "type": "Feature",
      "properties": {
        "id": 24,
        "name": "Turnout (Sta. 0+369 Lat B)",
        "type": "Road Crossing",
        "Structure_Category": "Turnout (TO)",
        "canal_name": "LATERAL B",
        "station": "STA 0+369.0",
        "station_m": 369,
        "offset_m": 1.76,
        "desc": "",
        "comment": "",
        "elevation_m": null,
        "photo_filename": null,
        "photo_path": null,
        "surveyor_comment": null,
        "survey_date": null,
        "station_source": "Native (Survey / POW)",
        "native_station": "Sta. 0+369"
      },
      "geometry": {
        "type": "Point",
        "coordinates": [
          122.5719168,
          12.3259569
        ]
      }
    },
    {
      "type": "Feature",
      "properties": {
        "id": 32,
        "name": "Bullcart Crossing (Sta. 1+609 Lat B)",
        "type": "Thresher Crossing",
        "Structure_Category": "Thresher Crossing",
        "canal_name": "LATERAL B",
        "station": "STA 1+609.0",
        "station_m": 1609,
        "offset_m": 0.89,
        "desc": "",
        "comment": "",
        "elevation_m": null,
        "photo_filename": null,
        "photo_path": null,
        "surveyor_comment": null,
        "survey_date": null,
        "station_source": "Native (Survey / POW)",
        "native_station": "Sta. 1+609"
      },
      "geometry": {
        "type": "Point",
        "coordinates": [
          122.5645592,
          12.3321615
        ]
      }
    },
    {
      "type": "Feature",
      "properties": {
        "id": 33,
        "name": "Road Crossing Nt'l Road (Sta. 1+695 Lat B)",
        "type": "Road Crossing",
        "Structure_Category": "Road Crossing",
        "canal_name": "LATERAL B",
        "station": "STA 1+695.0",
        "station_m": 1695,
        "offset_m": 2.11,
        "desc": "",
        "comment": "",
        "elevation_m": null,
        "photo_filename": null,
        "photo_path": null,
        "surveyor_comment": null,
        "survey_date": null,
        "station_source": "Native (Survey / POW)",
        "native_station": "Sta. 1+695"
      },
      "geometry": {
        "type": "Point",
        "coordinates": [
          122.5637313,
          12.3322945
        ]
      }
    },
    {
      "type": "Feature",
      "properties": {
        "id": 36,
        "name": "Bullcart Crossing (Sta. 1+922 Lat B)",
        "type": "Thresher Crossing",
        "Structure_Category": "Thresher Crossing",
        "canal_name": "LATERAL B",
        "station": "STA 1+922.0",
        "station_m": 1922,
        "offset_m": 1.26,
        "desc": "",
        "comment": "",
        "elevation_m": null,
        "photo_filename": null,
        "photo_path": null,
        "surveyor_comment": null,
        "survey_date": null,
        "station_source": "Native (Survey / POW)",
        "native_station": "Sta. 1+922"
      },
      "geometry": {
        "type": "Point",
        "coordinates": [
          122.5616389,
          12.3327764
        ]
      }
    },
    {
      "type": "Feature",
      "properties": {
        "id": 37,
        "name": "Bullcart Crossing (Sta. 1+991 Lat B)",
        "type": "Thresher Crossing",
        "Structure_Category": "Thresher Crossing",
        "canal_name": "LATERAL B",
        "station": "STA 1+991.0",
        "station_m": 1991,
        "offset_m": 4.94,
        "desc": "",
        "comment": "",
        "elevation_m": null,
        "photo_filename": null,
        "photo_path": null,
        "surveyor_comment": null,
        "survey_date": null,
        "station_source": "Native (Survey / POW)",
        "native_station": "Sta. 1+991"
      },
      "geometry": {
        "type": "Point",
        "coordinates": [
          122.5611342,
          12.3330645
        ]
      }
    },
    {
      "type": "Feature",
      "properties": {
        "id": 38,
        "name": "Siphon (Sta. 2+188 Lat B)",
        "type": "Siphon",
        "Structure_Category": "Siphon",
        "canal_name": "LATERAL B",
        "station": "STA 2+188.0",
        "station_m": 2188,
        "offset_m": 3.75,
        "desc": "",
        "comment": "",
        "elevation_m": null,
        "photo_filename": null,
        "photo_path": null,
        "surveyor_comment": null,
        "survey_date": null,
        "station_source": "Native (Survey / POW)",
        "native_station": "Sta. 2+188"
      },
      "geometry": {
        "type": "Point",
        "coordinates": [
          122.5594784,
          12.3336102
        ]
      }
    },
    {
      "type": "Feature",
      "properties": {
        "id": 39,
        "name": "Road Crossing (Sta. 2+496 Lat B)",
        "type": "Road Crossing",
        "Structure_Category": "Road Crossing",
        "canal_name": "LATERAL B",
        "station": "STA 2+496.0",
        "station_m": 2496,
        "offset_m": 0.37,
        "desc": "",
        "comment": "",
        "elevation_m": null,
        "photo_filename": null,
        "photo_path": null,
        "surveyor_comment": null,
        "survey_date": null,
        "station_source": "Native (Survey / POW)",
        "native_station": "Sta. 2+496"
      },
      "geometry": {
        "type": "Point",
        "coordinates": [
          122.5584917,
          12.3362651
        ]
      }
    },
    {
      "type": "Feature",
      "properties": {
        "id": 40,
        "name": "Road Crossing Nt'l Road (Sta. 2+653 Lat B)",
        "type": "Road Crossing",
        "Structure_Category": "Road Crossing",
        "canal_name": "LATERAL B",
        "station": "STA 2+653.0",
        "station_m": 2653,
        "offset_m": 0.07,
        "desc": "",
        "comment": "",
        "elevation_m": null,
        "photo_filename": null,
        "photo_path": null,
        "surveyor_comment": null,
        "survey_date": null,
        "station_source": "Native (Survey / POW)",
        "native_station": "Sta. 2+653"
      },
      "geometry": {
        "type": "Point",
        "coordinates": [
          122.5584619,
          12.3376652
        ]
      }
    },
    {
      "type": "Feature",
      "properties": {
        "id": 41,
        "name": "End of Lat B Start of Cabitangahan Area (Sta. 2+662 Lat B)",
        "type": "Other Structures",
        "Structure_Category": "Other Structures",
        "canal_name": "LATERAL B",
        "station": "STA 2+662.0",
        "station_m": 2662,
        "offset_m": 6.67,
        "desc": "",
        "comment": "",
        "elevation_m": null,
        "photo_filename": null,
        "photo_path": null,
        "surveyor_comment": null,
        "survey_date": null,
        "station_source": "Native (Survey / POW)",
        "native_station": "Sta. 2+662"
      },
      "geometry": {
        "type": "Point",
        "coordinates": [
          122.5585243,
          12.3377137
        ]
      }
    },
    {
      "type": "Feature",
      "properties": {
        "id": 46,
        "name": "Road Crossing Nt'l Roaad (Sta. 0+305 Lat A)",
        "type": "Road Crossing",
        "Structure_Category": "Road Crossing",
        "canal_name": "LATERAL A",
        "station": "STA 0+305.0",
        "station_m": 305,
        "offset_m": 3.41,
        "desc": "",
        "comment": "",
        "elevation_m": null,
        "photo_filename": null,
        "photo_path": null,
        "surveyor_comment": null,
        "survey_date": null,
        "station_source": "Native (Survey / POW)",
        "native_station": "Sta. 0+305"
      },
      "geometry": {
        "type": "Point",
        "coordinates": [
          122.574375,
          12.3215264
        ]
      }
    },
    {
      "type": "Feature",
      "properties": {
        "id": 50,
        "name": "Bullcart Crossing (Sta. 0+700 EMC)",
        "type": "Thresher Crossing",
        "Structure_Category": "Thresher Crossing",
        "canal_name": "EAST MAIN CANAL",
        "station": "STA 0+700.0",
        "station_m": 700,
        "offset_m": 1.62,
        "desc": "",
        "comment": "",
        "elevation_m": null,
        "photo_filename": null,
        "photo_path": null,
        "surveyor_comment": null,
        "survey_date": "2023-9-8",
        "station_source": "Native (Survey / POW)",
        "native_station": "Sta. 0+700"
      },
      "geometry": {
        "type": "Point",
        "coordinates": [
          122.5800981,
          12.3217819
        ]
      }
    },
    {
      "type": "Feature",
      "properties": {
        "id": 52,
        "name": "Thresher Crossing",
        "type": "Thresher Crossing",
        "Structure_Category": "Thresher Crossing",
        "canal_name": "EAST MAIN CANAL",
        "station": "STA 0+658.0",
        "station_m": 657.99,
        "offset_m": 2.43,
        "desc": "",
        "comment": "",
        "elevation_m": null,
        "photo_filename": null,
        "photo_path": null,
        "surveyor_comment": null,
        "survey_date": null,
        "station_source": "Geometric Projection",
        "native_station": null
      },
      "geometry": {
        "type": "Point",
        "coordinates": [
          122.5798484,
          12.3210308
        ]
      }
    },
    {
      "type": "Feature",
      "properties": {
        "id": 55,
        "name": "Bullcart Crossinng (Sta. 1+256 EMC)",
        "type": "Thresher Crossing",
        "Structure_Category": "Thresher Crossing",
        "canal_name": "EAST MAIN CANAL",
        "station": "STA 1+256.0",
        "station_m": 1256,
        "offset_m": 2.74,
        "desc": "",
        "comment": "",
        "elevation_m": null,
        "photo_filename": null,
        "photo_path": null,
        "surveyor_comment": null,
        "survey_date": null,
        "station_source": "Native (Survey / POW)",
        "native_station": "Sta. 1+256"
      },
      "geometry": {
        "type": "Point",
        "coordinates": [
          122.5802886,
          12.317553
        ]
      }
    },
    {
      "type": "Feature",
      "properties": {
        "id": 56,
        "name": "Road Crossing Nat'l Road (Sta. 1+325 EMC)",
        "type": "Road Crossing",
        "Structure_Category": "Road Crossing",
        "canal_name": "EAST MAIN CANAL",
        "station": "STA 1+325.0",
        "station_m": 1325,
        "offset_m": 1.35,
        "desc": "",
        "comment": "",
        "elevation_m": null,
        "photo_filename": null,
        "photo_path": null,
        "surveyor_comment": null,
        "survey_date": null,
        "station_source": "Native (Survey / POW)",
        "native_station": "Sta. 1+325"
      },
      "geometry": {
        "type": "Point",
        "coordinates": [
          122.5803572,
          12.317022
        ]
      }
    },
    {
      "type": "Feature",
      "properties": {
        "id": 60,
        "name": "Bullcart Crossing (Sta. 1+798 EMC)",
        "type": "Thresher Crossing",
        "Structure_Category": "Thresher Crossing",
        "canal_name": "EAST MAIN CANAL",
        "station": "STA 1+798.0",
        "station_m": 1798,
        "offset_m": 0.18,
        "desc": "",
        "comment": "",
        "elevation_m": null,
        "photo_filename": null,
        "photo_path": null,
        "surveyor_comment": null,
        "survey_date": null,
        "station_source": "Native (Survey / POW)",
        "native_station": "Sta. 1+798"
      },
      "geometry": {
        "type": "Point",
        "coordinates": [
          122.5820009,
          12.3137452
        ]
      }
    },
    {
      "type": "Feature",
      "properties": {
        "id": 62,
        "name": "Road Crossing (Sta. 1+984 EMC)",
        "type": "Road Crossing",
        "Structure_Category": "Road Crossing",
        "canal_name": "EAST MAIN CANAL",
        "station": "STA 1+984.0",
        "station_m": 1984,
        "offset_m": 3.29,
        "desc": "",
        "comment": "",
        "elevation_m": null,
        "photo_filename": null,
        "photo_path": null,
        "surveyor_comment": null,
        "survey_date": null,
        "station_source": "Native (Survey / POW)",
        "native_station": "Sta. 1+984"
      },
      "geometry": {
        "type": "Point",
        "coordinates": [
          122.5829366,
          12.3123304
        ]
      }
    },
    {
      "type": "Feature",
      "properties": {
        "id": 64,
        "name": "Siphon (Sta. 2+201 EMC)",
        "type": "Siphon",
        "Structure_Category": "Siphon",
        "canal_name": "EAST MAIN CANAL",
        "station": "STA 2+201.0",
        "station_m": 2201,
        "offset_m": 3.62,
        "desc": "",
        "comment": "",
        "elevation_m": null,
        "photo_filename": null,
        "photo_path": null,
        "surveyor_comment": null,
        "survey_date": null,
        "station_source": "Native (Survey / POW)",
        "native_station": "Sta. 2+201"
      },
      "geometry": {
        "type": "Point",
        "coordinates": [
          122.5840934,
          12.3110818
        ]
      }
    },
    {
      "type": "Feature",
      "properties": {
        "id": 67,
        "name": "Bullcart (Sta. 2+263 EMC)",
        "type": "Thresher Crossing",
        "Structure_Category": "Thresher Crossing",
        "canal_name": "EAST MAIN CANAL",
        "station": "STA 2+263.0",
        "station_m": 2263,
        "offset_m": 5.13,
        "desc": "",
        "comment": "",
        "elevation_m": null,
        "photo_filename": null,
        "photo_path": null,
        "surveyor_comment": null,
        "survey_date": null,
        "station_source": "Native (Survey / POW)",
        "native_station": "Sta. 2+263"
      },
      "geometry": {
        "type": "Point",
        "coordinates": [
          122.5847659,
          12.3108143
        ]
      }
    },
    {
      "type": "Feature",
      "properties": {
        "id": 69,
        "name": "Road Crossing (Sta. 2+378EMC)",
        "type": "Road Crossing",
        "Structure_Category": "Road Crossing",
        "canal_name": "EAST MAIN CANAL",
        "station": "STA 2+378.0",
        "station_m": 2378,
        "offset_m": 2.67,
        "desc": "",
        "comment": "",
        "elevation_m": null,
        "photo_filename": null,
        "photo_path": null,
        "surveyor_comment": null,
        "survey_date": null,
        "station_source": "Native (Survey / POW)",
        "native_station": "Sta. 2+378"
      },
      "geometry": {
        "type": "Point",
        "coordinates": [
          122.5856972,
          12.3102941
        ]
      }
    },
    {
      "type": "Feature",
      "properties": {
        "id": 71,
        "name": "Comb. Turnout & Road Crossing (Sta. 2+545 EMC)",
        "type": "Road Crossing",
        "Structure_Category": "Road Crossing",
        "canal_name": "EAST MAIN CANAL",
        "station": "STA 2+545.0",
        "station_m": 2545,
        "offset_m": 1.23,
        "desc": "",
        "comment": "",
        "elevation_m": null,
        "photo_filename": null,
        "photo_path": null,
        "surveyor_comment": null,
        "survey_date": null,
        "station_source": "Native (Survey / POW)",
        "native_station": "Sta. 2+545"
      },
      "geometry": {
        "type": "Point",
        "coordinates": [
          122.586956,
          12.3099908
        ]
      }
    },
    {
      "type": "Feature",
      "properties": {
        "id": 76,
        "name": "Siphon (Sta. 3+630 EMC)",
        "type": "Siphon",
        "Structure_Category": "Siphon",
        "canal_name": "EAST MAIN CANAL",
        "station": "STA 3+630.0",
        "station_m": 3630,
        "offset_m": 3.09,
        "desc": "",
        "comment": "",
        "elevation_m": null,
        "photo_filename": null,
        "photo_path": null,
        "surveyor_comment": null,
        "survey_date": null,
        "station_source": "Native (Survey / POW)",
        "native_station": "Sta. 3+630"
      },
      "geometry": {
        "type": "Point",
        "coordinates": [
          122.5945561,
          12.309033
        ]
      }
    },
    {
      "type": "Feature",
      "properties": {
        "id": 78,
        "name": "End (Sta. 4+128 EMC)",
        "type": "Other Structures",
        "Structure_Category": "Other Structures",
        "canal_name": "EAST MAIN CANAL",
        "station": "STA 4+128.0",
        "station_m": 4128,
        "offset_m": 1.67,
        "desc": "",
        "comment": "",
        "elevation_m": null,
        "photo_filename": null,
        "photo_path": null,
        "surveyor_comment": null,
        "survey_date": null,
        "station_source": "Native (Survey / POW)",
        "native_station": "Sta. 4+128"
      },
      "geometry": {
        "type": "Point",
        "coordinates": [
          122.5989962,
          12.3084014
        ]
      }
    },
    {
      "type": "Feature",
      "properties": {
        "id": 79,
        "name": "End (2+111 Lat A)",
        "type": "Other Structures",
        "Structure_Category": "Other Structures",
        "canal_name": "LATERAL A",
        "station": "STA 2+111.0",
        "station_m": 2111,
        "offset_m": 2.18,
        "desc": "",
        "comment": "",
        "elevation_m": null,
        "photo_filename": null,
        "photo_path": null,
        "surveyor_comment": null,
        "survey_date": null,
        "station_source": "Native (Survey / POW)",
        "native_station": " (2+111"
      },
      "geometry": {
        "type": "Point",
        "coordinates": [
          122.5702568,
          12.3086113
        ]
      }
    },
    {
      "type": "Feature",
      "properties": {
        "id": 44,
        "name": "Turnout (Sta. 0+409 Lat A)",
        "type": "Turnout",
        "Structure_Category": "Turnout (TO)",
        "canal_name": "LATERAL A",
        "station": "STA 0+409.0",
        "station_m": 409,
        "offset_m": 0.11,
        "desc": "",
        "comment": "",
        "elevation_m": null,
        "photo_filename": null,
        "photo_path": null,
        "surveyor_comment": null,
        "survey_date": "2023-9-11",
        "station_source": "Native (Survey / POW)",
        "native_station": "Sta. 0+409"
      },
      "geometry": {
        "type": "Point",
        "coordinates": [
          122.573876,
          12.3207341
        ]
      }
    },
    {
      "type": "Feature",
      "properties": {
        "id": 45,
        "name": "Turnout (Sta. 0+316 Lat A)",
        "type": "Turnout",
        "Structure_Category": "Turnout (TO)",
        "canal_name": "LATERAL A",
        "station": "STA 0+316.0",
        "station_m": 316,
        "offset_m": 0.01,
        "desc": "",
        "comment": "",
        "elevation_m": null,
        "photo_filename": null,
        "photo_path": null,
        "surveyor_comment": null,
        "survey_date": "2023-9-11",
        "station_source": "Native (Survey / POW)",
        "native_station": "Sta. 0+316"
      },
      "geometry": {
        "type": "Point",
        "coordinates": [
          122.574307,
          12.3214266
        ]
      }
    },
    {
      "type": "Feature",
      "properties": {
        "id": 80,
        "name": "Turnout (Sta. 1+750 Lat A)",
        "type": "Turnout",
        "Structure_Category": "Turnout (TO)",
        "canal_name": "LATERAL A",
        "station": "STA 1+750.0",
        "station_m": 1750,
        "offset_m": 2.72,
        "desc": "",
        "comment": "",
        "elevation_m": null,
        "photo_filename": null,
        "photo_path": null,
        "surveyor_comment": null,
        "survey_date": "2023-9-11",
        "station_source": "Native (Survey / POW)",
        "native_station": "Sta. 1+750"
      },
      "geometry": {
        "type": "Point",
        "coordinates": [
          122.5712626,
          12.3110982
        ]
      }
    },
    {
      "type": "Feature",
      "properties": {
        "id": 21,
        "name": "Turnout (Sta. 0+654 WMC)",
        "type": "Turnout",
        "Structure_Category": "Turnout (TO)",
        "canal_name": "WEST MAIN CANAL",
        "station": "STA 0+654.0",
        "station_m": 654,
        "offset_m": 2.24,
        "desc": "",
        "comment": "",
        "elevation_m": null,
        "photo_filename": null,
        "photo_path": null,
        "surveyor_comment": null,
        "survey_date": "2023-9-11",
        "station_source": "Native (Survey / POW)",
        "native_station": "Sta. 0+654"
      },
      "geometry": {
        "type": "Point",
        "coordinates": [
          122.5724017,
          12.3236966
        ]
      }
    },
    {
      "type": "Feature",
      "properties": {
        "id": 42,
        "name": "Turnout (Sta. 0+803 WMC)",
        "type": "Turnout",
        "Structure_Category": "Turnout (TO)",
        "canal_name": "WEST MAIN CANAL",
        "station": "STA 0+803.0",
        "station_m": 803,
        "offset_m": 1.99,
        "desc": "",
        "comment": "",
        "elevation_m": null,
        "photo_filename": null,
        "photo_path": null,
        "surveyor_comment": null,
        "survey_date": "2023-9-11",
        "station_source": "Native (Survey / POW)",
        "native_station": "Sta. 0+803"
      },
      "geometry": {
        "type": "Point",
        "coordinates": [
          122.5710847,
          12.3237714
        ]
      }
    },
    {
      "type": "Feature",
      "properties": {
        "id": 43,
        "name": "Comb. Turnout & Siphon ( Sta. 0+867 WMC)",
        "type": "Turnout",
        "Structure_Category": "Siphon",
        "canal_name": "WEST MAIN CANAL",
        "station": "STA 0+867.0",
        "station_m": 867,
        "offset_m": 0.26,
        "desc": "",
        "comment": "",
        "elevation_m": null,
        "photo_filename": null,
        "photo_path": null,
        "surveyor_comment": null,
        "survey_date": "2023-9-11",
        "station_source": "Native (Survey / POW)",
        "native_station": "Sta. 0+867"
      },
      "geometry": {
        "type": "Point",
        "coordinates": [
          122.5705686,
          12.3239653
        ]
      }
    },
    {
      "type": "Feature",
      "properties": {
        "id": 26,
        "name": "Turnout (Sta. 0+621 Lat B)",
        "type": "Turnout",
        "Structure_Category": "Turnout (TO)",
        "canal_name": "LATERAL B",
        "station": "STA 0+621.0",
        "station_m": 621,
        "offset_m": 1.88,
        "desc": "",
        "comment": "",
        "elevation_m": null,
        "photo_filename": null,
        "photo_path": null,
        "surveyor_comment": null,
        "survey_date": "2023-9-11",
        "station_source": "Native (Survey / POW)",
        "native_station": "Sta. 0+621"
      },
      "geometry": {
        "type": "Point",
        "coordinates": [
          122.570295,
          12.3270649
        ]
      }
    },
    {
      "type": "Feature",
      "properties": {
        "id": 25,
        "name": "Turnout (Sta. 0+476 Lat B)",
        "type": "Turnout",
        "Structure_Category": "Turnout (TO)",
        "canal_name": "LATERAL B",
        "station": "STA 0+476.0",
        "station_m": 476,
        "offset_m": 0.51,
        "desc": "",
        "comment": "",
        "elevation_m": null,
        "photo_filename": null,
        "photo_path": null,
        "surveyor_comment": null,
        "survey_date": "2023-9-11",
        "station_source": "Native (Survey / POW)",
        "native_station": "Sta. 0+476"
      },
      "geometry": {
        "type": "Point",
        "coordinates": [
          122.5714292,
          12.3267657
        ]
      }
    },
    {
      "type": "Feature",
      "properties": {
        "id": 27,
        "name": "Turnout (Sta. 0+714 Lat B)",
        "type": "Turnout",
        "Structure_Category": "Turnout (TO)",
        "canal_name": "LATERAL B",
        "station": "STA 0+714.0",
        "station_m": 714,
        "offset_m": 4.32,
        "desc": "",
        "comment": "",
        "elevation_m": null,
        "photo_filename": null,
        "photo_path": null,
        "surveyor_comment": null,
        "survey_date": "2023-9-11",
        "station_source": "Native (Survey / POW)",
        "native_station": "Sta. 0+714"
      },
      "geometry": {
        "type": "Point",
        "coordinates": [
          122.5698187,
          12.3277297
        ]
      }
    },
    {
      "type": "Feature",
      "properties": {
        "id": 28,
        "name": "Turnout (Sta. 1+068 Lat B)",
        "type": "Turnout",
        "Structure_Category": "Turnout (TO)",
        "canal_name": "LATERAL B",
        "station": "STA 1+068.0",
        "station_m": 1068,
        "offset_m": 2.11,
        "desc": "",
        "comment": "",
        "elevation_m": null,
        "photo_filename": null,
        "photo_path": null,
        "surveyor_comment": null,
        "survey_date": "2023-9-11",
        "station_source": "Native (Survey / POW)",
        "native_station": "Sta. 1+068"
      },
      "geometry": {
        "type": "Point",
        "coordinates": [
          122.5680495,
          12.3291922
        ]
      }
    },
    {
      "type": "Feature",
      "properties": {
        "id": 29,
        "name": "Turnout (Sta. 1+322 Lat B)",
        "type": "Turnout",
        "Structure_Category": "Turnout (TO)",
        "canal_name": "LATERAL B",
        "station": "STA 1+322.0",
        "station_m": 1322,
        "offset_m": 0.65,
        "desc": "",
        "comment": "",
        "elevation_m": null,
        "photo_filename": null,
        "photo_path": null,
        "surveyor_comment": null,
        "survey_date": "2023-9-11",
        "station_source": "Native (Survey / POW)",
        "native_station": "Sta. 1+322"
      },
      "geometry": {
        "type": "Point",
        "coordinates": [
          122.566473,
          12.3307904
        ]
      }
    },
    {
      "type": "Feature",
      "properties": {
        "id": 31,
        "name": "Turnout (Sta. 1+571 Lat B)",
        "type": "Turnout",
        "Structure_Category": "Turnout (TO)",
        "canal_name": "LATERAL B",
        "station": "STA 1+571.0",
        "station_m": 1571,
        "offset_m": 4.9,
        "desc": "",
        "comment": "",
        "elevation_m": null,
        "photo_filename": null,
        "photo_path": null,
        "surveyor_comment": null,
        "survey_date": "2023-9-11",
        "station_source": "Native (Survey / POW)",
        "native_station": "Sta. 1+571"
      },
      "geometry": {
        "type": "Point",
        "coordinates": [
          122.5648824,
          12.3319399
        ]
      }
    },
    {
      "type": "Feature",
      "properties": {
        "id": 34,
        "name": "Turnout (Sta. 1+753 Lat B)",
        "type": "Turnout",
        "Structure_Category": "Turnout (TO)",
        "canal_name": "LATERAL B",
        "station": "STA 1+753.0",
        "station_m": 1753,
        "offset_m": 14.2,
        "desc": "",
        "comment": "",
        "elevation_m": null,
        "photo_filename": null,
        "photo_path": null,
        "surveyor_comment": null,
        "survey_date": "2023-9-11",
        "station_source": "Native (Survey / POW)",
        "native_station": "Sta. 1+753"
      },
      "geometry": {
        "type": "Point",
        "coordinates": [
          122.5631756,
          12.3323665
        ]
      }
    },
    {
      "type": "Feature",
      "properties": {
        "id": 35,
        "name": "Turnout (Sta. 1+387 Lat B)",
        "type": "Turnout",
        "Structure_Category": "Turnout (TO)",
        "canal_name": "LATERAL B",
        "station": "STA 1+387.0",
        "station_m": 1387,
        "offset_m": 3.34,
        "desc": "",
        "comment": "",
        "elevation_m": null,
        "photo_filename": null,
        "photo_path": null,
        "surveyor_comment": null,
        "survey_date": "2023-9-11",
        "station_source": "Native (Survey / POW)",
        "native_station": "Sta. 1+387"
      },
      "geometry": {
        "type": "Point",
        "coordinates": [
          122.5624044,
          12.3326213
        ]
      }
    },
    {
      "type": "Feature",
      "properties": {
        "id": 48,
        "name": "Turnout (Sta. 0+285 EMC)",
        "type": "Turnout",
        "Structure_Category": "Turnout (TO)",
        "canal_name": "EAST MAIN CANAL",
        "station": "STA 0+285.0",
        "station_m": 285,
        "offset_m": 0.11,
        "desc": "",
        "comment": "",
        "elevation_m": null,
        "photo_filename": null,
        "photo_path": null,
        "surveyor_comment": null,
        "survey_date": "2023-9-11",
        "station_source": "Native (Survey / POW)",
        "native_station": "Sta. 0+285"
      },
      "geometry": {
        "type": "Point",
        "coordinates": [
          122.5768077,
          12.3229307
        ]
      }
    },
    {
      "type": "Feature",
      "properties": {
        "id": 49,
        "name": "Turnout (Sta. 0+556 EMC)",
        "type": "Turnout",
        "Structure_Category": "Turnout (TO)",
        "canal_name": "EAST MAIN CANAL",
        "station": "STA 0+556.0",
        "station_m": 556,
        "offset_m": 0.18,
        "desc": "",
        "comment": "",
        "elevation_m": null,
        "photo_filename": null,
        "photo_path": null,
        "surveyor_comment": null,
        "survey_date": "2023-9-11",
        "station_source": "Native (Survey / POW)",
        "native_station": "Sta. 0+556"
      },
      "geometry": {
        "type": "Point",
        "coordinates": [
          122.5789399,
          12.3224765
        ]
      }
    },
    {
      "type": "Feature",
      "properties": {
        "id": 53,
        "name": "Turnout (Sta. 0+878 EMC)",
        "type": "Turnout",
        "Structure_Category": "Turnout (TO)",
        "canal_name": "EAST MAIN CANAL",
        "station": "STA 0+878.0",
        "station_m": 878,
        "offset_m": 2.75,
        "desc": "",
        "comment": "",
        "elevation_m": null,
        "photo_filename": null,
        "photo_path": null,
        "surveyor_comment": null,
        "survey_date": "2023-9-11",
        "station_source": "Native (Survey / POW)",
        "native_station": "Sta. 0+878"
      },
      "geometry": {
        "type": "Point",
        "coordinates": [
          122.5791665,
          12.3195627
        ]
      }
    },
    {
      "type": "Feature",
      "properties": {
        "id": 54,
        "name": "Turnout (Sta. 1+144 EMC)",
        "type": "Turnout",
        "Structure_Category": "Turnout (TO)",
        "canal_name": "EAST MAIN CANAL",
        "station": "STA 1+144.0",
        "station_m": 1144,
        "offset_m": 0.8,
        "desc": "",
        "comment": "",
        "elevation_m": null,
        "photo_filename": null,
        "photo_path": null,
        "surveyor_comment": null,
        "survey_date": "2023-9-11",
        "station_source": "Native (Survey / POW)",
        "native_station": "Sta. 1+144"
      },
      "geometry": {
        "type": "Point",
        "coordinates": [
          122.5796698,
          12.3182663
        ]
      }
    },
    {
      "type": "Feature",
      "properties": {
        "id": 57,
        "name": "Turnout (Sta. 1+391 EMC)",
        "type": "Turnout",
        "Structure_Category": "Turnout (TO)",
        "canal_name": "EAST MAIN CANAL",
        "station": "STA 1+391.0",
        "station_m": 1391,
        "offset_m": 2.2,
        "desc": "",
        "comment": "",
        "elevation_m": null,
        "photo_filename": null,
        "photo_path": null,
        "surveyor_comment": null,
        "survey_date": "2023-9-11",
        "station_source": "Native (Survey / POW)",
        "native_station": "Sta. 1+391"
      },
      "geometry": {
        "type": "Point",
        "coordinates": [
          122.5800871,
          12.3165395
        ]
      }
    },
    {
      "type": "Feature",
      "properties": {
        "id": 59,
        "name": "Turnout (Sta. 1+739 EMC)",
        "type": "Turnout",
        "Structure_Category": "Turnout (TO)",
        "canal_name": "EAST MAIN CANAL",
        "station": "STA 1+739.0",
        "station_m": 1739,
        "offset_m": 0.84,
        "desc": "",
        "comment": "",
        "elevation_m": null,
        "photo_filename": null,
        "photo_path": null,
        "surveyor_comment": null,
        "survey_date": "2023-9-11",
        "station_source": "Native (Survey / POW)",
        "native_station": "Sta. 1+739"
      },
      "geometry": {
        "type": "Point",
        "coordinates": [
          122.5815927,
          12.314061
        ]
      }
    },
    {
      "type": "Feature",
      "properties": {
        "id": 61,
        "name": "Turnout (Sta. 1+975 EMC)",
        "type": "Turnout",
        "Structure_Category": "Turnout (TO)",
        "canal_name": "EAST MAIN CANAL",
        "station": "STA 1+975.0",
        "station_m": 1975,
        "offset_m": 2.17,
        "desc": "",
        "comment": "",
        "elevation_m": null,
        "photo_filename": null,
        "photo_path": null,
        "surveyor_comment": null,
        "survey_date": "2023-9-11",
        "station_source": "Native (Survey / POW)",
        "native_station": "Sta. 1+975"
      },
      "geometry": {
        "type": "Point",
        "coordinates": [
          122.5829238,
          12.3124717
        ]
      }
    },
    {
      "type": "Feature",
      "properties": {
        "id": 65,
        "name": "Turnout (Sta. 2+091 EMC)",
        "type": "Turnout",
        "Structure_Category": "Turnout (TO)",
        "canal_name": "EAST MAIN CANAL",
        "station": "STA 2+091.0",
        "station_m": 2091,
        "offset_m": 1.77,
        "desc": "",
        "comment": "",
        "elevation_m": null,
        "photo_filename": null,
        "photo_path": null,
        "surveyor_comment": null,
        "survey_date": "2023-9-11",
        "station_source": "Native (Survey / POW)",
        "native_station": "Sta. 2+091"
      },
      "geometry": {
        "type": "Point",
        "coordinates": [
          122.5833619,
          12.3115555
        ]
      }
    },
    {
      "type": "Feature",
      "properties": {
        "id": 63,
        "name": "Turnout (Sta. 2+091 EMC)",
        "type": "Turnout",
        "Structure_Category": "Turnout (TO)",
        "canal_name": "EAST MAIN CANAL",
        "station": "STA 2+091.0",
        "station_m": 2091,
        "offset_m": 0.25,
        "desc": "",
        "comment": "",
        "elevation_m": null,
        "photo_filename": null,
        "photo_path": null,
        "surveyor_comment": null,
        "survey_date": "2023-9-11",
        "station_source": "Native (Survey / POW)",
        "native_station": "Sta. 2+091"
      },
      "geometry": {
        "type": "Point",
        "coordinates": [
          122.5839318,
          12.3112023
        ]
      }
    },
    {
      "type": "Feature",
      "properties": {
        "id": 66,
        "name": "Turnout (Sta. 2+259 EMC)",
        "type": "Turnout",
        "Structure_Category": "Turnout (TO)",
        "canal_name": "EAST MAIN CANAL",
        "station": "STA 2+259.0",
        "station_m": 2259,
        "offset_m": 0.02,
        "desc": "",
        "comment": "",
        "elevation_m": null,
        "photo_filename": null,
        "photo_path": null,
        "surveyor_comment": null,
        "survey_date": "2023-9-11",
        "station_source": "Native (Survey / POW)",
        "native_station": "Sta. 2+259"
      },
      "geometry": {
        "type": "Point",
        "coordinates": [
          122.5846936,
          12.3107998
        ]
      }
    },
    {
      "type": "Feature",
      "properties": {
        "id": 68,
        "name": "Turnout (Sta. 2+309 EMC)",
        "type": "Turnout",
        "Structure_Category": "Turnout (TO)",
        "canal_name": "EAST MAIN CANAL",
        "station": "STA 2+309.0",
        "station_m": 2309,
        "offset_m": 1.04,
        "desc": "",
        "comment": "",
        "elevation_m": null,
        "photo_filename": null,
        "photo_path": null,
        "surveyor_comment": null,
        "survey_date": "2023-9-11",
        "station_source": "Native (Survey / POW)",
        "native_station": "Sta. 2+309"
      },
      "geometry": {
        "type": "Point",
        "coordinates": [
          122.5850684,
          12.3106115
        ]
      }
    },
    {
      "type": "Feature",
      "properties": {
        "id": 70,
        "name": "Turnout (Sta. 2+451 EMC)",
        "type": "Turnout",
        "Structure_Category": "Turnout (TO)",
        "canal_name": "EAST MAIN CANAL",
        "station": "STA 2+451.0",
        "station_m": 2451,
        "offset_m": 2.23,
        "desc": "",
        "comment": "",
        "elevation_m": null,
        "photo_filename": null,
        "photo_path": null,
        "surveyor_comment": null,
        "survey_date": "2023-9-11",
        "station_source": "Native (Survey / POW)",
        "native_station": "Sta. 2+451"
      },
      "geometry": {
        "type": "Point",
        "coordinates": [
          122.5862203,
          12.3100116
        ]
      }
    },
    {
      "type": "Feature",
      "properties": {
        "id": 72,
        "name": "Comb. Turnout & Road Crossing (Sta. 2+695 EMC)",
        "type": "Turnout",
        "Structure_Category": "Road Crossing",
        "canal_name": "EAST MAIN CANAL",
        "station": "STA 2+695.0",
        "station_m": 2695,
        "offset_m": 1.87,
        "desc": "",
        "comment": "",
        "elevation_m": null,
        "photo_filename": null,
        "photo_path": null,
        "surveyor_comment": null,
        "survey_date": "2023-9-11",
        "station_source": "Native (Survey / POW)",
        "native_station": "Sta. 2+695"
      },
      "geometry": {
        "type": "Point",
        "coordinates": [
          122.5881681,
          12.3105476
        ]
      }
    },
    {
      "type": "Feature",
      "properties": {
        "id": 73,
        "name": "Turnout (Sta. 2+743 EMC)",
        "type": "Turnout",
        "Structure_Category": "Turnout (TO)",
        "canal_name": "EAST MAIN CANAL",
        "station": "STA 2+743.0",
        "station_m": 2743,
        "offset_m": 2.23,
        "desc": "",
        "comment": "",
        "elevation_m": null,
        "photo_filename": null,
        "photo_path": null,
        "surveyor_comment": null,
        "survey_date": "2023-9-11",
        "station_source": "Native (Survey / POW)",
        "native_station": "Sta. 2+743"
      },
      "geometry": {
        "type": "Point",
        "coordinates": [
          122.5886147,
          12.3105476
        ]
      }
    },
    {
      "type": "Feature",
      "properties": {
        "id": 74,
        "name": "Comb. Turnout & Road Crossing Nt'l Road (Sta. 2+935 EMC)",
        "type": "Turnout",
        "Structure_Category": "Road Crossing",
        "canal_name": "EAST MAIN CANAL",
        "station": "STA 2+935.0",
        "station_m": 2935,
        "offset_m": 2.63,
        "desc": "",
        "comment": "",
        "elevation_m": null,
        "photo_filename": null,
        "photo_path": null,
        "surveyor_comment": null,
        "survey_date": "2023-9-11",
        "station_source": "Native (Survey / POW)",
        "native_station": "Sta. 2+935"
      },
      "geometry": {
        "type": "Point",
        "coordinates": [
          122.590201,
          12.3108083
        ]
      }
    },
    {
      "type": "Feature",
      "properties": {
        "id": 75,
        "name": "Turnout (Sta. 3+206 EMC)",
        "type": "Turnout",
        "Structure_Category": "Turnout (TO)",
        "canal_name": "EAST MAIN CANAL",
        "station": "STA 3+206.0",
        "station_m": 3206,
        "offset_m": 1.82,
        "desc": "",
        "comment": "",
        "elevation_m": null,
        "photo_filename": null,
        "photo_path": null,
        "surveyor_comment": null,
        "survey_date": "2023-9-11",
        "station_source": "Native (Survey / POW)",
        "native_station": "Sta. 3+206"
      },
      "geometry": {
        "type": "Point",
        "coordinates": [
          122.5920851,
          12.3110109
        ]
      }
    },
    {
      "type": "Feature",
      "properties": {
        "id": 77,
        "name": "Turnout (Sta. 3+932 EMC)",
        "type": "Turnout",
        "Structure_Category": "Turnout (TO)",
        "canal_name": "EAST MAIN CANAL",
        "station": "STA 3+932.0",
        "station_m": 3932,
        "offset_m": 5.51,
        "desc": "",
        "comment": "",
        "elevation_m": null,
        "photo_filename": null,
        "photo_path": null,
        "surveyor_comment": null,
        "survey_date": "2023-9-11",
        "station_source": "Native (Survey / POW)",
        "native_station": "Sta. 3+932"
      },
      "geometry": {
        "type": "Point",
        "coordinates": [
          122.5972439,
          12.3085178
        ]
      }
    },
    {
      "type": "Feature",
      "properties": {
        "id": 84,
        "name": "Road Crossing (Sta. 1+260 Lat A)",
        "type": "Road Crossing",
        "Structure_Category": "Road Crossing",
        "canal_name": "LATERAL A",
        "station": "STA 1+260.0",
        "station_m": 1260,
        "offset_m": 1.28,
        "desc": "",
        "comment": "",
        "elevation_m": null,
        "photo_filename": null,
        "photo_path": null,
        "surveyor_comment": null,
        "survey_date": null,
        "station_source": "Native (Survey / POW)",
        "native_station": "Sta. 1+260"
      },
      "geometry": {
        "type": "Point",
        "coordinates": [
          122.5726055,
          12.3149726
        ]
      }
    },
    {
      "type": "Feature",
      "properties": {
        "id": 90,
        "name": "Bullcart Crossing (Sta. 0+733 Lat A)",
        "type": "Thresher Crossing",
        "Structure_Category": "Thresher Crossing",
        "canal_name": "LATERAL A",
        "station": "STA 0+733.0",
        "station_m": 733,
        "offset_m": 0.44,
        "desc": "",
        "comment": "",
        "elevation_m": null,
        "photo_filename": null,
        "photo_path": null,
        "surveyor_comment": null,
        "survey_date": null,
        "station_source": "Native (Survey / POW)",
        "native_station": "Sta. 0+733"
      },
      "geometry": {
        "type": "Point",
        "coordinates": [
          122.5727682,
          12.3184524
        ]
      }
    },
    {
      "type": "Feature",
      "properties": {
        "id": 17,
        "name": "Intake Structure WMC",
        "type": "Intake",
        "Structure_Category": "Inlet",
        "canal_name": "WEST MAIN CANAL",
        "station": "STA 0+001.7",
        "station_m": 1.71,
        "offset_m": 3.55,
        "desc": "fa",
        "comment": "",
        "elevation_m": null,
        "photo_filename": null,
        "photo_path": null,
        "surveyor_comment": null,
        "survey_date": null,
        "station_source": "Geometric Projection",
        "native_station": null
      },
      "geometry": {
        "type": "Point",
        "coordinates": [
          122.5772075,
          12.3265718
        ]
      }
    },
    {
      "type": "Feature",
      "properties": {
        "id": 18,
        "name": "Intake Structure EMC",
        "type": "Intake",
        "Structure_Category": "Inlet",
        "canal_name": "EAST MAIN CANAL",
        "station": "STA 0+000.0",
        "station_m": 0,
        "offset_m": 4.79,
        "desc": "fa",
        "comment": "",
        "elevation_m": null,
        "photo_filename": null,
        "photo_path": null,
        "surveyor_comment": null,
        "survey_date": null,
        "station_source": "Geometric Projection",
        "native_station": null
      },
      "geometry": {
        "type": "Point",
        "coordinates": [
          122.5759061,
          12.3238324
        ]
      }
    },
    {
      "type": "Feature",
      "properties": {
        "id": 20,
        "name": "Intake Structure Ilaya",
        "type": "Intake",
        "Structure_Category": "Inlet",
        "canal_name": "EAST MAIN CANAL",
        "station": "STA 0+000.0",
        "station_m": 0,
        "offset_m": 15.16,
        "desc": "fa",
        "comment": "",
        "elevation_m": null,
        "photo_filename": null,
        "photo_path": null,
        "surveyor_comment": null,
        "survey_date": null,
        "station_source": "Geometric Projection",
        "native_station": null
      },
      "geometry": {
        "type": "Point",
        "coordinates": [
          122.5757587,
          12.3237326
        ]
      }
    },
    {
      "type": "Feature",
      "properties": {
        "id": 47,
        "name": "Turnout (Sta. 0+218 Lat A)",
        "type": "Turnout",
        "Structure_Category": "Turnout (TO)",
        "canal_name": "LATERAL A",
        "station": "STA 0+218.0",
        "station_m": 218,
        "offset_m": 1.65,
        "desc": "",
        "comment": "",
        "elevation_m": null,
        "photo_filename": null,
        "photo_path": null,
        "surveyor_comment": null,
        "survey_date": "2023-9-11",
        "station_source": "Native (Survey / POW)",
        "native_station": "Sta. 0+218"
      },
      "geometry": {
        "type": "Point",
        "coordinates": [
          122.5748627,
          12.322205
        ]
      }
    },
    {
      "type": "Feature",
      "properties": {
        "id": 91,
        "name": "Turnout (Sta. 0+704 Lat A)",
        "type": "Turnout",
        "Structure_Category": "Turnout (TO)",
        "canal_name": "LATERAL A",
        "station": "STA 0+704.0",
        "station_m": 704,
        "offset_m": 0.27,
        "desc": "",
        "comment": "",
        "elevation_m": null,
        "photo_filename": null,
        "photo_path": null,
        "surveyor_comment": null,
        "survey_date": "2023-9-11",
        "station_source": "Native (Survey / POW)",
        "native_station": "Sta. 0+704"
      },
      "geometry": {
        "type": "Point",
        "coordinates": [
          122.5728628,
          12.3186809
        ]
      }
    },
    {
      "type": "Feature",
      "properties": {
        "id": 89,
        "name": "Turnout (Sta. 0+784 Lat A)",
        "type": "Turnout",
        "Structure_Category": "Turnout (TO)",
        "canal_name": "LATERAL A",
        "station": "STA 0+784.0",
        "station_m": 784,
        "offset_m": 2,
        "desc": "",
        "comment": "",
        "elevation_m": null,
        "photo_filename": null,
        "photo_path": null,
        "surveyor_comment": null,
        "survey_date": "2023-9-11",
        "station_source": "Native (Survey / POW)",
        "native_station": "Sta. 0+784"
      },
      "geometry": {
        "type": "Point",
        "coordinates": [
          122.5726023,
          12.3180203
        ]
      }
    },
    {
      "type": "Feature",
      "properties": {
        "id": 88,
        "name": "Turnout (Sta. 0+879 Lat A)",
        "type": "Turnout",
        "Structure_Category": "Turnout (TO)",
        "canal_name": "LATERAL A",
        "station": "STA 0+879.0",
        "station_m": 879,
        "offset_m": 2.72,
        "desc": "",
        "comment": "",
        "elevation_m": null,
        "photo_filename": null,
        "photo_path": null,
        "surveyor_comment": null,
        "survey_date": "2023-9-11",
        "station_source": "Native (Survey / POW)",
        "native_station": "Sta. 0+879"
      },
      "geometry": {
        "type": "Point",
        "coordinates": [
          122.5726108,
          12.3171789
        ]
      }
    },
    {
      "type": "Feature",
      "properties": {
        "id": 87,
        "name": "Turnout (Sta. 0+955 Lat A)",
        "type": "Turnout",
        "Structure_Category": "Turnout (TO)",
        "canal_name": "LATERAL A",
        "station": "STA 0+955.0",
        "station_m": 955,
        "offset_m": 3.73,
        "desc": "",
        "comment": "",
        "elevation_m": null,
        "photo_filename": null,
        "photo_path": null,
        "surveyor_comment": null,
        "survey_date": "2023-9-11",
        "station_source": "Native (Survey / POW)",
        "native_station": "Sta. 0+955"
      },
      "geometry": {
        "type": "Point",
        "coordinates": [
          122.5719941,
          12.3168756
        ]
      }
    },
    {
      "type": "Feature",
      "properties": {
        "id": 86,
        "name": "Turnout (Sta. 1+008 Lat A)",
        "type": "Turnout",
        "Structure_Category": "Turnout (TO)",
        "canal_name": "LATERAL A",
        "station": "STA 1+008.0",
        "station_m": 1008,
        "offset_m": 5.3,
        "desc": "",
        "comment": "",
        "elevation_m": null,
        "photo_filename": null,
        "photo_path": null,
        "surveyor_comment": null,
        "survey_date": "2023-9-11",
        "station_source": "Native (Survey / POW)",
        "native_station": "Sta. 1+008"
      },
      "geometry": {
        "type": "Point",
        "coordinates": [
          122.5715306,
          12.3167011
        ]
      }
    },
    {
      "type": "Feature",
      "properties": {
        "id": 85,
        "name": "Turnout (Sta. 1+080 Lat A)",
        "type": "Turnout",
        "Structure_Category": "Turnout (TO)",
        "canal_name": "LATERAL A",
        "station": "STA 1+080.0",
        "station_m": 1080,
        "offset_m": 0.97,
        "desc": "",
        "comment": "",
        "elevation_m": null,
        "photo_filename": null,
        "photo_path": null,
        "surveyor_comment": null,
        "survey_date": "2023-9-11",
        "station_source": "Native (Survey / POW)",
        "native_station": "Sta. 1+080"
      },
      "geometry": {
        "type": "Point",
        "coordinates": [
          122.5714646,
          12.3160165
        ]
      }
    },
    {
      "type": "Feature",
      "properties": {
        "id": 83,
        "name": "Turnout (Sta. 1+338 Lat A)",
        "type": "Turnout",
        "Structure_Category": "Turnout (TO)",
        "canal_name": "LATERAL A",
        "station": "STA 1+338.0",
        "station_m": 1338,
        "offset_m": 2.68,
        "desc": "",
        "comment": "",
        "elevation_m": null,
        "photo_filename": null,
        "photo_path": null,
        "surveyor_comment": null,
        "survey_date": "2023-9-11",
        "station_source": "Native (Survey / POW)",
        "native_station": "Sta. 1+338"
      },
      "geometry": {
        "type": "Point",
        "coordinates": [
          122.5725141,
          12.3144191
        ]
      }
    },
    {
      "type": "Feature",
      "properties": {
        "id": 82,
        "name": "Turnout (Sta. 1+440 Lat A)",
        "type": "Turnout",
        "Structure_Category": "Turnout (TO)",
        "canal_name": "LATERAL A",
        "station": "STA 1+440.0",
        "station_m": 1440,
        "offset_m": 1.83,
        "desc": "",
        "comment": "",
        "elevation_m": null,
        "photo_filename": null,
        "photo_path": null,
        "surveyor_comment": null,
        "survey_date": "2023-9-11",
        "station_source": "Native (Survey / POW)",
        "native_station": "Sta. 1+440"
      },
      "geometry": {
        "type": "Point",
        "coordinates": [
          122.5721643,
          12.3135622
        ]
      }
    },
    {
      "type": "Feature",
      "properties": {
        "id": 81,
        "name": "Turnout (Sta. 1+616 Lat A)",
        "type": "Turnout",
        "Structure_Category": "Turnout (TO)",
        "canal_name": "LATERAL A",
        "station": "STA 1+616.0",
        "station_m": 1616,
        "offset_m": 0.11,
        "desc": "",
        "comment": "",
        "elevation_m": null,
        "photo_filename": null,
        "photo_path": null,
        "surveyor_comment": null,
        "survey_date": "2023-9-11",
        "station_source": "Native (Survey / POW)",
        "native_station": "Sta. 1+616"
      },
      "geometry": {
        "type": "Point",
        "coordinates": [
          122.5720218,
          12.3120123
        ]
      }
    },
    {
      "type": "Feature",
      "properties": {
        "id": 30,
        "name": "Turnout (Sta. 1+422 Lat B)",
        "type": "Turnout",
        "Structure_Category": "Turnout (TO)",
        "canal_name": "LATERAL B",
        "station": "STA 1+422.0",
        "station_m": 1422,
        "offset_m": 3.47,
        "desc": "",
        "comment": "",
        "elevation_m": null,
        "photo_filename": null,
        "photo_path": null,
        "surveyor_comment": null,
        "survey_date": "2023-9-11",
        "station_source": "Native (Survey / POW)",
        "native_station": "Sta. 1+422"
      },
      "geometry": {
        "type": "Point",
        "coordinates": [
          122.5657444,
          12.3312115
        ]
      }
    },
    {
      "type": "Feature",
      "properties": {
        "id": 92,
        "name": "Turnout (Sta. 1+622 Lat b)",
        "type": "Turnout",
        "Structure_Category": "Turnout (TO)",
        "canal_name": "LATERAL B",
        "station": "STA 1+622.0",
        "station_m": 1622,
        "offset_m": 1.48,
        "desc": "",
        "comment": "",
        "elevation_m": null,
        "photo_filename": null,
        "photo_path": null,
        "surveyor_comment": null,
        "survey_date": "2023-9-11",
        "station_source": "Native (Survey / POW)",
        "native_station": "Sta. 1+622"
      },
      "geometry": {
        "type": "Point",
        "coordinates": [
          122.5644314,
          12.3321656
        ]
      }
    },
    {
      "type": "Feature",
      "properties": {
        "id": 58,
        "name": "Comb. Turnout & Road Crossing (Sta. 1+625 EMC)",
        "type": "Turnout",
        "Structure_Category": "Road Crossing",
        "canal_name": "EAST MAIN CANAL",
        "station": "STA 1+625.0",
        "station_m": 1625,
        "offset_m": 0.2,
        "desc": "",
        "comment": "",
        "elevation_m": null,
        "photo_filename": null,
        "photo_path": null,
        "surveyor_comment": null,
        "survey_date": "2023-9-11",
        "station_source": "Native (Survey / POW)",
        "native_station": "Sta. 1+625"
      },
      "geometry": {
        "type": "Point",
        "coordinates": [
          122.5808059,
          12.3147113
        ]
      }
    },
    {
      "type": "Feature",
      "properties": {
        "id": 16,
        "name": "Headgate Lat B (Sta. 0+438 WMC)",
        "type": "Head Gate",
        "Structure_Category": "Head Gate",
        "canal_name": "LATERAL B",
        "station": "STA 0+438.0",
        "station_m": 438,
        "offset_m": 0.81,
        "desc": "fa",
        "comment": "",
        "elevation_m": null,
        "photo_filename": null,
        "photo_path": null,
        "surveyor_comment": null,
        "survey_date": null,
        "station_source": "Native (Survey / POW)",
        "native_station": "Sta. 0+438"
      },
      "geometry": {
        "type": "Point",
        "coordinates": [
          122.5743209,
          12.3241817
        ]
      }
    },
    {
      "type": "Feature",
      "properties": {
        "id": 19,
        "name": "Headgate of Lateral A (Sta. 0+165 EMC)",
        "type": "Head Gate",
        "Structure_Category": "Head Gate",
        "canal_name": "EAST MAIN CANAL",
        "station": "STA 0+165.0",
        "station_m": 165,
        "offset_m": 3.11,
        "desc": "fa",
        "comment": "",
        "elevation_m": null,
        "photo_filename": null,
        "photo_path": null,
        "surveyor_comment": null,
        "survey_date": null,
        "station_source": "Native (Survey / POW)",
        "native_station": "Sta. 0+165"
      },
      "geometry": {
        "type": "Point",
        "coordinates": [
          122.5760422,
          12.3236108
        ]
      }
    }
  ]
}