{
  "type": "FeatureCollection",
  "name": "Cantingas RIS",
  "crs": {
    "type": "name",
    "properties": {
      "name": "urn:ogc:def:crs:OGC:1.3:CRS84"
    }
  },
  "features": [
    {
      "type": "Feature",
      "properties": {
        "id": 86,
        "canal_id": 8,
        "canal_type": "Main",
        "remarks": "West Main Canal",
        "canal_leng": 2109.244,
        "canal_widt": 0,
        "station_no": "STA 0+000",
        "station__1": "STA 2+109",
        "station__2": "2109.24",
        "canal": "WEST MAIN CANAL",
        "canaltype": "Main Canal",
        "canal_lining": "Lined"
      },
      "geometry": {
        "type": "LineString",
        "coordinates": [
          [
            122.5772106020779,
            12.32660728740515
          ],
          [
            122.5769121442284,
            12.326495474609848
          ],
          [
            122.57630479507822,
            12.32541865861893
          ],
          [
            122.57601652217711,
            12.324938426795407
          ],
          [
            122.57557813733631,
            12.324575391603718
          ],
          [
            122.57546785059851,
            12.324467649067739
          ],
          [
            122.5750295991709,
            12.32439343165666
          ],
          [
            122.57429145047212,
            12.324183024533507
          ],
          [
            122.5739336391872,
            12.324139860901724
          ],
          [
            122.573547015759,
            12.324072069866416
          ],
          [
            122.5734629304811,
            12.324031982447826
          ],
          [
            122.57344135701422,
            12.32398986098707
          ],
          [
            122.5734219363901,
            12.323951942796647
          ],
          [
            122.5729724400225,
            12.323873493851861
          ],
          [
            122.5729529490607,
            12.32383754481898
          ],
          [
            122.57290093071299,
            12.32377823161442
          ],
          [
            122.5728162693612,
            12.323746212959676
          ],
          [
            122.57238317154192,
            12.32367291580392
          ],
          [
            122.572324418833,
            12.32365356920786
          ],
          [
            122.57228738639002,
            12.323623641318378
          ],
          [
            122.57228302742709,
            12.32362149578467
          ],
          [
            122.57222414131012,
            12.32359357471774
          ],
          [
            122.57218265580161,
            12.323572089306913
          ],
          [
            122.57213894457139,
            12.323556967980357
          ],
          [
            122.57173636725611,
            12.323521499629418
          ],
          [
            122.571607043086,
            12.32352088489248
          ],
          [
            122.5715257778762,
            12.32354409498927
          ],
          [
            122.5714752360905,
            12.32358252169881
          ],
          [
            122.5714290644825,
            12.323620993148499
          ],
          [
            122.5713738523553,
            12.323652860398528
          ],
          [
            122.5713207423111,
            12.32369552632087
          ],
          [
            122.57126087966438,
            12.323731791882388
          ],
          [
            122.5712142365074,
            12.323742357667902
          ],
          [
            122.57120979047751,
            12.32374234010729
          ],
          [
            122.5711274188924,
            12.323742015024571
          ],
          [
            122.57107609994408,
            12.323748282330023
          ],
          [
            122.5710626977271,
            12.323774116505152
          ],
          [
            122.5710191552558,
            12.32381068613599
          ],
          [
            122.57091756610461,
            12.32384943141826
          ],
          [
            122.5705713714708,
            12.3239616982773
          ],
          [
            122.56848976046352,
            12.324779411241941
          ],
          [
            122.5683522493787,
            12.324786384430858
          ],
          [
            122.568201770156,
            12.324786507045488
          ],
          [
            122.56802923675141,
            12.324723885384586
          ],
          [
            122.5664427297063,
            12.323792842259587
          ],
          [
            122.56068337312992,
            12.320339600256187
          ]
        ]
      }
    },
    {
      "type": "Feature",
      "properties": {
        "id": 87,
        "canal_id": 11,
        "canal_type": "Lateral",
        "remarks": "Lateral A",
        "canal_leng": 2012.22,
        "canal_widt": 0,
        "station_no": "STA 0+000",
        "station__1": "STA 2+012",
        "station__2": "2012.22",
        "canal": "LATERAL A",
        "canaltype": "Lateral",
        "canal_lining": "Lined"
      },
      "geometry": {
        "type": "LineString",
        "coordinates": [
          [
            122.5760401481544,
            12.32364904365022
          ],
          [
            122.57576515023828,
            12.323434430019567
          ],
          [
            122.57571827799481,
            12.323377872988106
          ],
          [
            122.5756321758624,
            12.323192852337968
          ],
          [
            122.57557409042622,
            12.323102203314269
          ],
          [
            122.5755197804805,
            12.323037957267529
          ],
          [
            122.575480874547,
            12.323015233629269
          ],
          [
            122.5752677212115,
            12.32268791552895
          ],
          [
            122.57511203719531,
            12.32248730370971
          ],
          [
            122.57489521095012,
            12.322239580937639
          ],
          [
            122.57486715132399,
            12.322178425296048
          ],
          [
            122.5748428129612,
            12.322105717533757
          ],
          [
            122.5743641140566,
            12.321605186674667
          ],
          [
            122.57432212682872,
            12.3214518546082
          ],
          [
            122.57427889752852,
            12.321379007275278
          ],
          [
            122.5735969614879,
            12.320284098763672
          ],
          [
            122.57349799644992,
            12.320106867314196
          ],
          [
            122.5734898708181,
            12.320037436079783
          ],
          [
            122.57347196316138,
            12.3198299601181
          ],
          [
            122.57345603510488,
            12.31976444357881
          ],
          [
            122.57332180259861,
            12.319406196027181
          ],
          [
            122.57311171230741,
            12.319043475645998
          ],
          [
            122.5728947306196,
            12.31872615623261
          ],
          [
            122.5728522568153,
            12.31865994952126
          ],
          [
            122.57277553751712,
            12.318461175721328
          ],
          [
            122.57261093989081,
            12.31798928801879
          ],
          [
            122.57263634164842,
            12.317162836684187
          ],
          [
            122.5720000594734,
            12.31684067398518
          ],
          [
            122.5715790577637,
            12.31669494878399
          ],
          [
            122.5714484491927,
            12.3160125249461
          ],
          [
            122.5715121887718,
            12.315991819821669
          ],
          [
            122.57162271212941,
            12.315921439673271
          ],
          [
            122.5716652723123,
            12.31585522531889
          ],
          [
            122.57175013560318,
            12.31557318012741
          ],
          [
            122.57221292475002,
            12.31536865294179
          ],
          [
            122.57227241188811,
            12.31536033217965
          ],
          [
            122.57276967152971,
            12.31475407530843
          ],
          [
            122.5725221077026,
            12.31438716314787
          ],
          [
            122.572487996196,
            12.31416689387368
          ],
          [
            122.5721710834187,
            12.313538309057337
          ],
          [
            122.5721583306259,
            12.31346749918125
          ],
          [
            122.57215833460661,
            12.313363442991298
          ],
          [
            122.57220097651148,
            12.313221800751188
          ],
          [
            122.5721925179963,
            12.31315497635505
          ],
          [
            122.5721712595328,
            12.31312563336936
          ],
          [
            122.57209740025189,
            12.312837746157516
          ],
          [
            122.57211867547042,
            12.312800300487382
          ],
          [
            122.572152704684,
            12.312687899447113
          ],
          [
            122.57219118676761,
            12.31257941492193
          ],
          [
            122.5722125919755,
            12.31251261387608
          ],
          [
            122.57222546172642,
            12.31245831299388
          ],
          [
            122.5722255321739,
            12.31241650681401
          ],
          [
            122.57200375254108,
            12.311974088781769
          ],
          [
            122.5712820506831,
            12.311082780305119
          ],
          [
            122.5712607110341,
            12.31104104360295
          ],
          [
            122.5712564426717,
            12.31098673203185
          ],
          [
            122.571183801585,
            12.310582542790591
          ],
          [
            122.5710647624753,
            12.310132813324667
          ],
          [
            122.57098348039722,
            12.30994442428547
          ],
          [
            122.5709577799008,
            12.309852240010922
          ],
          [
            122.570932068475,
            12.309785144281618
          ],
          [
            122.57087198346132,
            12.309541707153311
          ],
          [
            122.5708290506596,
            12.30947434900524
          ],
          [
            122.57042771098568,
            12.308830586372002
          ],
          [
            122.5702894602737,
            12.308640025538212
          ],
          [
            122.5702548550325,
            12.30855124200299
          ]
        ]
      }
    },
    {
      "type": "Feature",
      "properties": {
        "id": 88,
        "canal_id": 10,
        "canal_type": "Main",
        "remarks": "East Main Canal",
        "canal_leng": 4000.644,
        "canal_widt": 0,
        "station_no": "STA 0+000",
        "station__1": "STA 4+001",
        "station__2": "4000.64",
        "canal": "EAST MAIN CANAL",
        "canaltype": "Main Canal",
        "canal_lining": "Lined"
      },
      "geometry": {
        "type": "LineString",
        "coordinates": [
          [
            122.5758823334273,
            12.323795949153126
          ],
          [
            122.57619523051828,
            12.323508918778797
          ],
          [
            122.5766245897344,
            12.323145444126817
          ],
          [
            122.57702525469081,
            12.322678993421128
          ],
          [
            122.57734975727772,
            12.322417690871552
          ],
          [
            122.57762307928782,
            12.322242677442949
          ],
          [
            122.57780776816638,
            12.322217653582838
          ],
          [
            122.57797976937512,
            12.322254971049839
          ],
          [
            122.57818363009419,
            12.322335779265494
          ],
          [
            122.57833017054288,
            12.322404223774598
          ],
          [
            122.57848942635881,
            12.32251014196271
          ],
          [
            122.5785913675887,
            12.32255990539957
          ],
          [
            122.57869337507948,
            12.322565978732452
          ],
          [
            122.57945373971882,
            12.3222953735397
          ],
          [
            122.57972093252741,
            12.32212768319437
          ],
          [
            122.5799373463558,
            12.321959784023788
          ],
          [
            122.5800704529014,
            12.32181100105717
          ],
          [
            122.5801395223759,
            12.32163780311284
          ],
          [
            122.58015802943382,
            12.32144584522144
          ],
          [
            122.58006923705031,
            12.321193622561397
          ],
          [
            122.5798979122008,
            12.32103801915337
          ],
          [
            122.5797520750408,
            12.320937995776482
          ],
          [
            122.5795424762818,
            12.32081894923994
          ],
          [
            122.5794343138822,
            12.320737693689562
          ],
          [
            122.57919180536891,
            12.319833336704079
          ],
          [
            122.57919175173292,
            12.31968468846294
          ],
          [
            122.57919174848331,
            12.319554401533997
          ],
          [
            122.5792487901195,
            12.31925548882764
          ],
          [
            122.57931210643942,
            12.319100668221349
          ],
          [
            122.57952110415229,
            12.318754096030839
          ],
          [
            122.5796043146216,
            12.318517392079439
          ],
          [
            122.57964309098081,
            12.31831759419657
          ],
          [
            122.5797005332437,
            12.318161870031298
          ],
          [
            122.5797645139629,
            12.317949811213651
          ],
          [
            122.5799045016928,
            12.31780057785537
          ],
          [
            122.5800000487416,
            12.317674325009548
          ],
          [
            122.5801081891121,
            12.317599833565028
          ],
          [
            122.5802225893732,
            12.317556504351327
          ],
          [
            122.5803939960119,
            12.317476050892529
          ],
          [
            122.5804891284593,
            12.317426568033834
          ],
          [
            122.580520882043,
            12.317376930086258
          ],
          [
            122.5805336936517,
            12.317296131521148
          ],
          [
            122.58051480686322,
            12.31722761770926
          ],
          [
            122.58014023051,
            12.316687285941407
          ],
          [
            122.58010833931351,
            12.316640171329919
          ],
          [
            122.58009558559732,
            12.315409446530207
          ],
          [
            122.58011929924268,
            12.31530247277687
          ],
          [
            122.5801473824483,
            12.315252297965309
          ],
          [
            122.5802222419917,
            12.315193133132798
          ],
          [
            122.58057516910742,
            12.31489093422511
          ],
          [
            122.580818332587,
            12.314699228508346
          ],
          [
            122.5818305662027,
            12.3138777596188
          ],
          [
            122.58198135569302,
            12.31376172297333
          ],
          [
            122.5821568834894,
            12.31363195204627
          ],
          [
            122.5822850910374,
            12.31351140017601
          ],
          [
            122.5823799436664,
            12.31342334650918
          ],
          [
            122.5824368944813,
            12.313358445942939
          ],
          [
            122.5828266103221,
            12.31262668842781
          ],
          [
            122.5831826670108,
            12.311891326812669
          ],
          [
            122.58324027122592,
            12.31174197448432
          ],
          [
            122.583283394273,
            12.311657911083252
          ],
          [
            122.5833699311386,
            12.311570852655528
          ],
          [
            122.5834802423758,
            12.311444817062132
          ],
          [
            122.58660985236111,
            12.30978167489387
          ],
          [
            122.58669639531702,
            12.309794409145594
          ],
          [
            122.5868029490631,
            12.30983303851019
          ],
          [
            122.586862493855,
            12.309885073260329
          ],
          [
            122.58690863933691,
            12.309950141292989
          ],
          [
            122.5869877082534,
            12.31004774382468
          ],
          [
            122.5870601475595,
            12.310138782458461
          ],
          [
            122.5877571429972,
            12.31052238041089
          ],
          [
            122.5878766289292,
            12.310548131608929
          ],
          [
            122.58808128350101,
            12.310580671889621
          ],
          [
            122.5881867195189,
            12.310561414332168
          ],
          [
            122.58832022783612,
            12.31056126826202
          ],
          [
            122.58884165054451,
            12.310501122853008
          ],
          [
            122.589781005244,
            12.310466916515207
          ],
          [
            122.58994808398441,
            12.310460134125748
          ],
          [
            122.5900671942692,
            12.310531863142788
          ],
          [
            122.590151938289,
            12.31065578787316
          ],
          [
            122.5902460840764,
            12.31084459978743
          ],
          [
            122.59024544405132,
            12.310929048516128
          ],
          [
            122.5901710064006,
            12.311143114733557
          ],
          [
            122.59017049069251,
            12.311233808983602
          ],
          [
            122.5901835268651,
            12.311279133816392
          ],
          [
            122.5902498520236,
            12.3113050341789
          ],
          [
            122.5910775010258,
            12.311370271049519
          ],
          [
            122.59165193346351,
            12.311259665213958
          ],
          [
            122.59193764004242,
            12.31118193744477
          ],
          [
            122.5921503500644,
            12.31096916910025
          ],
          [
            122.5921377407786,
            12.310814282183179
          ],
          [
            122.5920599270063,
            12.31030407365784
          ],
          [
            122.59197608237439,
            12.310083542550778
          ],
          [
            122.5919631601868,
            12.30990890071029
          ],
          [
            122.59202222099009,
            12.30980579026043
          ],
          [
            122.5921012983701,
            12.30974780916598
          ],
          [
            122.59240712657659,
            12.30952587756748
          ],
          [
            122.59283892738021,
            12.30928533752159
          ],
          [
            122.59298488382582,
            12.309252781963679
          ],
          [
            122.5932183528675,
            12.30923232992965
          ],
          [
            122.5938155660746,
            12.30909252668751
          ],
          [
            122.5940897518508,
            12.30909176386673
          ],
          [
            122.5944148421586,
            12.309092101615056
          ],
          [
            122.5945579655312,
            12.309060892537266
          ],
          [
            122.59477197498272,
            12.309036933981949
          ],
          [
            122.59492737250082,
            12.30899300723236
          ],
          [
            122.59499860242612,
            12.308954795263002
          ],
          [
            122.5981533054996,
            12.308411831422088
          ],
          [
            122.5982604907632,
            12.308437855909823
          ],
          [
            122.5984395997774,
            12.308463688193548
          ],
          [
            122.59857190435791,
            12.30849621023195
          ],
          [
            122.59875214582522,
            12.308512682743986
          ],
          [
            122.59892795677,
            12.30850270341102
          ],
          [
            122.5990333942794,
            12.30838205907019
          ]
        ]
      }
    },
    {
      "type": "Feature",
      "properties": {
        "id": 89,
        "canal_id": 9,
        "canal_type": "Lateral",
        "remarks": "Lateral B",
        "canal_leng": 3523.627,
        "canal_widt": 0,
        "station_no": "STA 0+000",
        "station__1": "STA 3+524",
        "station__2": "3523.63",
        "canal": "LATERAL B",
        "canaltype": "Lateral",
        "canal_lining": "Lined"
      },
      "geometry": {
        "type": "LineString",
        "coordinates": [
          [
            122.57431342953359,
            12.324181681542242
          ],
          [
            122.574238585864,
            12.32426433688683
          ],
          [
            122.57419629347051,
            12.32429611966876
          ],
          [
            122.5741571908951,
            12.324347656406262
          ],
          [
            122.5741084001325,
            12.32437612774058
          ],
          [
            122.57399115427651,
            12.32437578363808
          ],
          [
            122.5739846346269,
            12.32437576447619
          ],
          [
            122.57384757083888,
            12.324372175232918
          ],
          [
            122.5738377696599,
            12.32437214616666
          ],
          [
            122.57358276461581,
            12.324342959778411
          ],
          [
            122.57329724046761,
            12.324323004635662
          ],
          [
            122.5730566134358,
            12.324315811392243
          ],
          [
            122.5729342282991,
            12.324334600445207
          ],
          [
            122.5727886472667,
            12.32441761466126
          ],
          [
            122.57255612309491,
            12.324574882414451
          ],
          [
            122.57250337091831,
            12.324642237128558
          ],
          [
            122.5724604946365,
            12.32471605785231
          ],
          [
            122.57243410234261,
            12.32480277273445
          ],
          [
            122.5724110046473,
            12.324886293757237
          ],
          [
            122.5723647971245,
            12.324979460747258
          ],
          [
            122.5722485984621,
            12.32540246025408
          ],
          [
            122.5722255549947,
            12.325447479982786
          ],
          [
            122.5721926134579,
            12.325502147246148
          ],
          [
            122.57215639238191,
            12.325569681594768
          ],
          [
            122.57195128631912,
            12.32588885899795
          ],
          [
            122.5719115205073,
            12.32593703675831
          ],
          [
            122.57186840025771,
            12.325994920652798
          ],
          [
            122.5718285842046,
            12.32609803802981
          ],
          [
            122.571802186805,
            12.32615933004736
          ],
          [
            122.5717426972668,
            12.32625287235869
          ],
          [
            122.5716996788204,
            12.326301267078518
          ],
          [
            122.571689769996,
            12.32632062542412
          ],
          [
            122.5714640497372,
            12.326710182963778
          ],
          [
            122.57138871479911,
            12.326813162870868
          ],
          [
            122.5713397780156,
            12.3269063513866
          ],
          [
            122.5712613961712,
            12.327015441268959
          ],
          [
            122.57121904209622,
            12.327082731448408
          ],
          [
            122.5711766300632,
            12.327133954501747
          ],
          [
            122.5711341658135,
            12.327172345958527
          ],
          [
            122.5710818063211,
            12.32720112520266
          ],
          [
            122.57102939662421,
            12.32722030515707
          ],
          [
            122.5709433241758,
            12.32722062911103
          ],
          [
            122.5705380334935,
            12.327151803739499
          ],
          [
            122.5704455283304,
            12.327132569597508
          ],
          [
            122.57037599975058,
            12.327087423861595
          ],
          [
            122.570306365823,
            12.327077769775542
          ],
          [
            122.5702731959644,
            12.32710690123
          ],
          [
            122.5701735661546,
            12.32718144319694
          ],
          [
            122.57007383190931,
            12.32729496005814
          ],
          [
            122.56997620441821,
            12.327424398993678
          ],
          [
            122.5698834618555,
            12.327511865121377
          ],
          [
            122.5697800536784,
            12.327596168747093
          ],
          [
            122.5697095647264,
            12.32764498610078
          ],
          [
            122.5696524161407,
            12.327693876372638
          ],
          [
            122.56965581835901,
            12.327719857273717
          ],
          [
            122.56971988221459,
            12.327752001247298
          ],
          [
            122.5698807847727,
            12.327780240349167
          ],
          [
            122.5701166372256,
            12.3278495327231
          ],
          [
            122.5701924908488,
            12.32790345939135
          ],
          [
            122.57026149625091,
            12.327957245489728
          ],
          [
            122.57032044734461,
            12.328023722619832
          ],
          [
            122.5703398341124,
            12.328114196109992
          ],
          [
            122.57036235529328,
            12.32818834995237
          ],
          [
            122.5703685139464,
            12.32827139439823
          ],
          [
            122.57033279251772,
            12.328323909958574
          ],
          [
            122.570281053952,
            12.32835233420314
          ],
          [
            122.5700072923152,
            12.32842631245796
          ],
          [
            122.56988103649951,
            12.328471391003642
          ],
          [
            122.5698192581613,
            12.32851913664342
          ],
          [
            122.56972489798919,
            12.32858298238351
          ],
          [
            122.56967609466871,
            12.328636877802957
          ],
          [
            122.56963381700922,
            12.32866855504994
          ],
          [
            122.5680112689888,
            12.32918432162981
          ],
          [
            122.56789905317972,
            12.329245644278078
          ],
          [
            122.5678065865124,
            12.329297308550379
          ],
          [
            122.56771407404759,
            12.329365059155158
          ],
          [
            122.5676281846371,
            12.329416687904278
          ],
          [
            122.5675158564229,
            12.329474796382678
          ],
          [
            122.5673998420242,
            12.32950106908256
          ],
          [
            122.56727676105221,
            12.329521065038303
          ],
          [
            122.56709010566162,
            12.32957038612664
          ],
          [
            122.5669604389598,
            12.32958417840298
          ],
          [
            122.56684993888159,
            12.3296397093896
          ],
          [
            122.5667328075535,
            12.329695258446202
          ],
          [
            122.5666760694743,
            12.329744178991318
          ],
          [
            122.56664277090438,
            12.329780017586211
          ],
          [
            122.56661627606631,
            12.329835346841167
          ],
          [
            122.5665303697988,
            12.33038979488412
          ],
          [
            122.5665071905913,
            12.330493639164718
          ],
          [
            122.5665074698354,
            12.330584307844287
          ],
          [
            122.5665078582185,
            12.330710391002931
          ],
          [
            122.56646789020868,
            12.330785110159379
          ],
          [
            122.566455508884,
            12.33085205721735
          ],
          [
            122.56643308068868,
            12.330915755981207
          ],
          [
            122.56640353070561,
            12.330951008712777
          ],
          [
            122.56634431887488,
            12.33101198833498
          ],
          [
            122.5662682360575,
            12.331066970338911
          ],
          [
            122.5661916819388,
            12.33109342376242
          ],
          [
            122.5661075037587,
            12.331075543890597
          ],
          [
            122.5660230120635,
            12.33105759741329
          ],
          [
            122.5659788636251,
            12.331045456480688
          ],
          [
            122.5659386267754,
            12.33105224028729
          ],
          [
            122.56553812192529,
            12.33147550353061
          ],
          [
            122.565525506378,
            12.331539500784569
          ],
          [
            122.5655331583454,
            12.331618915627049
          ],
          [
            122.5655509017736,
            12.331704022598394
          ],
          [
            122.56552483625032,
            12.331755038174059
          ],
          [
            122.5654822952473,
            12.33180930632887
          ],
          [
            122.5654230993894,
            12.33186070189771
          ],
          [
            122.5653832462978,
            12.331870892634267
          ],
          [
            122.5648566879793,
            12.331991275598286
          ],
          [
            122.56479697851482,
            12.33203001404522
          ],
          [
            122.5646971608701,
            12.33207558677514
          ],
          [
            122.56460372923199,
            12.332144192902073
          ],
          [
            122.56426708765989,
            12.332212755754945
          ],
          [
            122.5641834945824,
            12.332245710263352
          ],
          [
            122.56404977988151,
            12.332271956916506
          ],
          [
            122.5640397444587,
            12.332271971637729
          ],
          [
            122.5638389534893,
            12.33227873906225
          ],
          [
            122.56371221219321,
            12.332320981424047
          ],
          [
            122.56356814618822,
            12.332363648726439
          ],
          [
            122.56333274944919,
            12.33246309784932
          ],
          [
            122.5628032228135,
            12.332581181521649
          ],
          [
            122.5614146969264,
            12.33282775243684
          ],
          [
            122.56138132463902,
            12.332860483424078
          ],
          [
            122.5613181998241,
            12.332935617018258
          ],
          [
            122.5612253982703,
            12.33304312781296
          ],
          [
            122.56116574743642,
            12.333098379067868
          ],
          [
            122.5611059287182,
            12.333130836796858
          ],
          [
            122.56023110372301,
            12.33341340635785
          ],
          [
            122.55998577392191,
            12.333465153812815
          ],
          [
            122.55983861638,
            12.333494716573929
          ],
          [
            122.5596944179771,
            12.33352759914205
          ],
          [
            122.55959093353852,
            12.333573215552542
          ],
          [
            122.5594979265021,
            12.333638174551517
          ],
          [
            122.55941978548262,
            12.33372010291634
          ],
          [
            122.5593198440918,
            12.33405543554507
          ],
          [
            122.55925608293468,
            12.334176140098771
          ],
          [
            122.55922609710409,
            12.334303274565379
          ],
          [
            122.5591927937194,
            12.334404291361716
          ],
          [
            122.55913919473261,
            12.334495732726378
          ],
          [
            122.55910253310118,
            12.334600027062228
          ],
          [
            122.55910254933882,
            12.334603272615968
          ],
          [
            122.55907921343079,
            12.334714098588659
          ],
          [
            122.5590828360139,
            12.33480504865399
          ],
          [
            122.5589836326494,
            12.335397485183249
          ],
          [
            122.55895348629261,
            12.335436762550263
          ],
          [
            122.5589131673598,
            12.33546652428401
          ],
          [
            122.5587759415502,
            12.33581086235239
          ],
          [
            122.5587024740806,
            12.33590879266271
          ],
          [
            122.55860904272238,
            12.336039189946847
          ],
          [
            122.5585290637592,
            12.33617264783814
          ],
          [
            122.5584923556937,
            12.336257382510672
          ],
          [
            122.5583837622658,
            12.33643945722139
          ],
          [
            122.55837707855831,
            12.336504669630772
          ],
          [
            122.5583603812414,
            12.336595978548049
          ],
          [
            122.55836371481402,
            12.336648075070208
          ],
          [
            122.55837037575108,
            12.33675869577444
          ],
          [
            122.5583102915186,
            12.33683732653026
          ],
          [
            122.5582701745317,
            12.33686702261445
          ],
          [
            122.5582768730666,
            12.336898538336488
          ],
          [
            122.55826349431541,
            12.33699643870703
          ],
          [
            122.55830020154461,
            12.337280492123858
          ],
          [
            122.5583169049277,
            12.337362098329052
          ],
          [
            122.55846039000382,
            12.33759854857885
          ],
          [
            122.5584638004882,
            12.33770309539577
          ],
          [
            122.5584505889348,
            12.337820463967578
          ],
          [
            122.5583234208539,
            12.337947966317468
          ],
          [
            122.55799604482992,
            12.33829413243627
          ],
          [
            122.55768144187401,
            12.33879552107236
          ],
          [
            122.55726644163622,
            12.339578737343007
          ],
          [
            122.5569709446571,
            12.340257445717812
          ],
          [
            122.55647191870179,
            12.34124346815811
          ],
          [
            122.55616149636731,
            12.341934379975328
          ],
          [
            122.5553098507392,
            12.34379520758211
          ]
        ]
      }
    }
  ]
}