{
"type": "FeatureCollection",
"name": "Pula RIS",
"crs": { "type": "name", "properties": { "name": "urn:ogc:def:crs:OGC:1.3:CRS84" } },
"features": [
{"type":"Feature","properties":{"id":704,"canal_id":null,"canal_type":null,"remarks":null,"Length":null,"length_1":null,"canal_widt":null,"station_no":null,"canal_leng":null,"station__1":null,"station__2":null,"canal":null,"canaltype":null},"geometry":{"type":"LineString","coordinates":[[121.462004057837731,13.074012362994706],[121.46202748602326,13.073915625792583],[121.462593828756852,13.073908430645576],[121.463725077116308,13.073324206941109],[121.464024218515192,13.072737966149743],[121.463757404778804,13.071842484835662],[121.464225840011608,13.071445039386511],[121.464778529340293,13.07113414498512],[121.466333298102455,13.070505682555424],[121.4681395621825,13.068707393034579],[121.46816718800639,13.068679544274575],[121.468339201749629,13.068633189774213],[121.468476616821462,13.068609699241042],[121.46850441519247,13.068599290635275],[121.468522303071609,13.068586111294396],[121.468866736368881,13.068149220653275],[121.46892577850177,13.068097767877134],[121.468932908253166,13.068082979952926],[121.468935761025449,13.068050849504187],[121.46893974113955,13.068039662797219],[121.468957745749918,13.068024578846165],[121.468964852641975,13.068013498326733],[121.468962634873947,13.067998346059294],[121.468957705337331,13.067980010867357],[121.468971906626578,13.067682950988768],[121.468979928291489,13.0676661987138],[121.469150831537519,13.067549902202733],[121.469207589043535,13.067502098290742],[121.469280945446556,13.067421719965314],[121.469414804651507,13.067275485559058],[121.469573025713359,13.067059531324015],[121.469612137102203,13.067012839341624],[121.469680262735892,13.066961366110922],[121.46977393687186,13.066863381225666],[121.469823117958896,13.066779209949752],[121.469909786079711,13.066688937657174],[121.470073943332864,13.066620250398127],[121.470147992364019,13.066564270435002],[121.470206349738476,13.066515126129875],[121.470350846968344,13.06641403252047],[121.470546785401183,13.066321161595958],[121.470676867011164,13.066183607504023],[121.470758478138151,13.066047251237748],[121.471022120206641,13.065808290800828],[121.471229763383832,13.065536005648891],[121.472072744778458,13.064781487123064],[121.472673992078327,13.064205679952769],[121.472879042753362,13.06413562611937],[121.473322714002038,13.063764686090657],[121.473455399781628,13.063922118443021],[121.474039452292303,13.063709717915573],[121.475442367995313,13.062733697380205],[121.475277129276392,13.062568416547135],[121.475374101256705,13.062341335100999],[121.475583107032577,13.061845689356135],[121.475669286233057,13.061732040855965],[121.475706222555289,13.061635918350488],[121.475768034373942,13.061599330335598],[121.476115064522702,13.061425851928243],[121.47617612832255,13.061566103230241],[121.476524967018761,13.061426947884689],[121.477433344008446,13.061207215502321],[121.478252089839529,13.061173099660245],[121.479119072433875,13.061070334569106]]}},
{"type":"Feature","properties":{"id":727,"canal_id":null,"canal_type":"CALUCMOY CHECKGATE SUPPLY CANAL","remarks":"Main Canal","Length":null,"length_1":null,"canal_widt":null,"station_no":null,"canal_leng":null,"station__1":null,"station__2":null,"canal":null,"canaltype":null},"geometry":{"type":"LineString","coordinates":[[121.39129838751964,13.044658739584484],[121.390723865218902,13.04438320576218]]}},
{"type":"Feature","properties":{"id":702,"canal_id":699,"canal_type":"Macanlig Supply Canal to Lateral B","remarks":"Main Canal","Length":null,"length_1":null,"canal_widt":null,"station_no":null,"canal_leng":null,"station__1":null,"station__2":null,"canal":null,"canaltype":null},"geometry":{"type":"LineString","coordinates":[[121.458104522849482,13.07051205993535],[121.457815808072098,13.070604922505948],[121.456855295511403,13.07094223503972],[121.456821542300403,13.07095990137498],[121.456809489189496,13.071001025084776],[121.456828874269121,13.071096130362529],[121.45697119642341,13.071589267952941],[121.457039979645501,13.07197825624408],[121.457063342932997,13.07220710508607],[121.456661467958497,13.072771066063606],[121.45652567500251,13.072922400544318]]}},
{"type":"Feature","properties":{"id":711,"canal_id":null,"canal_type":null,"remarks":null,"Length":null,"length_1":null,"canal_widt":null,"station_no":null,"canal_leng":null,"station__1":null,"station__2":null,"canal":null,"canaltype":null},"geometry":{"type":"LineString","coordinates":[[121.452613100261743,13.037612127918331],[121.452490861547631,13.037543045683737],[121.452343173963953,13.037413686485472],[121.451996161098251,13.036995467541182],[121.452293725556487,13.036210765078737],[121.452273942462867,13.036139124668855],[121.452251517219096,13.036002966859057],[121.452158853966623,13.035819702441753],[121.451825446970446,13.03524333841491],[121.45177724986624,13.035279030823643],[121.450856487939234,13.033713113973549],[121.450967588939548,13.033651558441042],[121.450411016023963,13.032764338822764],[121.449894571566375,13.031930363831085],[121.449620074927154,13.031475148170953],[121.449021394751128,13.030617424195563],[121.44862367589775,13.028933461756663]]}},
{"type":"Feature","properties":{"id":701,"canal_id":698,"canal_type":"Macanlig Supply Canal to Lateral Bx","remarks":"Main Canal","Length":null,"length_1":null,"canal_widt":null,"station_no":null,"canal_leng":null,"station__1":null,"station__2":null,"canal":null,"canaltype":null},"geometry":{"type":"LineString","coordinates":[[121.456993880985124,13.072304582987694],[121.457070192094804,13.072712650014987],[121.457113691733639,13.072992903789332]]}},
{"type":"Feature","properties":{"id":706,"canal_id":null,"canal_type":"LAT-C MFD","remarks":"Lateral","Length":null,"length_1":null,"canal_widt":null,"station_no":null,"canal_leng":null,"station__1":null,"station__2":null,"canal":null,"canaltype":null},"geometry":{"type":"LineString","coordinates":[[121.475788697347141,13.013543346760679],[121.475670784071184,13.013378358850584],[121.475575670783243,13.01277761989485],[121.475457531753705,13.012338805428936],[121.475271646730306,13.011732689872959],[121.475193444767882,13.01110038339114],[121.475178831985446,13.010756060156002],[121.475126049973809,13.010316139492369],[121.475099725967624,13.009898727379385]]}},
{"type":"Feature","properties":{"id":707,"canal_id":null,"canal_type":"LAT-C MFD","remarks":"Lateral","Length":null,"length_1":null,"canal_widt":null,"station_no":null,"canal_leng":null,"station__1":null,"station__2":null,"canal":null,"canaltype":null},"geometry":{"type":"LineString","coordinates":[[121.464422575299523,13.019244920578736],[121.464892535002051,13.019795303918578],[121.465863509826718,13.020893862220882]]}},
{"type":"Feature","properties":{"id":690,"canal_id":690,"canal_type":"Main Canal 1","remarks":"Main Canal","Length":null,"length_1":null,"canal_widt":null,"station_no":null,"canal_leng":null,"station__1":null,"station__2":null,"canal":null,"canaltype":null},"geometry":{"type":"LineString","coordinates":[[121.398279599767321,13.002563097307618],[121.3989607140782,13.00150297125165],[121.399145454058313,13.001259966142079],[121.399251109627301,13.001220521375608],[121.3994017486106,13.001246991354458],[121.407773439052221,13.007064416117391],[121.410025885152521,13.009058271662759],[121.411324983848516,13.01139428129283],[121.411879394057607,13.013743513201046],[121.411879155165607,13.013864012731309],[121.411861910200514,13.014171977792692],[121.411710172078898,13.017618997769679],[121.412056437649511,13.017728918407157],[121.412502103961387,13.017841380124999],[121.413634495034913,13.018191913286898],[121.414069042539808,13.018345780432441],[121.414456368128995,13.018384919712743],[121.414698060442305,13.018361682510481],[121.41498486368242,13.018334193234281],[121.415106158791403,13.018377263377406],[121.415233844630606,13.018467223775668],[121.4153246201641,13.018578284317311],[121.415625649754503,13.019629134308326],[121.415841547555416,13.02025779004634],[121.416594088209607,13.02278905964214],[121.416908228494506,13.023757272969338],[121.4171524252898,13.024435073279566],[121.417424589353118,13.025140765269487],[121.417707616815292,13.025759402825026],[121.418262875258506,13.027219516070916],[121.418538913198589,13.027873206539109],[121.419101813349116,13.028395783706788],[121.420204459792203,13.029215036513859],[121.422491334493117,13.030912809811012],[121.422729497065305,13.031124089686859],[121.422906862747993,13.031549102781819],[121.423020919808309,13.031862069614068],[121.424204240682883,13.035255847799871],[121.424465718795403,13.035534746849619],[121.424800452223607,13.0355599101471],[121.425787368552719,13.035547634682739],[121.426475898053212,13.03552812258112],[121.42708024840789,13.03556162529263],[121.427457825649597,13.035639229291112],[121.427799306599596,13.035870271399519],[121.428091097026197,13.036109746847368],[121.428236632439706,13.036229418343108],[121.428868211588011,13.036763743839852],[121.429278265642395,13.037119352802462],[121.429527616437383,13.037334656319926],[121.429649100919505,13.037407119519518],[121.429826863085296,13.037399017354879],[121.430197117975183,13.037158856776639],[121.430459470584097,13.036950071925691],[121.43064393307688,13.036903933785766],[121.430913010884083,13.036928802370209],[121.431233640041995,13.037081648402298],[121.431460461302819,13.037264755573821],[121.431908492036001,13.038078939543269],[121.432316923862999,13.038812568148492],[121.432675422736907,13.039469028265589],[121.432847380371499,13.039776270734489],[121.433008950814497,13.039889553129726],[121.43324995764209,13.03993234520566],[121.433432417956368,13.039937902080581],[121.433911762391602,13.040014349217918],[121.434725111781219,13.040375491561401],[121.435137442785617,13.040568550417809],[121.435857804675919,13.04095720791944],[121.436246714000291,13.041186381114668],[121.436433191221198,13.041461619308937],[121.436487495204503,13.041884500730379],[121.436495882436716,13.042332302270619],[121.436499550452496,13.042664510156538],[121.436590954029285,13.042971499196531],[121.436687375355987,13.043183943549073],[121.436956201207394,13.043435009972402],[121.437192671828512,13.043660859703488],[121.437694095304806,13.044136554550999],[121.438217999349519,13.044262171933639],[121.439040467241909,13.044339673211869],[121.439712249821213,13.044299301386369],[121.440642606056912,13.04403692679262],[121.441322619650009,13.043641798166352],[121.442221174544798,13.043672443489728],[121.442528378122404,13.043581991856236],[121.442608584672911,13.043516249525],[121.444699485290798,13.042398004725349],[121.445442624049505,13.0419979138061],[121.445877424522607,13.041897797992068],[121.446212977925697,13.041818455526197]]}},
{"type":"Feature","properties":{"id":691,"canal_id":692,"canal_type":"Lateral Bx","remarks":"Sub Lateral","Length":null,"length_1":null,"canal_widt":null,"station_no":null,"canal_leng":null,"station__1":null,"station__2":null,"canal":null,"canaltype":null},"geometry":{"type":"LineString","coordinates":[[121.400411192205979,13.037055364110129],[121.399917978632715,13.036838666719229],[121.399444485394596,13.036540586423399],[121.39902524627189,13.03634523773191],[121.398775788644883,13.036240704694301],[121.39849490413512,13.036158844849957],[121.39843471097781,13.036148152682051],[121.398254573946886,13.03619558691906],[121.397856903754516,13.036367576487898],[121.396390407870896,13.037198371594469],[121.395294333385209,13.037802666434779],[121.393341117709795,13.038954237506319],[121.392139318458504,13.039625706065257],[121.391640192867598,13.039904814937669],[121.391421948826405,13.04003685527791],[121.391255776401806,13.040175318108037],[121.390772002481199,13.04061421140119],[121.390541235398885,13.040867233868887],[121.390537178989121,13.040870549810958],[121.3902459259794,13.041237952044016],[121.390123585543208,13.041527213487218],[121.390052942508106,13.041736187291479],[121.389982224698798,13.041972850319478],[121.389932827345518,13.042155711384618],[121.389889257242302,13.042270145464769],[121.389835250171302,13.042435186954489],[121.389630831232694,13.042527665932651],[121.389206679850304,13.042445406858899],[121.387422460946809,13.041947578243377],[121.385801705166571,13.042172526801751],[121.385698793163101,13.042177403831291],[121.385628004870085,13.042170517212574],[121.385557999371159,13.042144299822548],[121.385450851801863,13.04206741700918],[121.385363199776336,13.041974703849652],[121.385087897014955,13.041528871471632]]}},
{"type":"Feature","properties":{"id":692,"canal_id":693,"canal_type":"Lateral A","remarks":"Lateral","Length":null,"length_1":null,"canal_widt":null,"station_no":null,"canal_leng":null,"station__1":null,"station__2":null,"canal":null,"canaltype":null},"geometry":{"type":"LineString","coordinates":[[121.411912350609299,13.01388999067459],[121.412044437014998,13.013897693038647],[121.41228669865599,13.013896029686871],[121.412534370846117,13.013903512242107],[121.412627064636283,13.013900467091871],[121.412732242197507,13.013877889843432],[121.41300678471849,13.013779094127889],[121.413318215491813,13.013667274297751],[121.413730018577311,13.013507576458847],[121.413971128235119,13.01343721876459],[121.414160532202715,13.0134164615181],[121.414269372224197,13.013430368661028],[121.415286291939111,13.013671424357202],[121.41631962484702,13.013968069598539],[121.418595197152001,13.01459979085495],[121.419533521768102,13.01484102206998],[121.420063783799407,13.0150145044667],[121.420667044899304,13.015325083485001],[121.421224475843815,13.015741431299768],[121.422161671033507,13.016441314833628],[121.422786235022201,13.01693942544294],[121.424224763108214,13.018055533523212],[121.425717556392684,13.01900016762055],[121.42664409182288,13.019553386541197],[121.427574595594109,13.02009930710804],[121.42841909288552,13.020613073202668],[121.429457176004107,13.021208050511589],[121.429719546390913,13.02140882911956],[121.429983774672507,13.021694497759901],[121.430432650687905,13.02237081109495],[121.43086843484528,13.023745950226026],[121.431282253552993,13.025720938622809]]}},
{"type":"Feature","properties":{"id":693,"canal_id":694,"canal_type":"Lateral Ax","remarks":"Sub Lateral","Length":null,"length_1":null,"canal_widt":null,"station_no":null,"canal_leng":null,"station__1":null,"station__2":null,"canal":null,"canaltype":null},"geometry":{"type":"LineString","coordinates":[[121.412555199609201,13.022149967819868],[121.412579581481396,13.022316195003702],[121.412584024196988,13.022493368647138],[121.412512988855511,13.022837411441088],[121.412232936255407,13.024051867377029],[121.41209109155308,13.024641125595627],[121.411326744350106,13.028421913982532],[121.411341589801012,13.02865706147878],[121.411387801579394,13.029207218500739],[121.41162090592411,13.031058217664707],[121.411980014359216,13.033364490052078],[121.412176446513598,13.03466056098137],[121.412801782520916,13.038178728832346],[121.412914408732902,13.039394013713361],[121.412984063304108,13.039615018724097],[121.41304018913921,13.039704989145566],[121.413117384424808,13.039789005217788],[121.413260214006897,13.03987539095432],[121.413387116635718,13.039921533111912],[121.413471696009296,13.039926139880922],[121.413668648313504,13.03992328025141],[121.414175332713299,13.040018772886143],[121.414360383677703,13.040802596152419],[121.414782265589508,13.040738406033039],[121.414910538867005,13.040831627505399],[121.415075131263293,13.041472686635432],[121.41543956519709,13.041425763384646],[121.415687747480902,13.041485515326549],[121.415758494350897,13.041562405843232],[121.41589627206011,13.042086131544448],[121.415967469664409,13.042155659561601],[121.416043057423295,13.044070008698588]]}},
{"type":"Feature","properties":{"id":694,"canal_id":701,"canal_type":"Lateral D","remarks":"Lateral","Length":null,"length_1":null,"canal_widt":null,"station_no":null,"canal_leng":null,"station__1":null,"station__2":null,"canal":null,"canaltype":null},"geometry":{"type":"LineString","coordinates":[[121.446229072500316,13.04181756500401],[121.446437492327505,13.041770839485826],[121.446748420335993,13.041704851526831],[121.447159482553701,13.04164337418791],[121.447453360228991,13.041565555702228],[121.447703935512706,13.041543568441098],[121.447920243140501,13.041572878502929],[121.448137052836401,13.041673121894082],[121.449266010860711,13.04229485150635],[121.44957283087092,13.042419484472218],[121.449931468140917,13.042513450378548],[121.450405515468802,13.04256796782281],[121.452927367898099,13.042872015328228],[121.453451166096215,13.042977301835707],[121.454067412632398,13.04312580847969],[121.455311992086493,13.04342828179438],[121.455615983884513,13.043451370973649],[121.456298718720603,13.043300122925192],[121.457054968630914,13.043063888179347],[121.4582233171826,13.042683900800677],[121.459105955146597,13.042362787770291],[121.4604332567543,13.041988454109486],[121.460643755835889,13.041991549753741],[121.461001994886701,13.04199492405688],[121.461249719759195,13.04197112817185],[121.461601263171715,13.04194945293828],[121.461949498054096,13.041984735307278],[121.462418172591086,13.042105456344988],[121.462931731109208,13.042257831996579],[121.463420878981111,13.042417590811992],[121.463770228980593,13.04248995476437],[121.463998628404411,13.042463022695339],[121.464256414593606,13.042377209931301],[121.464549875733397,13.04223739190663],[121.46499481607168,13.041891826640942],[121.465418228879301,13.041437654866744],[121.466023316646783,13.04082045020092],[121.467683595474313,13.039155168145918],[121.467919319352106,13.038920693734909],[121.468129868902579,13.038696847445062],[121.468439926243519,13.038397290858978],[121.468688664006905,13.037896945034001],[121.469038677461185,13.03716170921995],[121.469582885169203,13.036064588091618],[121.470513420864606,13.034193151594122],[121.470639765772418,13.034033571949719],[121.471742352533695,13.03168407209886],[121.472327592374896,13.030440740181191],[121.472564516336192,13.029983184907207],[121.473708605775201,13.027549512687649],[121.474076964542206,13.026777049656159],[121.474165853608014,13.026565740440269],[121.474355487750501,13.026159829148419],[121.474500909532694,13.025983853450736],[121.474706811593293,13.025789677027738],[121.474885409567506,13.025670628170676],[121.475166530381202,13.02562231297459],[121.475519066315599,13.025636387403358],[121.475869905577611,13.025696086431106],[121.476532715122005,13.025889499479527]]}},
{"type":"Feature","properties":{"id":695,"canal_id":696,"canal_type":"Lateral B Supplemental Canal","remarks":"Lateral","Length":null,"length_1":null,"canal_widt":null,"station_no":null,"canal_leng":null,"station__1":null,"station__2":null,"canal":null,"canaltype":null},"geometry":{"type":"LineString","coordinates":[[121.428091590449881,13.036109284350777],[121.428158312760402,13.03599576003595],[121.428304788563111,13.035752498760731],[121.428367441936302,13.03562961779105],[121.428407684418801,13.03550970663974],[121.428445524249398,13.035300334642326],[121.42848698706662,13.035051521684967],[121.428725978179699,13.03365312532269],[121.428883723287512,13.032833633594921],[121.428965412667694,13.03257913759132],[121.429099062893314,13.032131437708232],[121.429357163037707,13.03129596713163],[121.429407808834398,13.031110455476496],[121.429606177055021,13.030382834979562],[121.42966048711601,13.03020909620826],[121.429735865327913,13.030055774110489],[121.429855545593313,13.029955821858399],[121.430556687431519,13.029287167562359],[121.430901402989718,13.02899202826992],[121.431445682465394,13.028536891394557],[121.431649766274518,13.028333968105789],[121.431723739977016,13.02822519889286]]}},
{"type":"Feature","properties":{"id":730,"canal_id":null,"canal_type":"MC1 MFD","remarks":"Main Canal","Length":null,"length_1":null,"canal_widt":null,"station_no":null,"canal_leng":null,"station__1":null,"station__2":null,"canal":null,"canaltype":null},"geometry":{"type":"LineString","coordinates":[[121.422980328729906,13.031750689818333],[121.423111536682413,13.031711321308917],[121.42308483868338,13.031638214107183],[121.423071137323888,13.031517424591575],[121.423081474172847,13.0314468585022],[121.423091371945063,13.031399012594944],[121.423100844393829,13.031138553424778],[121.423111700263121,13.031102581333792],[121.423143880341414,13.031067535043993],[121.423224614444194,13.031022508291967],[121.423296922623962,13.030996860452371],[121.424060063961363,13.03083050285314],[121.424106136195277,13.030606159573523],[121.42472019536406,13.030175915621975],[121.425653808258062,13.03095243101799],[121.426188664026554,13.031282701767138],[121.426133196100849,13.031510823912798]]}},
{"type":"Feature","properties":{"id":731,"canal_id":null,"canal_type":"LAT-BX MFD","remarks":"Lateral","Length":null,"length_1":null,"canal_widt":null,"station_no":null,"canal_leng":null,"station__1":null,"station__2":null,"canal":null,"canaltype":null},"geometry":{"type":"LineString","coordinates":[[121.385637581852819,13.042171448907723],[121.385631578336273,13.042094965761063],[121.387006441492815,13.040561301301024],[121.387103015556761,13.040317021130045]]}},
{"type":"Feature","properties":{"id":703,"canal_id":691,"canal_type":"Main Canal 2","remarks":"Main Canal","Length":null,"length_1":null,"canal_widt":null,"station_no":null,"canal_leng":null,"station__1":null,"station__2":null,"canal":null,"canaltype":null},"geometry":{"type":"LineString","coordinates":[[121.4117105334077,13.017620550296202],[121.411766613353294,13.018805916660988],[121.411950894004619,13.019736479280617],[121.412557134601116,13.022146152439008],[121.412219424512202,13.02223104120432],[121.412108404063204,13.022284199357642],[121.41203802137538,13.022367936690562],[121.411732338156298,13.02304246553115],[121.411665471610107,13.023218488946352],[121.411604795726404,13.023299509358637],[121.411532411432688,13.023366048696309],[121.411452446031319,13.023409587972232],[121.410908864563595,13.023594127850268],[121.410786676021615,13.023650593804822],[121.410695911611811,13.02371382596966],[121.408996458542504,13.02537992118017],[121.40797341081651,13.02632963340152],[121.407034528813895,13.02733854586655],[121.406659389729398,13.02798850203351],[121.405363608823905,13.029969808724077],[121.404783277088413,13.03183361320767],[121.404411369719398,13.03311989328312],[121.404166057419616,13.033465496517231],[121.403681495413579,13.03388672849324],[121.403069969322999,13.034099685943421],[121.403064256362001,13.034099562881138],[121.402702641031894,13.034204570658718],[121.402276859397404,13.034522512940621],[121.401845490472795,13.035045551099291],[121.400560705653518,13.036757189542122],[121.400438531740704,13.037016613808328],[121.399441861547899,13.040549369902772],[121.399412107812907,13.040827241172284],[121.399471265410597,13.041106188898988],[121.40083134152421,13.042692760089409],[121.403627336739589,13.045767872739289],[121.405315759104283,13.047804695789928],[121.406399051266504,13.048704141742631],[121.406997123139902,13.049034076461469],[121.407843414652021,13.049110268806604],[121.409556107514717,13.049564027656299],[121.4112271866165,13.050259896258011],[121.412251400974213,13.050633940555212],[121.413284684061296,13.050937809218349],[121.41425541728789,13.0511338151745],[121.414679199438496,13.051404230616159],[121.415197827306315,13.051972940417006],[121.415497702710596,13.05280583171888],[121.415966402029696,13.054127812773309],[121.416215646367888,13.05488306354634],[121.416214933397612,13.05493034940053],[121.41655949227642,13.055321340188097],[121.4176916736278,13.055766050030119],[121.419032300142803,13.056154667227199],[121.422488264998805,13.057076337545189],[121.423373728204112,13.057392408937522],[121.423512898268413,13.057997982427491],[121.423770418529017,13.05892989851184],[121.423850587197194,13.059630609883982],[121.423743784366579,13.060048600094447]]}},
{"type":"Feature","properties":{"id":709,"canal_id":null,"canal_type":"LAT-C MFD","remarks":"Lateral","Length":null,"length_1":null,"canal_widt":null,"station_no":null,"canal_leng":null,"station__1":null,"station__2":null,"canal":null,"canaltype":null},"geometry":{"type":"LineString","coordinates":[[121.460062613068473,13.031359164393292],[121.459491778854257,13.031878884269123],[121.458722724414642,13.030814960052325]]}},
{"type":"Feature","properties":{"id":696,"canal_id":695,"canal_type":"Lateral B","remarks":"Lateral","Length":null,"length_1":null,"canal_widt":null,"station_no":null,"canal_leng":null,"station__1":null,"station__2":null,"canal":null,"canaltype":null},"geometry":{"type":"LineString","coordinates":[[121.428090859715596,13.036115595340451],[121.428074874178407,13.03611808112856],[121.42793571772458,13.036260459374761],[121.427773625362093,13.03652305039828],[121.427678904102393,13.036697121718381],[121.427650608745182,13.03679072104724],[121.427586038990597,13.037223992389418],[121.427552372046904,13.037423673620829],[121.427463991220392,13.037575221680308],[121.426346554278993,13.039335886134829],[121.425874283134803,13.040031167966626],[121.425696371401699,13.040347732832261],[121.425655315310195,13.041118830080547],[121.425666408196506,13.042625790833307],[121.425727191920302,13.042815884991358],[121.425891683208604,13.043156739964967],[121.426355072804895,13.044318695539838],[121.426631714099699,13.044955521523928],[121.426728889309317,13.045216078677138],[121.426836718389097,13.045403362826461],[121.426893869526097,13.045524149513128],[121.427002592302898,13.045670283216026],[121.427454223354417,13.046339866843901],[121.427769589287479,13.04683809286429],[121.428415199501302,13.047738787886681],[121.428490120955999,13.04789332356188],[121.428547490839193,13.048020868749559],[121.428595039437198,13.048259491453116],[121.428586628603995,13.048470640878948],[121.42855965102261,13.048678885555772],[121.428556129707488,13.048873897828132],[121.428560868759618,13.049052642971429],[121.428647830255102,13.049446492289539],[121.428705097229397,13.04976089041201],[121.429395938067785,13.052429606020196],[121.429695342874979,13.053733606693918],[121.430065664434395,13.055181919420829],[121.43027755606002,13.05555096335868],[121.431850064544719,13.057463102005766],[121.432904464859121,13.058706303561729],[121.433210170086795,13.058905931537],[121.434917857385798,13.060339529705969],[121.4353131925089,13.06056682897686],[121.435660397619202,13.06061913796754],[121.4379136824993,13.06102124214488],[121.438278132132012,13.061161139157438],[121.438804175754001,13.061533211328268],[121.439485630039414,13.062173412057602],[121.439753993204405,13.062380926914761],[121.4399838246066,13.062455221272598],[121.440698335241805,13.06263117715492],[121.441499508900606,13.06279091479138],[121.441761719028392,13.062893848596021],[121.441913630448497,13.063074521678701],[121.442423913094899,13.063796429584089],[121.442694889080286,13.064139726631769],[121.442859384810404,13.06425586567509],[121.443095417772909,13.0642292700899],[121.443325893072597,13.064151353593727],[121.443716201733011,13.063978286632567],[121.4439844620874,13.06385392687932],[121.444178837649105,13.063797065871348],[121.444194012492702,13.063802295150419],[121.444395739595294,13.06387199639993],[121.444417282722185,13.063878216600861],[121.444423273445807,13.063885612362258],[121.444635800622905,13.063987364628202],[121.444645146661614,13.063988641259712],[121.444822981175207,13.064151484455289],[121.445232665101216,13.064723561711459],[121.445950395618397,13.065628311576198],[121.446426324543381,13.06599326684538],[121.447344577692405,13.066527310096037],[121.448379728654899,13.067204348707502],[121.448711547346107,13.067305007235232],[121.449647917784603,13.067656790867717],[121.450825107137021,13.068079276475098],[121.451775541511296,13.06853968874622],[121.453648946921106,13.069478381599559],[121.454061908140801,13.069687227222961],[121.454350377386703,13.069721650023398],[121.454386497854301,13.069740470518992],[121.454895080442398,13.06981675643032],[121.454988331799115,13.069879540397038],[121.455041172958502,13.069964799929332],[121.455228724940099,13.07049991145543],[121.455322824308993,13.070777013458976],[121.455510898392205,13.071171218428759],[121.456124225555598,13.072205993417279],[121.456667715768688,13.073188762336699],[121.45681292923841,13.073443387864881],[121.456857702152504,13.073666746681006],[121.456828011987483,13.073911911808848],[121.456799822363294,13.074134505477758],[121.456305274198485,13.076509619628958],[121.456230374693703,13.076632584404287],[121.456161521173698,13.076790290650997],[121.456125973868481,13.076924434388618],[121.456210322473595,13.077131149924918],[121.45644549981391,13.077506240997256],[121.45667139217808,13.077748111600979],[121.457554056380502,13.078271598747159],[121.45775490791641,13.078425394198209],[121.457761672954504,13.078438598596218],[121.457974310275603,13.078623939276529],[121.459552440944805,13.080284516575571],[121.459641669469804,13.080440195991763],[121.459655179859311,13.08050115793483],[121.459616504739785,13.080606536549418],[121.459585560476498,13.080682552790158],[121.459563410768993,13.08078927171975],[121.459705150086279,13.08175001939313],[121.459795808948385,13.082361896207169],[121.459897971860116,13.082682585429557],[121.460244926738298,13.083524716942341],[121.460510762273117,13.083974968664078],[121.460637708704809,13.084610146379649],[121.460862774729506,13.085335329534278],[121.460904902152521,13.08546845976438],[121.460881297377412,13.085535580386658],[121.460782527763911,13.085728795774342],[121.460247091229789,13.08657853946084],[121.460102955527404,13.086838218460466],[121.460003006273794,13.087018345898002],[121.459058623545602,13.088928609500659],[121.458585660452798,13.08993748341523],[121.458290005184793,13.090841661032758],[121.458286888137394,13.090869364290118],[121.458459694543905,13.091803854965699],[121.458732254060195,13.093604499997719],[121.458889477769603,13.094475405940109],[121.458888386826402,13.094486871047426],[121.458991503511513,13.095483637894111],[121.459107775670603,13.097300418278261],[121.4593922742297,13.098862027844886],[121.459591296441602,13.099803295080941],[121.459776618960404,13.100652078729368],[121.459921953384793,13.101482237580356],[121.459964818497895,13.101557352394201],[121.460052443926713,13.101626425450117],[121.460289163729996,13.101678353610609],[121.46127443591871,13.101705488461228],[121.461863032410704,13.101723560362018]]}},
{"type":"Feature","properties":{"id":697,"canal_id":700,"canal_type":"Lateral C","remarks":"Lateral","Length":null,"length_1":null,"canal_widt":null,"station_no":null,"canal_leng":null,"station__1":null,"station__2":null,"canal":null,"canaltype":null},"geometry":{"type":"LineString","coordinates":[[121.446225692212906,13.04180069311035],[121.446217908775694,13.041623566901269],[121.446233630012003,13.041348686676137],[121.44627273668668,13.041120358731693],[121.446366088196996,13.040920917397299],[121.44679551175301,13.040654725099948],[121.447209972469281,13.040521932668767],[121.447567383027916,13.040389550392648],[121.448046684397596,13.040229060562737],[121.448521433307803,13.040053967180292],[121.4488677431154,13.039944570090499],[121.448951842759598,13.039918595197884],[121.449306751368184,13.03978877710375],[121.449614345618585,13.039684228423548],[121.450027048387312,13.039538913453327],[121.4505722778961,13.03934961734033],[121.451216541728002,13.039124162203063],[121.45156941802351,13.038997379743677],[121.451639831405103,13.03893501132681],[121.451771921695396,13.038755099338427],[121.451906069006796,13.038571978400869],[121.452027152065199,13.038441840652341],[121.452134220700998,13.038320635207794],[121.452256053125794,13.038216937431628],[121.452349633625914,13.038082630412489],[121.452447918250115,13.037923181241192],[121.452530137270202,13.037777680023655],[121.452590408587611,13.037668096158509],[121.452775911547789,13.037210558508784],[121.452929314290515,13.036846461230299],[121.453295416999396,13.035978365822038],[121.453514735804006,13.035416997286038],[121.453587831954493,13.0352724105524],[121.453882412168809,13.034599633068439],[121.453943371842101,13.034459037216548],[121.454089037479207,13.03411779899373],[121.454283369240102,13.033789508704668],[121.4545520862834,13.03349172066199],[121.454779965349402,13.033191176400669],[121.455505374624096,13.032366811188476],[121.456109520259503,13.031766061160218],[121.456409878233202,13.03154009528542],[121.456898896153007,13.031405725597089],[121.457632542319203,13.031168455591109],[121.458305320941321,13.030951576609528],[121.458955387516312,13.030738808825967],[121.459266468305103,13.0306608397742],[121.459908336933509,13.03043453317119],[121.46012844862291,13.03040020246068],[121.460306080936107,13.030279524840752],[121.460531567140706,13.030110002587998],[121.46065807897611,13.029646365850729],[121.460687768567396,13.029409126867209],[121.460672197223616,13.029283209239969],[121.460652808010209,13.02911684060674],[121.460682392244806,13.02903214206488],[121.460740649757199,13.028857269709871],[121.460810787540098,13.02867887337854],[121.460893696171894,13.02840197000431],[121.460956673450482,13.02822139831081],[121.4610342538178,13.027817402918059],[121.461006715909718,13.027460542217391],[121.460949660280804,13.027075824052631],[121.460935583804684,13.026921114577851],[121.460937485487008,13.026782813151081],[121.460938558300697,13.026607676233951],[121.460926935931695,13.026325919786171],[121.460904387352386,13.026111499014339],[121.460964210867999,13.025574552765136],[121.461021849727103,13.02518842585177],[121.461113948911105,13.02501660563089],[121.461207403940918,13.024841911755113],[121.461304262894103,13.024642847093547],[121.4616231829349,13.024054269819869],[121.461671772713999,13.023957832552341],[121.462095033011394,13.02309817464397],[121.462147229155605,13.02293875221357],[121.462144932532894,13.022754971448657],[121.462095229075118,13.022574391530057],[121.461965996331998,13.022167171541952],[121.46183038964972,13.021813599708606],[121.461753898472693,13.021407445065986],[121.461728044488794,13.021265559660282],[121.461748444616703,13.021054642457599],[121.461810494133204,13.020770550753559],[121.461893283840894,13.02054917313443],[121.462156567476001,13.020319691636297],[121.462470214529503,13.020159634181379],[121.4642313014553,13.019394409373366],[121.464398126907298,13.01927528933312],[121.464594547538368,13.019031303667395],[121.464836182896875,13.018539478787773],[121.465436890715907,13.01712980108695],[121.465799081103995,13.01630357870445],[121.465865446792506,13.016211845141701],[121.466067181106354,13.01607377831062],[121.466421409022146,13.015930578517635],[121.466898366650298,13.015847794624468],[121.467137699793767,13.015852851572127],[121.467449772493694,13.015966777987897],[121.468031836060305,13.016162474145823],[121.468653485109698,13.016334919807839],[121.469043515320507,13.016283483434449],[121.469944884323013,13.016076520055959],[121.471295733744896,13.01573225747091],[121.471786953052202,13.015619002421587],[121.472647877572697,13.015425203052851],[121.473138367201997,13.015265659949559],[121.473885115026505,13.014791391808251],[121.474976141597992,13.014100778296022],[121.475778121537701,13.013569008290981]]}},
{"type":"Feature","properties":{"id":698,"canal_id":702,"canal_type":"Lateral E","remarks":"Lateral","Length":null,"length_1":null,"canal_widt":null,"station_no":null,"canal_leng":null,"station__1":null,"station__2":null,"canal":null,"canaltype":null},"geometry":{"type":"LineString","coordinates":[[121.446218726522901,13.041809941418441],[121.446236455879898,13.041918302656708],[121.446287114985708,13.042195430661918],[121.446434633126714,13.042536486389119],[121.446939423129407,13.043596867939106],[121.447400085322499,13.044623568052341],[121.447465986222198,13.044755704583682],[121.447479759673783,13.044967548921591],[121.447561349966307,13.045905372593724],[121.447601145142997,13.046089748032339],[121.44768866833212,13.04618044742169],[121.447849078789787,13.046296326200222],[121.44803707218712,13.046433347834506],[121.448313019703505,13.046541954209749],[121.448476074172802,13.046592028097159],[121.448703491192305,13.046560191590139],[121.449307701018512,13.046485282687923],[121.449819171229819,13.046352673717559],[121.450074689245497,13.046358137770238],[121.450341851558917,13.046376528591258],[121.45064486343702,13.046488546680738],[121.450875485138511,13.046671373636396],[121.451349715939898,13.04687983640553],[121.451633950621201,13.046978284842121],[121.451811565231196,13.04700965325584],[121.451953388039314,13.047014144184409],[121.45220600288819,13.047016656720938],[121.452411362067295,13.047050646602246],[121.452538019948605,13.047081689585138],[121.452654489027395,13.04716726501025],[121.452809387831721,13.047299049155022],[121.452991676661711,13.047717955494829],[121.453218319450798,13.048261785208107],[121.453645384941609,13.04924073457121],[121.453756443113321,13.049459570230271],[121.454113249059702,13.050310708752138],[121.4545860423557,13.051571179551738],[121.454601912371018,13.052100856221218],[121.454661860524709,13.05274348677886],[121.454937227869905,13.05358093010735],[121.455562052727302,13.055716656129691],[121.456371741997714,13.05857013599522],[121.456442716436101,13.05866277805386],[121.456510357086216,13.058694657960201],[121.456716274987386,13.058717727077539],[121.457031399818206,13.058758680980999],[121.457190092005803,13.05874390086627],[121.457594502539706,13.058829415579238],[121.45790728720381,13.058876894694578],[121.458104130608703,13.058905877354],[121.458356052266197,13.059051483758807],[121.458454312008115,13.05915592250174],[121.458459638560697,13.05915886031943],[121.458727238336706,13.059720724815749],[121.459022465935007,13.06030749209742],[121.459078618657188,13.060377258390258],[121.459158233487102,13.06045985893766],[121.459334272975497,13.060521981315659],[121.460097311601899,13.060984436371106],[121.460403543904107,13.06117515530638],[121.460583107511496,13.06123656710948],[121.460914556692586,13.061422232707642],[121.461308341781219,13.06162036807785],[121.461713220036103,13.06174543807583],[121.461778366922715,13.06175024935404],[121.462105234607719,13.061696826041349],[121.462247285838586,13.061678088290408],[121.462388525525398,13.061668395180851],[121.462394161316311,13.061668485715797],[121.462588616299797,13.061686549549369],[121.462930441837912,13.06171382356519],[121.464024000588992,13.06177324563477],[121.464584949809719,13.061763105975899],[121.465413906991614,13.061767203014488],[121.465551134888486,13.061782945442641],[121.465963916685624,13.061794416047166],[121.466437443664688,13.061878264110517],[121.466683398820862,13.061946703995035],[121.46787093651848,13.062274667212469],[121.469167384062075,13.062605920148316],[121.470596834749927,13.062964728501791],[121.470650663359365,13.062983602960259],[121.470738884906609,13.062988438037406],[121.470856302711297,13.063043174229302],[121.4710133171465,13.063076895810418],[121.471185936568659,13.06312967490164],[121.471639411774063,13.063225977748802],[121.471746031395142,13.063248110567383],[121.47200402948927,13.063320945908584],[121.472020330569094,13.063321506086574],[121.472051936034418,13.06331307644083],[121.47207593132805,13.063311000599921],[121.472089826307254,13.063313521156649],[121.472118923978769,13.063335608905412],[121.472162109415535,13.063353836279257],[121.472718789627777,13.063483743567538],[121.472794572656866,13.063519209870432],[121.472879982624448,13.063551476853528],[121.472943712740914,13.063565930432953],[121.473033838529886,13.063568939342849],[121.4730662818627,13.063568609607422],[121.473088958987262,13.063570269115932],[121.473333088391584,13.063704374119375],[121.473348300116797,13.063727925794],[121.473455399781628,13.063922118443021]]}},
{"type":"Feature","properties":{"id":732,"canal_id":null,"canal_type":"MC2 MFD","remarks":"Main Canal","Length":null,"length_1":null,"canal_widt":null,"station_no":null,"canal_leng":null,"station__1":null,"station__2":null,"canal":null,"canaltype":null},"geometry":{"type":"LineString","coordinates":[[121.405302283432277,13.047788439616102],[121.405076093942469,13.047903005836218],[121.404838109616577,13.048110113376701],[121.404654958830051,13.048390339912563],[121.404432734566782,13.049014204316864],[121.404227147535252,13.049374400220859],[121.404123821211229,13.049482202072944],[121.404029901322616,13.049521676884197],[121.403292134351659,13.049737911209077],[121.403052066613455,13.049881015068415],[121.40260809556186,13.050005275239698],[121.40251734461792,13.05005551522337],[121.402434275401589,13.050073319745952],[121.402338111580562,13.050113024264276],[121.401992746969398,13.050282586582332],[121.401555523407652,13.050597143116695],[121.40148943259517,13.05099029491199],[121.401494985576633,13.051018496500562],[121.401787694270652,13.05148983678272],[121.401706289184915,13.051537520087365],[121.401509170475236,13.051683848842226],[121.400451861112188,13.052584642592294]]}},
{"type":"Feature","properties":{"id":733,"canal_id":null,"canal_type":"LAT-B MFD","remarks":"Lateral","Length":null,"length_1":null,"canal_widt":null,"station_no":null,"canal_leng":null,"station__1":null,"station__2":null,"canal":null,"canaltype":null},"geometry":{"type":"LineString","coordinates":[[121.426793720277004,13.045344493228511],[121.425542101270906,13.045190307062567],[121.42539637079058,13.04523880078759]]}},
{"type":"Feature","properties":{"id":734,"canal_id":null,"canal_type":"Drainage","remarks":"Drainage","Length":null,"length_1":null,"canal_widt":null,"station_no":null,"canal_leng":null,"station__1":null,"station__2":null,"canal":null,"canaltype":null},"geometry":{"type":"LineString","coordinates":[[121.385079239367798,13.041571887644182],[121.384482825370696,13.041862529352731],[121.383513715507306,13.042505888736009],[121.382501827495219,13.042864422236386],[121.382390681244402,13.042864312927902]]}},
{"type":"Feature","properties":{"id":699,"canal_id":703,"canal_type":"Lateral E1","remarks":"Sub Lateral","Length":null,"length_1":null,"canal_widt":null,"station_no":null,"canal_leng":null,"station__1":null,"station__2":null,"canal":null,"canaltype":null},"geometry":{"type":"LineString","coordinates":[[121.453765501904201,13.049433403842878],[121.4538290581594,13.0493979184424],[121.454218371700193,13.049538152983759],[121.454954689424099,13.049724937511899],[121.455093408574697,13.049754287322406],[121.455185529380302,13.049762750222529],[121.455278369260398,13.049696353710758],[121.455419555763413,13.049572638869446],[121.455549768308998,13.04949084056614],[121.456266800111507,13.049223197363657],[121.456828393079903,13.049019713666956],[121.457036128454604,13.048930666163592],[121.457287251020205,13.048928231028921],[121.457920101968398,13.048914795538639],[121.458507331310898,13.048896898155629],[121.458943619206593,13.048842978426201],[121.459130583701594,13.048858207023331],[121.459322451865319,13.04884703274131],[121.459434393674201,13.04881696442672],[121.459556523832603,13.048712307281022],[121.4602218049599,13.048115970379547],[121.460703085489598,13.047661707845418],[121.460964706603406,13.047529342054411],[121.461196667485396,13.04752292145993],[121.461412624503609,13.047578177562301],[121.461709294779709,13.047746669874352],[121.462455312672986,13.048212760762578],[121.462992505650007,13.048570340402271],[121.464057471338492,13.049240721803201],[121.464531453501095,13.049538958800889],[121.464826370203582,13.049766920419501],[121.465191338074817,13.04981457406258],[121.465588034856907,13.049813267406558],[121.4659953709875,13.049774426829192],[121.46624543729051,13.049630559800649],[121.466653257995802,13.049324952441141],[121.467384797333082,13.048812724547268],[121.467394504835809,13.048812928876938],[121.467814603596281,13.048485388886307],[121.467999872477094,13.048413459940351],[121.468481476053114,13.048464123560001],[121.469168518233488,13.048671205552198],[121.470125731695319,13.048852200006372],[121.473203433249097,13.04951528588145],[121.473543467275505,13.049582238081742],[121.473849182352808,13.049573042436712],[121.474217057115396,13.049453524671566],[121.475599637251307,13.048883794392802],[121.475713342283498,13.048849839787826],[121.476034012198596,13.048847970484658],[121.476282568411406,13.048955116148871],[121.476666974316416,13.049155507776439],[121.477997105651198,13.049744907797789],[121.478090405344403,13.049760117903292],[121.478627910419107,13.049785259757058],[121.479436318764513,13.049806386991301],[121.47958849376009,13.049837050237009],[121.480092629123106,13.050011239875438],[121.4808140656706,13.050275087181898],[121.481933290873116,13.050673826039148],[121.482611498736787,13.050892445391868],[121.482764937252512,13.050937589904462],[121.483440919846814,13.05109022421909],[121.48428805186542,13.051302505970771],[121.486010821620297,13.051697438128109]]}},
{"type":"Feature","properties":{"id":700,"canal_id":697,"canal_type":"Lateral B1","remarks":"Sub Lateral","Length":null,"length_1":null,"canal_widt":null,"station_no":null,"canal_leng":null,"station__1":null,"station__2":null,"canal":null,"canaltype":null},"geometry":{"type":"LineString","coordinates":[[121.456668434364218,13.073193601023039],[121.456799357343101,13.073097496692398],[121.456986631400397,13.073022372785912],[121.457139813694809,13.072986845335928],[121.457292752273403,13.072987572408538],[121.457299155377413,13.072988422382007],[121.457420796010396,13.07300634365331],[121.457425609963394,13.073006982721177],[121.457717421463599,13.073077761708101],[121.459449559303707,13.073537826630858],[121.460327052702297,13.07373887939141],[121.460635864377707,13.073829734071941],[121.460912968133101,13.073893657297289],[121.461207034364605,13.073986845671911],[121.461445597720996,13.073978477358381],[121.462176026123601,13.074022797256138],[121.462603790551,13.074038711195739],[121.463078030042993,13.073948306783249],[121.463807271012513,13.073787213920482],[121.465702150470094,13.073481429339406],[121.468087509961506,13.07318001910026],[121.469873593799619,13.073075553587998],[121.470301022793507,13.073055145210651],[121.473214832949807,13.072859143388881],[121.476310559355994,13.072677420217081],[121.476492290309096,13.072675863459501]]}},
{"type":"Feature","properties":{"id":705,"canal_id":null,"canal_type":"MC1 MFD","remarks":"Main Canal","Length":null,"length_1":null,"canal_widt":null,"station_no":null,"canal_leng":null,"station__1":null,"station__2":null,"canal":null,"canaltype":null},"geometry":{"type":"LineString","coordinates":[[121.433416318213958,13.039937411764026],[121.433192102686348,13.042760612155094],[121.433156085717954,13.042972515121413],[121.432842865874832,13.044716568567093],[121.432810966713177,13.044930115567858],[121.432858590268594,13.044973313855095],[121.432897395371555,13.045105517136028],[121.432906651746507,13.045209204757741]]}},
{"type":"Feature","properties":{"id":708,"canal_id":null,"canal_type":"LAT-C MFD","remarks":"Lateral","Length":null,"length_1":null,"canal_widt":null,"station_no":null,"canal_leng":null,"station__1":null,"station__2":null,"canal":null,"canaltype":null},"geometry":{"type":"LineString","coordinates":[[121.461879203655982,13.020586823233421],[121.461553926723042,13.020295653634511],[121.461409931345131,13.020218040498646],[121.4600838890576,13.018929608747836],[121.460092370693431,13.018895960158533],[121.460045560088957,13.018746533115184],[121.459963148833452,13.018693623133457]]}},
{"type":"Feature","properties":{"id":710,"canal_id":null,"canal_type":"LAT-C FMD","remarks":"Lateral","Length":null,"length_1":null,"canal_widt":null,"station_no":null,"canal_leng":null,"station__1":null,"station__2":null,"canal":null,"canaltype":null},"geometry":{"type":"LineString","coordinates":[[121.455278004758298,13.032625198352916],[121.45521928726518,13.032584952096695],[121.455460329610304,13.031864087037185],[121.455732305089967,13.031158305200718],[121.455739855113833,13.031140369672363],[121.455964953481313,13.030443395778544]]}},
{"type":"Feature","properties":{"id":712,"canal_id":null,"canal_type":"LAT-D MFD","remarks":"Lateral","Length":null,"length_1":null,"canal_widt":null,"station_no":null,"canal_leng":null,"station__1":null,"station__2":null,"canal":null,"canaltype":null},"geometry":{"type":"LineString","coordinates":[[121.467976143335321,13.038860281234131],[121.468054068178901,13.039090840718254],[121.469019126838219,13.038536033928628],[121.469313559469825,13.03849337904659],[121.469362603853057,13.03849077750985],[121.46945351862189,13.038473243462859],[121.469591487340153,13.038457071744267],[121.469645221656563,13.038451124542387],[121.469730423486766,13.038443435661824],[121.470052161703023,13.038396423416424],[121.470265100355874,13.038377923284422],[121.470477842099669,13.038331471381413],[121.470563781506499,13.038323726337575],[121.470668465457223,13.038335066930305],[121.470835917829277,13.038300033435407],[121.470879591233356,13.038271618024623],[121.471349609773469,13.03812997223778],[121.471513206633702,13.038057417352748],[121.471774318640101,13.037597655498539],[121.471970566377706,13.037265395930367]]}},
{"type":"Feature","properties":{"id":713,"canal_id":null,"canal_type":"LAT-E1 MFD","remarks":"Sub Lateral","Length":null,"length_1":null,"canal_widt":null,"station_no":null,"canal_leng":null,"station__1":null,"station__2":null,"canal":null,"canaltype":null},"geometry":{"type":"LineString","coordinates":[[121.464840058564633,13.049768707710337],[121.464938997639962,13.050286688956254],[121.465028766191594,13.050555159257655],[121.465766782633878,13.052590755638491],[121.465787797114615,13.052690152179137],[121.465811311448263,13.053340378099417],[121.465831939445707,13.053502419671057],[121.466073239604711,13.055023771120505],[121.466150932492553,13.055178440647664],[121.466226207464317,13.055406345002581]]}},
{"type":"Feature","properties":{"id":714,"canal_id":null,"canal_type":"MACANLIG SUPPLY CANAL TO LATERAL E","remarks":"Main Canal","Length":null,"length_1":null,"canal_widt":null,"station_no":null,"canal_leng":null,"station__1":null,"station__2":null,"canal":null,"canaltype":null},"geometry":{"type":"LineString","coordinates":[[121.463774509050864,13.061807234619765],[121.463203320991781,13.064191060141978],[121.463191638541943,13.064212194356182],[121.46227653522638,13.065174892036969],[121.462199970898581,13.065274672004479],[121.462053535288575,13.065554327528996],[121.461755569264852,13.065606587554312],[121.461743799247003,13.065721209999053],[121.461751322762311,13.065875583644647],[121.461621050278026,13.066194308777774],[121.461824925912254,13.066809705316578],[121.461846515500611,13.066935128125643],[121.461648979983323,13.067042139198461],[121.461466582372353,13.067284413486334],[121.461467438608082,13.067304899381394],[121.461598308772608,13.067663610528189],[121.461384084455403,13.067766546288011],[121.460855503148537,13.067988205484758],[121.460784512971131,13.068021154302937],[121.46075583142904,13.068038753565022],[121.460732669972231,13.068067891088672],[121.460581145506239,13.068345165795773],[121.460534817586819,13.068384405682314],[121.460271620548227,13.068556562842677],[121.459817886973539,13.068806555597432],[121.459808433731254,13.068814932515821],[121.459803712802184,13.068823156927385],[121.459803907771814,13.068831350401858],[121.459807788638514,13.068839686320807],[121.45986859742581,13.068992028201293],[121.45991261557576,13.069166738622592],[121.459911693346271,13.069176732566337],[121.459416342623356,13.069875065636982],[121.458268911839554,13.070395962890291]]}},
{"type":"Feature","properties":{"id":715,"canal_id":null,"canal_type":"LAT-B MFD","remarks":"Lateral","Length":null,"length_1":null,"canal_widt":null,"station_no":null,"canal_leng":null,"station__1":null,"station__2":null,"canal":null,"canaltype":null},"geometry":{"type":"LineString","coordinates":[[121.444354949907122,13.063857902660873],[121.444255863780342,13.063340836684626],[121.444416813967081,13.063307108629518],[121.444649335601667,13.063304652560516],[121.445032641907076,13.063243347987152],[121.44504976888777,13.063177190048128],[121.445099250665606,13.063085806603638],[121.445191225526912,13.062998654379168],[121.445514240815157,13.062752901365867],[121.445622788995863,13.062688015922179],[121.445767451623809,13.062664790784497],[121.446447418847825,13.062562860303533]]}},
{"type":"Feature","properties":{"id":716,"canal_id":null,"canal_type":"LAT-B MFD","remarks":"Lateral","Length":null,"length_1":null,"canal_widt":null,"station_no":null,"canal_leng":null,"station__1":null,"station__2":null,"canal":null,"canaltype":null},"geometry":{"type":"LineString","coordinates":[[121.446203128924623,13.065822114590878],[121.446166591904927,13.065887474098139],[121.446200708077356,13.06613079675707],[121.446101820475363,13.066222726654626],[121.446274483791498,13.066831438118264],[121.446457381154104,13.066904340424388],[121.446510026833849,13.069155963992717]]}},
{"type":"Feature","properties":{"id":717,"canal_id":null,"canal_type":"LAT-B1 FMD","remarks":"Lateral","Length":null,"length_1":null,"canal_widt":null,"station_no":null,"canal_leng":null,"station__1":null,"station__2":null,"canal":null,"canaltype":null},"geometry":{"type":"LineString","coordinates":[[121.476492290309096,13.072675863459501],[121.476601773328355,13.072671465436001],[121.476979459564419,13.072526591130828],[121.477615185152843,13.072207944290797],[121.478178942855536,13.071901160351301]]}},
{"type":"Feature","properties":{"id":718,"canal_id":null,"canal_type":"LAT-B1 MFD","remarks":"Lateral","Length":null,"length_1":null,"canal_widt":null,"station_no":null,"canal_leng":null,"station__1":null,"station__2":null,"canal":null,"canaltype":null},"geometry":{"type":"LineString","coordinates":[[121.477615185152843,13.072207944290797],[121.4768124738235,13.070658830657859],[121.477454798744901,13.070285285512542],[121.477656007814446,13.070119852672102],[121.477584556012673,13.070047868894871],[121.477761647320008,13.06983223602451],[121.477707466164219,13.069784660079877],[121.477882463755435,13.069519589439397]]}},
{"type":"Feature","properties":{"id":719,"canal_id":null,"canal_type":"LAT-E MFD","remarks":"Lateral","Length":null,"length_1":null,"canal_widt":null,"station_no":null,"canal_leng":null,"station__1":null,"station__2":null,"canal":null,"canaltype":null},"geometry":{"type":"LineString","coordinates":[[121.475442367995313,13.062733697380205],[121.477175816278091,13.064133849623451],[121.477496919302581,13.063871683629738],[121.477723910349923,13.06415406507764],[121.478109853601921,13.063922854835836]]}},
{"type":"Feature","properties":{"id":720,"canal_id":null,"canal_type":"LATERAL E SUPPLY CANAL","remarks":"Main Canal","Length":null,"length_1":null,"canal_widt":null,"station_no":null,"canal_leng":null,"station__1":null,"station__2":null,"canal":null,"canaltype":null},"geometry":{"type":"LineString","coordinates":[[121.462273422531908,13.048099121285601],[121.462459927395955,13.047749483947698],[121.46276168311951,13.047239496556637]]}},
{"type":"Feature","properties":{"id":721,"canal_id":null,"canal_type":"MC1 MFD","remarks":"Main Canal","Length":null,"length_1":null,"canal_widt":null,"station_no":null,"canal_leng":null,"station__1":null,"station__2":null,"canal":null,"canaltype":null},"geometry":{"type":"LineString","coordinates":[[121.414788290011813,13.009538834717169],[121.414856561479397,13.009699722279622],[121.415204596690458,13.009917254451825],[121.415461723035435,13.010056164349111],[121.415982814952855,13.010156748590283],[121.416268166550793,13.010233213994935],[121.416488722795492,13.010210706301335],[121.416632425302069,13.010188813729032],[121.416603889704689,13.010474523090188],[121.417782402292502,13.010654742009603],[121.417711521146003,13.011428020705223],[121.417805505287262,13.011428864901541],[121.41804707207001,13.011449944923923],[121.418265078460223,13.011451906517109],[121.418974985816121,13.011421265849048],[121.419039110510454,13.011422740845275],[121.419031798094892,13.011587865543794],[121.419088537642736,13.011591464056419]]}},
{"type":"Feature","properties":{"id":722,"canal_id":null,"canal_type":"MC1 MFD","remarks":"Main Canal","Length":null,"length_1":null,"canal_widt":null,"station_no":null,"canal_leng":null,"station__1":null,"station__2":null,"canal":null,"canaltype":null},"geometry":{"type":"LineString","coordinates":[[121.414390495473612,13.009046047763379],[121.414414719173976,13.008815700149778],[121.414486106187297,13.008123655493428],[121.414505231378385,13.007840057583747],[121.414696689265057,13.007698104797127]]}},
{"type":"Feature","properties":{"id":723,"canal_id":null,"canal_type":"MC1 FMD (EARTH CANAL)","remarks":"Main Canal","Length":null,"length_1":null,"canal_widt":null,"station_no":null,"canal_leng":null,"station__1":null,"station__2":null,"canal":null,"canaltype":null},"geometry":{"type":"LineString","coordinates":[[121.41137434151851,13.011311140039863],[121.411652046279428,13.010909676713355],[121.411695130589521,13.010858076744887],[121.411723311820225,13.010860508121279],[121.411779252684198,13.010859224151931],[121.411843604166762,13.010825012113802],[121.411844535680444,13.010649729321909],[121.411866654229499,13.010620228294872],[121.411862707761998,13.010357181038595],[121.411877392483703,13.010033438959564],[121.412066828427399,13.010021451643974],[121.412204267366604,13.009981090825004],[121.412414135338025,13.009951202464405],[121.412447929864129,13.009918610384622],[121.412482943914654,13.009868135485229],[121.412503129465705,13.00982380435293],[121.412511437293588,13.009778045230421],[121.412501757940348,13.009691787415727],[121.412516139318001,13.009641863943903],[121.412554661056177,13.009604895959757],[121.412597461275809,13.009525464734875],[121.412833935007626,13.009506581331296],[121.413011424128854,13.009397770262206],[121.41313613013655,13.009194536368073],[121.413290091839926,13.009153191678937],[121.414225930681383,13.009093856489416]]}},
{"type":"Feature","properties":{"id":724,"canal_id":null,"canal_type":"MC2 MFD","remarks":"Main Canal","Length":null,"length_1":null,"canal_widt":null,"station_no":null,"canal_leng":null,"station__1":null,"station__2":null,"canal":null,"canaltype":null},"geometry":{"type":"LineString","coordinates":[[121.401913058483899,13.034963624574598],[121.401957819391683,13.034996389538669],[121.402055136364339,13.034888429162688],[121.402081746288545,13.034877615265373],[121.402391908108484,13.034947023157144],[121.402428285129915,13.034965137683775],[121.402519738841193,13.035060031680789],[121.402517461985141,13.035091732021636],[121.402649690024646,13.035198058802079],[121.402812462385555,13.035391381841835],[121.402896532992145,13.035473625772845],[121.402859283515781,13.03572080896271],[121.402689902008007,13.035749649157747]]}},
{"type":"Feature","properties":{"id":725,"canal_id":null,"canal_type":"MC2 MFD","remarks":"Main Canal","Length":null,"length_1":null,"canal_widt":null,"station_no":null,"canal_leng":null,"station__1":null,"station__2":null,"canal":null,"canaltype":null},"geometry":{"type":"LineString","coordinates":[[121.400438531740704,13.037016613808328],[121.400274918224909,13.036942939482623],[121.399558916972865,13.036462800810581],[121.399529383339456,13.036412302292181],[121.399318696149024,13.035705966185303],[121.399463219153162,13.035479979790145],[121.399478296594125,13.035456897094381],[121.399428978017696,13.035387674639798],[121.399378286055494,13.035338570098702],[121.399205626813455,13.035199972640626],[121.39913218882414,13.035108949946345],[121.398842159386248,13.034891560810554],[121.398673086385159,13.034799946831324],[121.398582298493835,13.034722691773418],[121.398384057028423,13.034596438460989],[121.398298650169878,13.034528822372815],[121.398063262775935,13.034471866709525],[121.397897611996356,13.034404364132707],[121.397823311393395,13.034350844086067],[121.397651426862254,13.034188769750685],[121.39755617406793,13.034104625499786],[121.397085342188049,13.033806525436132],[121.396835793253373,13.033920402944755],[121.39664366416136,13.033799103528626],[121.39654339448559,13.03388436308942],[121.396267231032311,13.033690766768302],[121.396072048561081,13.03393496295539],[121.396061434733411,13.033989329945738],[121.395734774506238,13.0343471804592],[121.394876878768329,13.033651279867273],[121.394123182623787,13.034540402150173],[121.393846257079758,13.034275327209606],[121.393746777595268,13.034346410522305],[121.39363659543028,13.034377060350124],[121.393519399941397,13.03437393211501],[121.393409248610553,13.034363643196162],[121.393209832056485,13.034377844124945],[121.393162404422739,13.034389442772904],[121.392991043252408,13.034267278560177],[121.392900004233411,13.034277463059372],[121.392624933313897,13.034484224138485],[121.392432649009592,13.034604074851996],[121.392365962793178,13.034780452633216],[121.392257615646329,13.034879096811576],[121.392075962912642,13.034968995210045]]}},
{"type":"Feature","properties":{"id":726,"canal_id":null,"canal_type":"MC2 MFD","remarks":"Main Canal","Length":null,"length_1":null,"canal_widt":null,"station_no":null,"canal_leng":null,"station__1":null,"station__2":null,"canal":null,"canaltype":null},"geometry":{"type":"LineString","coordinates":[[121.399526898414166,13.041171087025432],[121.39877328896776,13.041156353153461],[121.398231094730434,13.041131043335575],[121.3976769832895,13.041136105514411],[121.397081621124286,13.041108062814967],[121.396058588867504,13.041113348467642],[121.39649418062389,13.043224341189013],[121.39556064388897,13.044224546284473],[121.395543689496492,13.044283062079614],[121.395567537232637,13.044342559787372],[121.395578682018638,13.044432082532909],[121.395584073170696,13.044525300425335],[121.3955965339036,13.044607455473553],[121.395592735005607,13.044667510827397],[121.39557746577421,13.044715659411279],[121.39556709963388,13.044776703245784],[121.395547496386683,13.044845794684443],[121.39545723466243,13.045046827528747],[121.395294275313546,13.04522798369044],[121.395253724704972,13.045259186863603]]}},
{"type":"Feature","properties":{"id":728,"canal_id":null,"canal_type":"CALUCMOY CHECKGATE SUPPLY CANAL","remarks":"Main Canal","Length":null,"length_1":null,"canal_widt":null,"station_no":null,"canal_leng":null,"station__1":null,"station__2":null,"canal":null,"canaltype":null},"geometry":{"type":"LineString","coordinates":[[121.3906748573052,13.044352540068282],[121.390134638958074,13.044088796699777]]}},
{"type":"Feature","properties":{"id":729,"canal_id":null,"canal_type":"LAT-C MFD","remarks":"Lateral","Length":null,"length_1":null,"canal_widt":null,"station_no":null,"canal_leng":null,"station__1":null,"station__2":null,"canal":null,"canaltype":null},"geometry":{"type":"LineString","coordinates":[[121.4480129137185,13.046415739609731],[121.447974965070173,13.046463041050762],[121.448088655457312,13.046538694461656],[121.448260831955537,13.046625794689144],[121.448339771207444,13.046655793492478],[121.448001762704578,13.046986942088056]]}},
{"type":"Feature","properties":{"id":735,"canal_id":null,"canal_type":"Drainage","remarks":"Drainage","Length":null,"length_1":null,"canal_widt":null,"station_no":null,"canal_leng":null,"station__1":null,"station__2":null,"canal":null,"canaltype":null},"geometry":{"type":"LineString","coordinates":[[121.415696591941483,13.053391201242608],[121.416044282822895,13.054392439702282],[121.416177133944103,13.054803039010549],[121.416241931659712,13.05498661951385],[121.416348459020284,13.055123254647951],[121.416453554472795,13.055206002729408],[121.416643337502506,13.055324332039529],[121.417329784809397,13.0557703430287],[121.417443176712197,13.055760661931281],[121.417763087978997,13.05574466457287],[121.417871072960509,13.055766721730333],[121.417880663901599,13.05576787273192],[121.417986136833704,13.055794601434719],[121.423309424798603,13.057300452330487],[121.423426083232684,13.057783848053569],[121.423556951042514,13.058092128826601],[121.423762314382003,13.05908592101304],[121.423780583120219,13.0593350806088],[121.423772278017921,13.05961067643417],[121.423748982174715,13.059802296814478],[121.423725663316205,13.059956993016799],[121.42382885632972,13.060611430966858],[121.423929694230907,13.06080324987186],[121.423964402277505,13.060890150235171],[121.423986098416606,13.061010538251667],[121.424093893722102,13.062386068926807],[121.424111264433407,13.06251868163535],[121.424152388269306,13.062617320541479],[121.424179273804597,13.062655825094486],[121.424558054946303,13.063478844812469],[121.425191503934101,13.06498335054601],[121.4252212365095,13.065074540534084],[121.425251909582684,13.065222445544629],[121.425297845326611,13.06545928144072]]}},
{"type":"Feature","properties":{"id":736,"canal_id":null,"canal_type":"Drainage","remarks":"Drainage","Length":null,"length_1":null,"canal_widt":null,"station_no":null,"canal_leng":null,"station__1":null,"station__2":null,"canal":null,"canaltype":null},"geometry":{"type":"LineString","coordinates":[[121.416078375114481,13.044078412618566],[121.415964503534909,13.045115719449768],[121.415927504173013,13.04534321243109],[121.415930324241415,13.045351227369299],[121.41596641759412,13.045385980797507],[121.416951520664114,13.045288815394711],[121.417813661749193,13.045113871742039],[121.417858901425205,13.045350187327289],[121.421446769614889,13.04553178217081],[121.421431527418321,13.04468225174981],[121.421446501107198,13.044641612169142],[121.421532945752489,13.044570196684973],[121.421740286612106,13.044740103294997],[121.422547854010986,13.04448880914776],[121.424363546811506,13.044099877416329],[121.42560375414071,13.043812780068869],[121.425617622523916,13.04398470784805],[121.42762187706262,13.044097864890679]]}},
{"type":"Feature","properties":{"id":737,"canal_id":null,"canal_type":"Drainage","remarks":"Drainage","Length":null,"length_1":null,"canal_widt":null,"station_no":null,"canal_leng":null,"station__1":null,"station__2":null,"canal":null,"canaltype":null},"geometry":{"type":"LineString","coordinates":[[121.463335833472613,13.104096508381778],[121.463452868548913,13.104316406712259]]}},
{"type":"Feature","properties":{"id":738,"canal_id":null,"canal_type":"Drainage","remarks":"Drainage","Length":null,"length_1":null,"canal_widt":null,"station_no":null,"canal_leng":null,"station__1":null,"station__2":null,"canal":null,"canaltype":null},"geometry":{"type":"LineString","coordinates":[[121.431145024959321,13.024684072936401],[121.4314406443401,13.025776701944677]]}},
{"type":"Feature","properties":{"id":739,"canal_id":null,"canal_type":"Drainage","remarks":"Drainage","Length":null,"length_1":null,"canal_widt":null,"station_no":null,"canal_leng":null,"station__1":null,"station__2":null,"canal":null,"canaltype":null},"geometry":{"type":"LineString","coordinates":[[121.475842433883201,13.013587444453337],[121.476272518080904,13.013279089758727]]}},
{"type":"Feature","properties":{"id":740,"canal_id":null,"canal_type":"Drainage","remarks":"Drainage","Length":null,"length_1":null,"canal_widt":null,"station_no":null,"canal_leng":null,"station__1":null,"station__2":null,"canal":null,"canaltype":null},"geometry":{"type":"LineString","coordinates":[[121.476540806447005,13.025857496777137],[121.477817342788498,13.02618309115082]]}},
{"type":"Feature","properties":{"id":741,"canal_id":null,"canal_type":"Drainage","remarks":"Drainage","Length":null,"length_1":null,"canal_widt":null,"station_no":null,"canal_leng":null,"station__1":null,"station__2":null,"canal":null,"canaltype":null},"geometry":{"type":"LineString","coordinates":[[121.484561610206612,13.051330711324578],[121.486187901223204,13.05173384936484]]}},
{"type":"Feature","properties":{"id":742,"canal_id":null,"canal_type":"Drainage","remarks":"Drainage","Length":null,"length_1":null,"canal_widt":null,"station_no":null,"canal_leng":null,"station__1":null,"station__2":null,"canal":null,"canaltype":null},"geometry":{"type":"LineString","coordinates":[[121.491039158215713,13.046420018032679],[121.492028606395294,13.046698055684191],[121.492377692192221,13.046821669878318],[121.492638283369814,13.046980624474088],[121.494183715083608,13.047809553154583]]}},
{"type":"Feature","properties":{"id":743,"canal_id":null,"canal_type":"Drainage","remarks":"Drainage","Length":null,"length_1":null,"canal_widt":null,"station_no":null,"canal_leng":null,"station__1":null,"station__2":null,"canal":null,"canaltype":null},"geometry":{"type":"LineString","coordinates":[[121.475453710864414,13.062723515354939],[121.476457210648093,13.061492751655368],[121.476538741995014,13.061413248288879],[121.4774323181163,13.0611976355935],[121.478278094974101,13.061171612311549],[121.479086338808685,13.061086763507019],[121.479122084647202,13.061045023282199],[121.478948160942721,13.060686798016492]]}}
]
}
