{
"type": "FeatureCollection",
"name": "Malatgao RIS",
"crs": { "type": "name", "properties": { "name": "urn:ogc:def:crs:OGC:1.3:CRS84" } },
"features": [
{"type":"Feature","properties":{"id":686,"canal_id":1,"canal_type":"SUB-LATERAL","remarks":"LATERAL A-NORTH-2","Length":"2,529","canal_widt":null,"station_no":null,"canal_leng":null,"station__1":null,"station__2":null,"canal":null,"canaltype":null},"geometry":{"type":"LineString","coordinates":[[118.49245,9.365459],[118.49248,9.365471],[118.492484,9.365475],[118.492588,9.365482],[118.492778,9.36541],[118.49503,9.364774],[118.496324,9.364588],[118.497494,9.364243],[118.498476,9.363933],[118.50123,9.363177],[118.503995,9.362514],[118.505212,9.362112],[118.505261,9.362087],[118.505601901271959,9.361944940140349],[118.505650554481804,9.361910917717681],[118.505765520506969,9.361825776949543],[118.505973,9.361668],[118.506304,9.361243],[118.506649,9.36067],[118.5068643964225,9.360376684594774],[118.507222717615903,9.36011429833326],[118.50773,9.359766],[118.508463058766864,9.359230407127306],[118.508493026330513,9.359213467138371],[118.508575,9.359197],[118.50873064048919,9.359163502345657],[118.508898878771618,9.359163599057585],[118.509132420224844,9.359191013869617],[118.509301,9.359232],[118.510241808057799,9.35955556593882],[118.510468855619379,9.35960938746401],[118.510695,9.359614],[118.512313,9.35964],[118.513786,9.359627]]}},
{"type":"Feature","properties":{"id":689,"canal_id":3,"canal_type":"SUPPLY CANAL","remarks":"AGKAKARUBA BRASS DAM","Length":"346","canal_widt":null,"station_no":null,"canal_leng":null,"station__1":null,"station__2":null,"canal":null,"canaltype":null},"geometry":{"type":"LineString","coordinates":[[118.473941,9.372613],[118.474303,9.372294],[118.474589,9.372007],[118.47554,9.37124],[118.476198,9.370456]]}},
{"type":"Feature","properties":{"id":697,"canal_id":2,"canal_type":"LATERAL","remarks":"LATERAL A-SOUTH","Length":"3,208.81","canal_widt":null,"station_no":null,"canal_leng":null,"station__1":null,"station__2":null,"canal":null,"canaltype":null},"geometry":{"type":"LineString","coordinates":[[118.42375,9.351242],[118.423639,9.351102],[118.423394404007723,9.350786564868541],[118.42314,9.350021],[118.423096,9.34994],[118.422835,9.349176],[118.422745,9.348904],[118.422227,9.347325],[118.422047,9.346826],[118.421761,9.345969],[118.421582,9.345403],[118.421284,9.34455],[118.421124866430048,9.344024975586237],[118.421042865702745,9.343902556913104],[118.420992234368882,9.343840158633617],[118.420994377685091,9.34384018631542],[118.420115,9.343041],[118.419937,9.342911],[118.419067,9.342111],[118.418958734993382,9.342015855987633],[118.418879267334404,9.341945633289722],[118.418799,9.341872],[118.418749,9.341779],[118.418678,9.341748],[118.418653,9.341718],[118.418538948619883,9.341639701559767],[118.418431006678645,9.341533980678873],[118.418329661963497,9.341415570380166],[118.418274,9.341326],[118.418139473512539,9.341042648409999],[118.417919645201849,9.340477723942566],[118.417513470146517,9.339573993362773],[118.417446399379131,9.339375652268135],[118.417436,9.339306],[118.417316094940361,9.337785656101143],[118.417174306863686,9.336172091908322],[118.4171582226829,9.335927037075724],[118.41715881069473,9.335718392367323],[118.417179354117167,9.335622847960169],[118.417197196882114,9.335569850772277],[118.417255095235149,9.335404528309672],[118.417358,9.3353],[118.417435,9.335251],[118.418354353143954,9.334607266748279],[118.418602888594464,9.334452921309342],[118.418750050381703,9.334346236492911],[118.418832427094046,9.334275974709769],[118.418884,9.334235],[118.418978,9.334079],[118.419002666083244,9.333880028593789],[118.418997907504732,9.333752220544723],[118.418942827747955,9.333210715576632],[118.418828,9.332683],[118.418798024666643,9.332563726263663],[118.418750721428481,9.332410884386508],[118.418727883821077,9.33235416822369],[118.418662209903644,9.332212799365925],[118.418630660109898,9.332166616313261],[118.418551,9.332067],[118.418141,9.331559],[118.418091,9.331515],[118.417735315541492,9.331090772051692],[118.417699576966839,9.331037083077598],[118.417665953776236,9.330985550516436],[118.417567352813478,9.330821401144465],[118.417474779136185,9.330524260445696],[118.41745131645358,9.330351499995995],[118.417441492916993,9.330119300626151],[118.417458472868873,9.329968353246617],[118.41756604815663,9.329446513761811],[118.417571,9.329402],[118.41779,9.328549],[118.41782,9.328398],[118.418535,9.325625],[118.418545,9.325606]]}},
{"type":"Feature","properties":{"id":690,"canal_id":5,"canal_type":"MAIN CANAL","remarks":"MANAILE MAIN CANAL","Length":"4,246.74","canal_widt":null,"station_no":null,"canal_leng":null,"station__1":null,"station__2":null,"canal":"DS","canaltype":null},"geometry":{"type":"LineString","coordinates":[[118.424628,9.421855],[118.424799,9.42183],[118.424860119891946,9.421674213839442],[118.425064389740498,9.421468216786923],[118.425545705729263,9.421065684965829],[118.425896,9.420795],[118.42629114732614,9.420470706657772],[118.426715879871551,9.420131310082203],[118.42689386084048,9.419967551837725],[118.427046,9.419724],[118.427078,9.419662],[118.427416149472634,9.41922169349972],[118.427889,9.41868],[118.4281587718217,9.418352013094468],[118.428285033564293,9.418207808120586],[118.428494049706174,9.417966738125065],[118.42853010953354,9.417915042859148],[118.4285685094884,9.417848474050579],[118.428654080852837,9.417700546418844],[118.428722060960624,9.417504484671147],[118.42876,9.4174],[118.428915211483826,9.416921481807977],[118.429084,9.416511],[118.429148,9.416383],[118.429254175388394,9.416093392669673],[118.429331731388231,9.415902777705112],[118.429528730863424,9.415515704168614],[118.429618770666693,9.415353994476485],[118.42967,9.415291],[118.429683,9.415268],[118.429885505556896,9.414881595905216],[118.430035010693729,9.41460036175857],[118.430107913676451,9.414437364650816],[118.430110057453575,9.414437392484372],[118.430143979957393,9.414303697182941],[118.430151952874709,9.414186698073587],[118.430138291818892,9.414084322061351],[118.430007550436301,9.41375473735614],[118.429776851190766,9.413200295527991],[118.429755126407059,9.413140397629915],[118.429730382170376,9.413065556571063],[118.42971,9.413016],[118.429708033954284,9.41297158438539],[118.429729,9.412826],[118.429731,9.412774],[118.429736,9.412736],[118.429743869147117,9.412611160811124],[118.429748703189958,9.412569705385028],[118.429758896640038,9.412528319533534],[118.429775423287239,9.412494467878432],[118.429801554829581,9.412463934615269],[118.429867836439342,9.412396662643454],[118.430010782112575,9.41228780305835],[118.43018551986637,9.412207034846173],[118.430507014219813,9.412053651435537],[118.431318,9.411629],[118.431745399427527,9.411390525722677],[118.432146856259649,9.411189207273877],[118.432774,9.410863],[118.432813,9.410834],[118.432875,9.410772],[118.434099153822302,9.410124404838511],[118.434712544696012,9.409785305996769],[118.434943578466473,9.409662681079878],[118.43504,9.409604],[118.435073,9.409592],[118.435783154426161,9.409243474490305],[118.436136661919562,9.409101144143333],[118.436404446742046,9.408955573347498],[118.436525560442021,9.40887623477993],[118.436820580613187,9.40861604189544],[118.437223,9.408225],[118.437328,9.408115],[118.437388,9.408047],[118.437483628958773,9.40792413858563],[118.437667367949771,9.407647598668179],[118.437879954050175,9.407296911516763],[118.438048182706027,9.407058495117843],[118.438179212414624,9.406877084158499],[118.438301051910585,9.406742395638203],[118.438845,9.40631],[118.438883,9.406271],[118.439146992788821,9.406082662648085],[118.439823221257242,9.405529316924506],[118.439900955169264,9.405487739764574],[118.440043448680242,9.405412934107096],[118.440306606909914,9.405292848368868],[118.440737201161198,9.405157895795011],[118.441374936305323,9.404923422555877],[118.441866784171879,9.404695577135231],[118.442295,9.404525],[118.442366,9.404507],[118.442541,9.404449],[118.443837007735226,9.403894939394759],[118.444729880522019,9.403497680757908],[118.444971208819311,9.40340711641665],[118.445131632492988,9.403272922472748],[118.445647,9.402816],[118.445665,9.402788],[118.445851896018524,9.402630701567244],[118.446102691350603,9.40247212447659],[118.446336894368116,9.402270749013155],[118.446441691130445,9.402127318488457],[118.446741,9.401048],[118.447006,9.400327],[118.447009,9.400284],[118.447387,9.399167],[118.447796166180623,9.398244142094043],[118.44805,9.397271],[118.44825,9.396627],[118.448335852087567,9.396408295309257],[118.448524,9.396157],[118.448712,9.395964],[118.449005,9.395627]]}},
{"type":"Feature","properties":{"id":693,"canal_id":4,"canal_type":"MAIN CANAL","remarks":"TIGMAN MAIN CANAL","Length":"5,413","canal_widt":null,"station_no":null,"canal_leng":null,"station__1":null,"station__2":null,"canal":"LAT AN 2","canaltype":null},"geometry":{"type":"LineString","coordinates":[[118.465688,9.405351],[118.465907,9.405523],[118.466022,9.405557],[118.466239242648911,9.405676400213018],[118.466336805100084,9.405704350246324],[118.466413572984692,9.405707244881494],[118.466507,9.405691],[118.468076953984124,9.404782894408578],[118.46815060334778,9.404730452503701],[118.469033625772354,9.403571058597281],[118.469271323092826,9.403307168426531],[118.469348761889961,9.40325858828241],[118.469391345764606,9.40323244112373],[118.470004,9.40306],[118.470566408752603,9.402942464319116],[118.470766243474927,9.402931685360668],[118.4709504464048,9.402941679794578],[118.471396894161202,9.403014153938937],[118.471832724761057,9.403164668600962],[118.472092478893231,9.403270971652459],[118.472226617971558,9.403291762845978],[118.472318968120831,9.403277695259787],[118.472355792480784,9.40325147363821],[118.472491,9.403005],[118.47326470210642,9.401577565455151],[118.473759,9.400791],[118.473953,9.400515],[118.474022,9.400432],[118.474514184456979,9.399995734718136],[118.475031770670824,9.399765938902904],[118.475070365380532,9.39975118010188],[118.475194225763673,9.399676498924395],[118.475265522487319,9.399509617810249],[118.475541204932185,9.398391971773005],[118.475532300558683,9.398338467777402],[118.475521501189988,9.398283032689061],[118.474760173670376,9.396881316957932],[118.474719476385232,9.396762574700093],[118.474747445050696,9.396679035556547],[118.474829267083663,9.396588560376491],[118.475104,9.396302],[118.475275978642884,9.396197683154146],[118.475345884823412,9.39613756326178],[118.47540452027242,9.39605823098276],[118.475405810029827,9.395959095189054],[118.475178540712236,9.395422282214039],[118.475073959459124,9.395195940992171],[118.475006434607693,9.395073041065761],[118.47500653381843,9.395065415239303],[118.475011315882412,9.394993019148282],[118.475090388975815,9.394818610320888],[118.475168767536047,9.394697582235692],[118.476121,9.393988],[118.477313663764249,9.393062379610759],[118.477667028735723,9.392761824739988],[118.477787640967293,9.392641336833103],[118.4779,9.392505],[118.478041474106888,9.392316623960722],[118.478231247538716,9.392193208664704],[118.478859423608966,9.392022021604948],[118.479121553750318,9.391945295686874],[118.479343802079413,9.391982465654678],[118.479419156523335,9.392094024784516],[118.479538628916004,9.39265233720835],[118.479600681236121,9.392901014563909],[118.479668406253012,9.393008662429322],[118.479790529346175,9.393067430882876],[118.480246596246417,9.393138105233124],[118.48045442861023,9.393102632227183],[118.48093125310109,9.392757891537885],[118.480974478956668,9.392682173659724],[118.480994914989552,9.392587095941428],[118.481059,9.391458],[118.48107137641081,9.391135101259289],[118.482168487945444,9.390043210777792],[118.482213544437414,9.389826413211665],[118.482142523486559,9.389676774114884],[118.482015344881503,9.389415822099242],[118.48197848391284,9.389297129048938],[118.481975782824307,9.389209382011691],[118.48225406545599,9.387592170277385],[118.482383,9.387359],[118.483033,9.386882],[118.483317375285353,9.386736279412027],[118.483556513812175,9.386655440112319],[118.483806626756916,9.386616690539903],[118.485054850114835,9.386899609753712],[118.485295801051791,9.386975149990246],[118.4853947388374,9.387045060224965],[118.485543,9.387198],[118.486355049900538,9.38820905039095],[118.486499889423925,9.388515037867206],[118.486574,9.388752],[118.487033,9.389699],[118.487848,9.391328],[118.487983,9.391458],[118.488868569070931,9.392866152679224],[118.488944075932778,9.392966272324937],[118.489019780597374,9.393051140023132],[118.489122609845779,9.393117286464856],[118.49073,9.394134],[118.491575,9.394753],[118.493980144498849,9.396409523840475],[118.494052357411903,9.396467651212538],[118.494132052105556,9.396541128758839],[118.494535,9.397133]]}},
{"type":"Feature","properties":{"id":695,"canal_id":6,"canal_type":"LATERAL","remarks":"TIGMAN LATERAL B","Length":"1,733","canal_widt":null,"station_no":null,"canal_leng":null,"station__1":null,"station__2":null,"canal":null,"canaltype":null},"geometry":{"type":"LineString","coordinates":[[118.487882441723784,9.391359557770626],[118.48791,9.391349],[118.487936,9.391322],[118.488048,9.391313],[118.488670201500909,9.390875767416334],[118.488749852390058,9.390804327019577],[118.489420938053598,9.38998916387613],[118.489537410591808,9.38989149842898],[118.489599585260891,9.389835088771564],[118.490207094662779,9.389480558587248],[118.4907097486916,9.38921621411434],[118.491039,9.389074],[118.491605225458926,9.388865359724759],[118.492989,9.388519],[118.49329,9.388446],[118.496754,9.387803],[118.497569,9.387678],[118.49824674156703,9.387542896031059],[118.498665,9.387584],[118.501268318197276,9.387894141636345],[118.501952706638662,9.387979137667914],[118.502050617270172,9.387980385411643],[118.502148,9.38795],[118.502226182804577,9.387915883185501],[118.502503,9.387679]]}},
{"type":"Feature","properties":{"id":698,"canal_id":8,"canal_type":"LATERAL","remarks":"LATERAL B-SOUTH","Length":"4,376.67","canal_widt":null,"station_no":null,"canal_leng":null,"station__1":null,"station__2":null,"canal":null,"canaltype":null},"geometry":{"type":"MultiLineString","coordinates":[[[118.433757,9.32306],[118.433754269456713,9.322958984220334],[118.433732992643314,9.322864495774661],[118.433694450169469,9.322737848156297],[118.433445,9.322212],[118.433279,9.321806],[118.433196505639089,9.32165516260563],[118.433145941918966,9.321587444531094],[118.433077863061996,9.321506726457496],[118.433029,9.321461],[118.432731,9.321145],[118.43216,9.320682],[118.432111,9.320619],[118.431468,9.319004],[118.43114335367288,9.318118874587528],[118.431083354309919,9.318035066773518],[118.430990333585584,9.318017902622914],[118.430905,9.318012],[118.427658,9.318174],[118.427577,9.31822],[118.426827252545436,9.318207092435605],[118.426734149254443,9.318196313572608],[118.426628644946447,9.31815024445461],[118.425866,9.317592],[118.425527,9.317328],[118.424938,9.316705],[118.42341,9.314496],[118.423071,9.31404],[118.422823,9.313658],[118.422581,9.313351],[118.422037,9.31263],[118.422005,9.312571],[118.421774,9.312243],[118.420927,9.311096],[118.420426,9.310325]],[[118.438772,9.338479],[118.438773,9.338407],[118.438721,9.338375],[118.43866,9.3383],[118.437812,9.337225],[118.437146,9.336386],[118.436985,9.336171],[118.436106,9.335088],[118.43501,9.333717],[118.434424,9.332987],[118.433985,9.332435],[118.433295,9.33159],[118.432689,9.330832],[118.431448,9.329288],[118.431085749845977,9.328782257161187],[118.431044893430013,9.328709872830164],[118.431048,9.328672],[118.431127,9.32867],[118.431469,9.328378],[118.433188,9.327086],[118.43340184729027,9.326917770880881],[118.43349311227712,9.326823132501136],[118.433565504111414,9.326696314141364],[118.433681,9.326313],[118.433657,9.325415],[118.433633,9.324945],[118.433633032850253,9.324721861333348],[118.433739,9.323468],[118.433763642167094,9.323165100202701],[118.433764224516352,9.323120395479108],[118.433753887685583,9.323050000593179]]]}},
{"type":"Feature","properties":{"id":699,"canal_id":9,"canal_type":"SUB-LATERAL","remarks":"LATERAL B-SOUTH-1","Length":"1,500.8","canal_widt":null,"station_no":null,"canal_leng":null,"station__1":null,"station__2":null,"canal":null,"canaltype":null},"geometry":{"type":"LineString","coordinates":[[118.431470908134386,9.319014132108137],[118.431745,9.31883],[118.432332,9.318331],[118.432550387929851,9.318155319566765],[118.432599524651721,9.31808568895875],[118.432616263945732,9.318034804436445],[118.43262360836124,9.317964636857159],[118.432614450060541,9.317680277702008],[118.432578120227433,9.316766405744957],[118.43256226913077,9.316255206199282],[118.432533197998481,9.316018497149033],[118.432493193705071,9.315880653121752],[118.432436699826525,9.315774534524977],[118.432119,9.315237],[118.432088,9.315171],[118.431275,9.313762],[118.430619,9.3127],[118.429933,9.311516],[118.429298,9.31038],[118.428948,9.309881],[118.428515,9.309186],[118.427847,9.30805],[118.427783,9.307955],[118.427454,9.307401]]}},
{"type":"Feature","properties":{"id":700,"canal_id":10,"canal_type":"LATERAL","remarks":"LATERAL B-SOUTH-2","Length":"1,029.57","canal_widt":null,"station_no":null,"canal_leng":null,"station__1":null,"station__2":null,"canal":"AN-1","canaltype":null},"geometry":{"type":"LineString","coordinates":[[118.438772,9.338479],[118.438858,9.338547],[118.4389,9.33862],[118.439844,9.339811],[118.440652,9.340854],[118.441149,9.341468],[118.441554,9.341967],[118.442407,9.342961],[118.444987,9.341033],[118.445258,9.340823]]}},
{"type":"Feature","properties":{"id":702,"canal_id":12,"canal_type":"LATERAL","remarks":"LATERAL A-NORTH","Length":"8,933","canal_widt":null,"station_no":null,"canal_leng":null,"station__1":null,"station__2":null,"canal":"LAT AN","canaltype":null},"geometry":{"type":"LineString","coordinates":[[118.446447416259304,9.38915578660046],[118.446504,9.389168],[118.446534,9.389167],[118.446799,9.389217],[118.447047,9.389293],[118.44932,9.39024],[118.451665,9.391146],[118.452732219601145,9.39159222564877],[118.453005417919101,9.391659073891539],[118.453285856974986,9.39169098320818],[118.455834,9.391889],[118.455973,9.391834],[118.456260476635435,9.391858654965684],[118.456459239676249,9.391807319048993],[118.456669734844539,9.391688764400428],[118.457192126740708,9.391167312543965],[118.4579720489659,9.390457844124994],[118.459017,9.389938],[118.460732277340099,9.389015265047302],[118.460929520687401,9.388872282708824],[118.462601,9.387629],[118.462641,9.387574],[118.462654,9.387574],[118.46342,9.388376],[118.464341,9.389414],[118.464918984827051,9.389824987750195],[118.465112962941987,9.389932578502057],[118.465280055367089,9.390020959972826],[118.465571,9.390081],[118.466086215729902,9.390004370712873],[118.466347276252179,9.389961912902123],[118.466456329354699,9.389922891644893],[118.466565557942815,9.389870398485431],[118.466623482069593,9.389798382425695],[118.466681757146731,9.389699422626695],[118.466747,9.389493],[118.467098,9.388564],[118.467114,9.388533],[118.467234287342777,9.388321380353458],[118.467481629085398,9.388082022587952],[118.467843484250068,9.387801017711144],[118.468309491008526,9.387440504544729],[118.469124814365287,9.386928174104394],[118.470023,9.386445],[118.470507591341459,9.386183281806611],[118.470680202430273,9.386056144346067],[118.470776214272391,9.385976531068494],[118.470964,9.38581],[118.471114,9.385657],[118.472355758078393,9.384498460171297],[118.47258138886572,9.384258817511972],[118.47263,9.384174],[118.47272061911589,9.383985728630325],[118.472834469019645,9.383577571944553],[118.473201,9.382113],[118.47331,9.381749],[118.473373547320321,9.381613202515396],[118.473555414755879,9.381399945616248],[118.473747994404945,9.381197605191245],[118.474173797345799,9.380797486773615],[118.474339183967288,9.380703938714586],[118.474545,9.380642],[118.474807,9.380526],[118.475382356427104,9.380249072265547],[118.475601120963717,9.380119826520479],[118.475758,9.380016],[118.475765,9.380007],[118.475829,9.379975],[118.476095,9.379711],[118.476569,9.379212],[118.476719967806517,9.379009051877089],[118.477053,9.37861],[118.478197,9.377104],[118.478438,9.376768],[118.478989,9.376264],[118.479585,9.375769],[118.479637,9.375682],[118.479785,9.375545],[118.480232,9.375195],[118.48036,9.375042],[118.481661,9.373903],[118.48264,9.37302],[118.482944,9.372734],[118.48382,9.371987],[118.484348,9.371544],[118.485522,9.370582],[118.485728,9.370405],[118.485742,9.370312],[118.485884,9.370215],[118.487833,9.368654],[118.489549,9.367403],[118.489596,9.36734],[118.491086,9.366515],[118.491398361965381,9.36632275916979],[118.491565461156085,9.366200922925721],[118.492335,9.365533],[118.49245,9.365459],[118.492478011222559,9.365298301974969],[118.49246587290736,9.365187655785689],[118.49236,9.364641],[118.492116,9.363665],[118.491982,9.363031],[118.491874,9.362612],[118.491662,9.361869],[118.491545183517914,9.3613639706504],[118.491530714798245,9.36122365089558],[118.491553,9.360405],[118.491627,9.357983],[118.491661,9.35779],[118.491675,9.357747],[118.491646,9.357353],[118.491631,9.357095],[118.49165,9.35703],[118.491670689773173,9.356792302023857],[118.491716532370958,9.35660424176659],[118.491811452317748,9.356397941906502],[118.492244104682314,9.355883331227719],[118.492568688923171,9.355542513539413],[118.492754911029209,9.355410137875499],[118.493213,9.355143],[118.493416461889439,9.355030488628561],[118.493953737388694,9.354819036392097],[118.494498143796378,9.354685826522376],[118.495113018619989,9.354558901797766],[118.495455,9.354361],[118.496377543581872,9.35392281064042],[118.496994883441388,9.353604572848033],[118.497690721054298,9.353090600982197],[118.498198,9.35268],[118.49927,9.351847],[118.499897,9.351485],[118.500379,9.351188],[118.501124,9.350568],[118.501382,9.350335],[118.50214,9.349668]]}},
{"type":"Feature","properties":{"id":706,"canal_id":14,"canal_type":"LATERAL","remarks":"LATERAL B-NORTH","Length":"2,116","canal_widt":null,"station_no":null,"canal_leng":null,"station__1":null,"station__2":null,"canal":null,"canaltype":null},"geometry":{"type":"LineString","coordinates":[[118.453511493789762,9.373549457325836],[118.453527,9.373536],[118.453641,9.373422],[118.453886,9.373256],[118.454328770061267,9.372845515210425],[118.455354,9.371598],[118.456127,9.37063],[118.457067,9.369446],[118.45864,9.367498],[118.458889,9.367207],[118.460187,9.366141],[118.461676,9.365076],[118.461901,9.364873],[118.462316,9.364574],[118.462496348957941,9.364391737250681],[118.462796,9.363878],[118.462902,9.363488],[118.462992,9.363156],[118.463146,9.36263],[118.463465,9.362245],[118.464007703349537,9.361678575006808],[118.465726020959963,9.360159157127477],[118.466325,9.359643],[118.466341,9.35962]]}},
{"type":"Feature","properties":{"id":641,"canal_id":18,"canal_type":"LATERAL","remarks":"LATERAL C-NORTH","Length":"2,046","canal_widt":null,"station_no":null,"canal_leng":null,"station__1":null,"station__2":null,"canal":"BBLATERAL B","canaltype":null},"geometry":{"type":"LineString","coordinates":[[118.474026,9.341547],[118.474042,9.34162],[118.474182,9.341814],[118.474674,9.34242],[118.475572,9.343559],[118.476089,9.344101],[118.476316673956504,9.344315501023363],[118.476451236024175,9.344400758577013],[118.476664,9.344489],[118.477484,9.344535],[118.478936,9.344557],[118.480609,9.344177],[118.481486,9.343998],[118.482566,9.343563],[118.484193,9.342736],[118.484576,9.342573],[118.488768,9.340436],[118.489398809427669,9.339590924974159],[118.489519460372634,9.339492747618182],[118.489740313444656,9.339409318794528],[118.489895,9.3394]]}},
{"type":"Feature","properties":{"id":677,"canal_id":19,"canal_type":"MAIN CANAL","remarks":"SOUTH MAIN CANAL","Length":"11,957.59","canal_widt":null,"station_no":null,"canal_leng":null,"station__1":null,"station__2":null,"canal":"SMC","canaltype":null},"geometry":{"type":"LineString","coordinates":[[118.433675,9.394404],[118.433584,9.394437],[118.43245,9.392534],[118.431793,9.39155],[118.431220303254619,9.390536482714326],[118.431107509853049,9.390309333104215],[118.431066146553164,9.390193823828479],[118.430992905863391,9.389566907708335],[118.430743355411721,9.387345111152923],[118.43074976633882,9.387183379395641],[118.430765869364734,9.386936607439928],[118.430818002366621,9.386558295080732],[118.430844142489903,9.386281845018152],[118.430839,9.386187],[118.430867234693295,9.385992580631116],[118.430797608322791,9.385416811170112],[118.430734265328852,9.385015712720568],[118.430651441817275,9.384465322312048],[118.430657516866944,9.384329135891209],[118.430671942779867,9.384210090672497],[118.430890478421901,9.383567788791103],[118.430932742826826,9.383451232879942],[118.430940123234961,9.383378937548155],[118.43092,9.383212],[118.430921,9.382955],[118.430870494803671,9.3821495216353],[118.430806884678375,9.3814418235243],[118.430762265640809,9.380593847837947],[118.43070556621845,9.379686099998416],[118.430646,9.379261],[118.430616746633532,9.378611863777119],[118.430548,9.37783],[118.430544,9.377638],[118.430471223874676,9.37662988029429],[118.430418,9.375927],[118.430375289422742,9.37511694961249],[118.430304014580628,9.373685245408723],[118.430223204925326,9.372653696597183],[118.430182,9.371929],[118.430168172251584,9.371618222889387],[118.430149554949196,9.371402939051036],[118.430143570795849,9.371368795452327],[118.430123363226556,9.371274852070659],[118.429972717791941,9.370827914542129],[118.429659040593606,9.369897684350551],[118.429436107067588,9.369241157231874],[118.429392516371678,9.369132007749721],[118.429325681999657,9.368997008185522],[118.429256397301074,9.368885397479296],[118.429002,9.368613],[118.428987,9.368597],[118.427994,9.367665],[118.427236150376501,9.366897283958153],[118.427164109293187,9.36683247860959],[118.426428,9.365522],[118.425463,9.36394],[118.425162,9.363389],[118.425071,9.363235],[118.424795604395612,9.362711799235058],[118.424779238198738,9.362651972106791],[118.424771864347889,9.362560324364592],[118.424773622348511,9.362426212182232],[118.424811542352558,9.362231887461936],[118.425238,9.360462],[118.425342,9.36018],[118.425419820313564,9.359969065542471],[118.425674,9.358771],[118.42602235755993,9.357437837135604],[118.42603630543104,9.357354981285065],[118.42605373498742,9.357169972196795],[118.426047,9.356958],[118.425818,9.354386],[118.425770034548563,9.353787379728017],[118.425747795112201,9.3536848943232],[118.425660281218228,9.35349214250251],[118.423875,9.35139],[118.42375,9.351242],[118.425733,9.349465],[118.427595,9.347811],[118.427656,9.347766],[118.430114,9.345505],[118.430289,9.345389],[118.433072,9.342908],[118.433118,9.342873],[118.434985,9.341422],[118.435773,9.340753],[118.43598,9.340623],[118.438772,9.338479],[118.438819,9.338359],[118.440757,9.336778],[118.441687,9.33607],[118.44455,9.333816],[118.445385,9.333137],[118.447403,9.331562],[118.450291,9.329344],[118.45032,9.329281],[118.45231866320411,9.32781868650326],[118.452453482795931,9.32767136853227],[118.453425,9.326571],[118.454338047181807,9.325584382781203],[118.454358,9.325571],[118.454319,9.325504],[118.454331,9.325453],[118.454066,9.322913],[118.454018005257836,9.322079866020033],[118.454025328326338,9.321845746602355],[118.454048306956238,9.321726804796119],[118.454088486996454,9.321603824605551],[118.454220064810627,9.321375553012903],[118.455100115636398,9.320624550869324],[118.455773,9.32],[118.455877,9.319925],[118.455954,9.31986],[118.456166884518382,9.31969069002696],[118.456227944405185,9.319610560381079],[118.456286778235807,9.31953678990471],[118.456337535438237,9.319424590263436],[118.456364964836027,9.319292929455596],[118.456332382582033,9.319160501531647],[118.456273915589051,9.319040518039767],[118.456004,9.318675],[118.455439,9.317993],[118.454915,9.317326],[118.454475,9.316801],[118.45445,9.316763],[118.453066,9.315027],[118.452288,9.314049],[118.452037,9.313774],[118.451683,9.313275],[118.449686,9.310799],[118.447551,9.308127],[118.447443,9.307988]]}},
{"type":"Feature","properties":{"id":691,"canal_id":7,"canal_type":"LATERAL","remarks":"MANAILE LATERAL A","Length":"4,281.76","canal_widt":null,"station_no":null,"canal_leng":null,"station__1":null,"station__2":null,"canal":"LAT C-1","canaltype":null},"geometry":{"type":"MultiLineString","coordinates":[[[118.427030245292869,9.419746830767167],[118.427079,9.419786],[118.427082,9.419802],[118.427118,9.419914],[118.427395667681083,9.420002818204471],[118.427489770530187,9.420021074439921],[118.427574,9.420023],[118.42783495106714,9.42002343190458],[118.427847870016564,9.42001934155258],[118.428169945853782,9.419985203129416],[118.428573542521605,9.419947865494468],[118.42884338164852,9.419972663330508],[118.429198187791883,9.420058180794642],[118.42957793459108,9.420203637848486],[118.429739573970451,9.420303678236367],[118.429893646031033,9.420489850350403],[118.429925,9.420562],[118.429917,9.42062],[118.429903,9.420683],[118.430194042934303,9.421368828894257],[118.430772410628094,9.422713442723566],[118.431013914153041,9.423261640387805],[118.431087209215136,9.423394599403091],[118.431146451189576,9.423454985049275],[118.431199654382354,9.423485484260587],[118.431254,9.423515],[118.431311441433593,9.423544955721701],[118.431313049311285,9.423544976611382],[118.431342964854551,9.423552817270709],[118.431436680596633,9.423559889953655],[118.431603241723977,9.423530648985375],[118.431786449593872,9.423458509035081],[118.432041,9.423339],[118.433627606161238,9.422698895497078],[118.433909,9.42261],[118.434187246799596,9.422535829649012],[118.434583,9.422347],[118.435097958535181,9.422090948662479],[118.435204,9.422026],[118.436287,9.421158],[118.438566,9.41928],[118.439169,9.418792],[118.439353487465397,9.418640487843462],[118.439399,9.418611],[118.439593,9.418457],[118.439781133573661,9.418323462403139],[118.439930233082379,9.418235969871969],[118.440111881701142,9.418119090741547],[118.44031150097328,9.41802160684685],[118.440441,9.417947],[118.440544,9.417924],[118.440704405726436,9.417819104398705],[118.441526081833047,9.417295328629558],[118.441928078170506,9.417053552191835],[118.442438020474356,9.416755685421535],[118.442770840216184,9.41655665958598],[118.442933120855713,9.416485836868564],[118.443552555155932,9.4160957017342],[118.443723454886467,9.41598080964827],[118.443727770492615,9.41597873634387],[118.443818537965711,9.415924552857133],[118.444117538237876,9.415810786585666],[118.444701,9.41564],[118.444990437537712,9.415549550322389],[118.445320105823782,9.415427130584607],[118.446147205498576,9.415142941435981],[118.446264,9.415109],[118.447150922581756,9.414798223348324],[118.447275934980382,9.414748739909026],[118.44738,9.414697],[118.447564789161362,9.414550203239436],[118.447614711561528,9.414504006786586],[118.447681505366404,9.414479320404762],[118.447723435705086,9.414470281354449],[118.447905577536815,9.414479024550852],[118.449136176643606,9.414573717476987],[118.449710152531495,9.414624786594269],[118.450049,9.414618],[118.450109,9.414627],[118.450569987656337,9.41454221663605],[118.451144999444807,9.414432542414431],[118.451476,9.414389],[118.452084,9.414297],[118.452841542280481,9.414181393181298],[118.452874,9.414174],[118.453024011980631,9.414134512494593],[118.453129179750135,9.414085834716767],[118.45325,9.413982]],[[118.453258600046041,9.413978545596347],[118.453333935073189,9.413882479047368],[118.453486973841549,9.413657695450729],[118.453683795380186,9.413364277980625],[118.453797589277841,9.413189023534844],[118.454041047754075,9.412772713922237],[118.45472,9.41145],[118.454924805433407,9.411108437552732],[118.455475165458523,9.410342637985361],[118.456266557052089,9.409597560657463],[118.456352261530839,9.409513981962625],[118.456377611875368,9.40946107871291],[118.456379270051954,9.409170462558423],[118.456383698602735,9.40883197485293],[118.456388071971347,9.408333795463815],[118.456393835672344,9.408221021534315],[118.456430253328747,9.408059671139677],[118.456717943718289,9.407539595596177],[118.456839,9.40728]]]}},
{"type":"Feature","properties":{"id":708,"canal_id":16,"canal_type":"SUPPLY CANAL","remarks":"LAT-AN3 SUPPLY CANAL","Length":"2,194","canal_widt":null,"station_no":null,"canal_leng":null,"station__1":null,"station__2":null,"canal":"LAT DS","canaltype":null},"geometry":{"type":"LineString","coordinates":[[118.495728,9.366144],[118.495828,9.366149],[118.496006562479863,9.366102544829769],[118.496083645007502,9.366080644298439],[118.496170104450186,9.366076024589693],[118.496344450870723,9.366104939867695],[118.49710868352598,9.366843078163756],[118.497354,9.367103],[118.49742,9.367177],[118.497504952832571,9.367268578946339],[118.497573939160631,9.367427724185545],[118.497750627003725,9.368167917590473],[118.497782474438111,9.368229341656116],[118.49815,9.368727],[118.498309507659414,9.368899628628423],[118.498449,9.368987],[118.498735559184425,9.369063319006075],[118.499875,9.369313],[118.50004,9.369344],[118.503006231153364,9.368127998300238],[118.503141004082494,9.368099202354971],[118.5031716702903,9.368103405950635],[118.504234,9.369233],[118.504909,9.369863],[118.505157,9.370216],[118.505185,9.370262],[118.505361377437623,9.370419462109833],[118.505443360654112,9.370464361799453],[118.505500657687165,9.37048797232338],[118.505590983253697,9.370481493020089],[118.505594822712894,9.370481541821961],[118.505673900170407,9.370453944147457],[118.506476,9.369722],[118.508694,9.367654],[118.508714,9.367599],[118.50928,9.367309],[118.509725,9.367098],[118.509839,9.367029],[118.510076,9.3669],[118.510569,9.366615],[118.511265,9.366265]]}},
{"type":"Feature","properties":{"id":701,"canal_id":11,"canal_type":"LATERAL","remarks":"LATERAL C-SOUTH","Length":"2,465.94","canal_widt":null,"station_no":null,"canal_leng":null,"station__1":null,"station__2":null,"canal":null,"canaltype":null},"geometry":{"type":"LineString","coordinates":[[118.45032,9.329281],[118.45029,9.329274],[118.450265,9.329221],[118.450103,9.329005],[118.449295,9.327993],[118.448788,9.327372],[118.447669,9.325949],[118.446849,9.324913],[118.446276,9.324204],[118.44622830925411,9.324117232554025],[118.446001,9.323853],[118.44511,9.322787],[118.443909,9.321258],[118.443626,9.320867],[118.443335,9.320503],[118.442531,9.31948],[118.442511,9.319432],[118.441897,9.318665],[118.441108,9.317675],[118.441,9.317548],[118.440792,9.317269],[118.440744,9.317184],[118.440681,9.3171],[118.440216,9.316553],[118.44012,9.316502],[118.43989713293999,9.316105767860812],[118.439815742472874,9.315897229727177],[118.43978223123996,9.315762063399147],[118.439764959915138,9.315629800084205],[118.439756,9.315489],[118.439742324583904,9.315257973784721],[118.439718246531328,9.315023223427014],[118.439685820874303,9.314804534416437],[118.439666772988517,9.314704585117347],[118.439643183620873,9.314640956444414],[118.439619454179905,9.314588104899052],[118.439577,9.314524],[118.439535,9.314455],[118.439422407856327,9.314302631340974],[118.439390523516238,9.314251022592819],[118.439376410352764,9.314188862825835],[118.439375736996055,9.314136306964858],[118.439392564146516,9.313989659991282],[118.440158255265089,9.313313668751656],[118.440618571467013,9.312963865095563],[118.440928755995017,9.312684893975844],[118.441238275077239,9.312457113812432],[118.441435707699057,9.312295265180637],[118.441578365868693,9.312173135483476],[118.441616900340591,9.312130513501385],[118.441644794896135,9.312071586736041],[118.441675541880642,9.312001917565286],[118.44174,9.311711]]}},
{"type":"Feature","properties":{"id":705,"canal_id":13,"canal_type":"SUB-LATERAL","remarks":"LATERAL A-NORTH-1","Length":"3,426","canal_widt":null,"station_no":null,"canal_leng":null,"station__1":null,"station__2":null,"canal":"LAT BS","canaltype":null},"geometry":{"type":"LineString","coordinates":[[118.462641,9.387574],[118.462655,9.387535],[118.462881,9.387386],[118.463167,9.387149],[118.463378798102951,9.386978670538902],[118.463427173248832,9.386910574578186],[118.463459094036537,9.386855741190255],[118.463476057488776,9.386803410378439],[118.463488,9.386748],[118.46348,9.386677],[118.46345,9.386576],[118.463384,9.386227],[118.463348,9.386198],[118.463339,9.386159],[118.462565,9.382727],[118.462364714478198,9.381919945330321],[118.462316535546108,9.381660624768585],[118.462302082268479,9.381520309073988],[118.462305163905043,9.381492053187399],[118.462355087500967,9.381409155565148],[118.462618,9.381111],[118.463931,9.379582],[118.464592,9.378823],[118.465367,9.377767],[118.466558,9.37604],[118.46679,9.375723],[118.466959,9.375505],[118.466984,9.375464],[118.467308899637274,9.374950615031015],[118.468852,9.372801],[118.469644445110532,9.371669957488725],[118.470169652173539,9.370927522802308],[118.470298,9.370707],[118.471095,9.369292],[118.47263,9.366678],[118.472687476195574,9.366559763199067],[118.472716,9.366471],[118.472952527324438,9.365999258876087],[118.47321774329815,9.365425955539317],[118.473395849296622,9.365083293987121],[118.473459,9.365019],[118.47358,9.364857],[118.473770996547884,9.364716204577013],[118.473822753170722,9.364700697619432],[118.473879638735809,9.364708162489146],[118.474325320181336,9.364969874714797],[118.474454548327074,9.365048331071339],[118.474515311321241,9.365070667155173],[118.474579084346729,9.365070135492017],[118.474662,9.365033],[118.475555,9.364219],[118.476167,9.363705],[118.476787,9.363138],[118.476929,9.363016]]}},
{"type":"Feature","properties":{"id":707,"canal_id":15,"canal_type":"LATERAL","remarks":"TIGMAN LATERAL A","Length":"4,640","canal_widt":null,"station_no":null,"canal_leng":null,"station__1":null,"station__2":null,"canal":"LAT AN-2","canaltype":null},"geometry":{"type":"LineString","coordinates":[[118.486561175663923,9.388712222438544],[118.486584,9.388708],[118.486618,9.388696],[118.486791,9.388694],[118.487723917669243,9.388369564054203],[118.488199890664987,9.388089627744588],[118.488782100809189,9.387612740074774],[118.488995,9.38727],[118.489349,9.386569],[118.490581,9.384437],[118.490812686831944,9.384122520331895],[118.491382281565222,9.383729362445994],[118.491806999227279,9.383551730662857],[118.492161420589994,9.383464728070612],[118.492403607179867,9.383444937861462],[118.492692,9.383509],[118.49414713419317,9.384031609470531],[118.494308099193177,9.384056545371294],[118.4955907068708,9.384057655080701],[118.495928785097576,9.384046713094991],[118.496225170766778,9.383993288762964],[118.49666,9.383618],[118.498233,9.382224],[118.49966,9.380935],[118.500107,9.380545],[118.50047,9.379709],[118.500689,9.379364],[118.500929,9.379097],[118.501141,9.378923],[118.501373,9.378701],[118.501588,9.378509],[118.502338,9.377722],[118.50238,9.377709],[118.503008,9.377103],[118.503054,9.377059],[118.503077,9.377037],[118.504194,9.375957],[118.504219,9.375921],[118.504277,9.375921],[118.504925,9.375059],[118.505534,9.374823],[118.505881,9.37482],[118.505943,9.374871],[118.50610422793936,9.374979133045754],[118.506590469767943,9.375092099154212],[118.506800512657378,9.375182484872884],[118.50811,9.376179],[118.508954373936888,9.376708653400158],[118.50969,9.377116],[118.509703,9.377121],[118.510315513978611,9.377469626675172],[118.510386521299282,9.37747243577406],[118.511204270399389,9.377339810300095],[118.512852,9.376549],[118.514021,9.375967],[118.514322,9.375869],[118.515732,9.375457],[118.516236,9.375298],[118.517631,9.375043],[118.517729,9.375059],[118.519476,9.374682],[118.519503,9.374678],[118.520878,9.374175]]}},
{"type":"Feature","properties":{"id":709,"canal_id":17,"canal_type":"SUPPLY CANAL","remarks":"TIGMAN SUPP.CANAL","Length":"2,519","canal_widt":null,"station_no":null,"canal_leng":null,"station__1":null,"station__2":null,"canal":"BBLAT C","canaltype":null},"geometry":{"type":"MultiLineString","coordinates":[[[118.455435847063086,9.397001805021032],[118.455366,9.396893],[118.455237182937623,9.396630059481108],[118.455190247277102,9.396483936364669],[118.455177419006304,9.396219682454554],[118.45519,9.395835],[118.455201,9.395797],[118.455225109388849,9.395607234263055],[118.455261116662285,9.395239860573179],[118.455349,9.394439],[118.4554,9.393532],[118.455419,9.393385],[118.455447486193805,9.39302176136454],[118.45551,9.392389],[118.455523,9.392187],[118.455525,9.392096],[118.45554,9.392042],[118.455722,9.391925],[118.455756802006405,9.391881810416324]],[[118.455446,9.397015],[118.455721842914002,9.397231852650048],[118.455912859148128,9.397358274402835],[118.456311,9.397657],[118.456743769739688,9.397940276384613],[118.457082111451015,9.398214114777806],[118.457337,9.398509],[118.457365,9.39859],[118.45742905354912,9.398660530412174],[118.457495933041088,9.398734151440609],[118.45761704136703,9.398811165963268],[118.45795,9.398967],[118.458413,9.399169],[118.458983,9.399374],[118.46084,9.400242],[118.461061,9.400294],[118.461175,9.400353],[118.462126211972915,9.400754251410248],[118.46273151443711,9.40095068012546],[118.463211868311291,9.401156279096798],[118.464486,9.401796],[118.464525,9.401923],[118.464719541552043,9.402075750048189],[118.464831740217292,9.402211934615382],[118.464883895738552,9.402374294696964],[118.464923229265665,9.402687399475079],[118.464886521102528,9.403004915329751],[118.464702874564964,9.403352877852104],[118.464329158350665,9.403709172907623],[118.464054385155748,9.40396972765288],[118.463953119913498,9.404243294919196],[118.463893,9.40481],[118.463756,9.405662],[118.463659424384772,9.406346780894813],[118.463703607928082,9.406492262538871],[118.463802442587323,9.406569805076437],[118.464544345019561,9.40680816747521],[118.465425,9.406873],[118.465531,9.40691],[118.465631,9.406825]]]}},
{"type":"Feature","properties":{"id":682,"canal_id":20,"canal_type":"LATERAL","remarks":"LATERAL D-SOUTH","Length":"2,990.00","canal_widt":null,"station_no":null,"canal_leng":null,"station__1":null,"station__2":null,"canal":"AN","canaltype":null},"geometry":{"type":"LineString","coordinates":[[118.454358,9.325571],[118.454534,9.325721],[118.454607,9.325721],[118.454637,9.325702],[118.454656,9.325676],[118.454706,9.325673],[118.455549621627725,9.325192480453293],[118.455664460104273,9.325123885082682],[118.455915244047915,9.325032775553957],[118.456048826264151,9.324983283280034],[118.456622,9.324804],[118.456797,9.324763],[118.458188527138816,9.324425875370046],[118.45854764118954,9.324349622318847],[118.458703098766748,9.324286934389651],[118.458804373599236,9.324218164189054],[118.458948,9.324098],[118.459131,9.323947],[118.459792539462129,9.32328121310478],[118.459862758267946,9.323201266312633],[118.459943513464154,9.323145707344608],[118.460039031034484,9.323102463583625],[118.460211893234543,9.323057513212341],[118.460397795160731,9.323053151396053],[118.461745,9.323355],[118.462661,9.323592],[118.464155,9.323911],[118.464457047165055,9.32395924804247],[118.464882514371084,9.323997017163364],[118.464972206059699,9.323984687955642],[118.465066210744965,9.323953550030213],[118.465135784160012,9.323923447640469],[118.466466,9.322814],[118.46701,9.322126],[118.467242620220347,9.321777038307276],[118.46730355232971,9.321680801675045],[118.467310612599732,9.321659333098664],[118.46731,9.321624],[118.466879,9.320919],[118.467369,9.32058],[118.467666,9.320338],[118.467916,9.320099],[118.468035,9.319978],[118.46823,9.319809],[118.468365,9.319658],[118.46906,9.320528],[118.469418,9.32029],[118.469744,9.320109],[118.470023401034695,9.319917436208794],[118.470908,9.319033],[118.471123,9.318789],[118.471634,9.318357],[118.472617,9.317595],[118.472845,9.317415]]}},
{"type":"Feature","properties":{"id":683,"canal_id":21,"canal_type":"MAIN CANAL","remarks":"NORTH MAIN CANAL","Length":"9,680.00","canal_widt":null,"station_no":null,"canal_leng":null,"station__1":null,"station__2":null,"canal":"AS","canaltype":null},"geometry":{"type":"LineString","coordinates":[[118.43477,9.395552],[118.434956,9.395781],[118.435011,9.395789],[118.435299,9.39595],[118.435417,9.396019],[118.43580356467011,9.396166852142134],[118.436050262085203,9.39618486596417],[118.436718413905155,9.396034524500806],[118.437993164400794,9.395668367399864],[118.439142,9.395347],[118.440741814996969,9.394855073387244],[118.440965561078656,9.394760955400756],[118.441249419186747,9.394635277411837],[118.441512,9.394487],[118.444076,9.392439],[118.445056,9.391572],[118.445581133444037,9.391046594100192],[118.445690063922783,9.390913262796801],[118.445752325140049,9.390821097637854],[118.445885533291673,9.390595110743089],[118.44647,9.389098],[118.446544,9.389017],[118.446602,9.388848],[118.447199,9.387463],[118.447628,9.386326],[118.448452,9.384296],[118.448488,9.384262],[118.448931,9.382983],[118.449165,9.382397],[118.449607626068101,9.381218201024204],[118.449688063855533,9.381084499227679],[118.449759799348485,9.380993801479043],[118.450886,9.379957],[118.451493,9.379272],[118.452344837769573,9.378361965600137],[118.452616199248013,9.377945073900573],[118.452826467222962,9.377635186394796],[118.453181,9.37726],[118.453974,9.376458],[118.454261,9.375823],[118.454397369133673,9.375362142768269],[118.454429355576593,9.375198172616772],[118.45443375514391,9.375068879767767],[118.454414,9.374952],[118.45434,9.374563],[118.454126,9.374271],[118.453677,9.37374],[118.453487,9.373521],[118.453133278822591,9.373044543039956],[118.453021582451996,9.372870640671049],[118.452937437632613,9.372664755419569],[118.452880387502418,9.37246191348572],[118.452845006056535,9.372262045066847],[118.452811100364443,9.371949015122631],[118.452729,9.371361],[118.452548,9.369143],[118.45249,9.368842],[118.452324,9.367076],[118.45224,9.365432],[118.452269266750093,9.365223977341374],[118.452372198956908,9.364821084558248],[118.452539248134485,9.364286971835149],[118.453092,9.362597],[118.453464908135985,9.361340002895179],[118.453566502418369,9.361039492925517],[118.453634699624601,9.360803228519295],[118.453697962104755,9.3605291737763],[118.453744245361889,9.360308796453959],[118.453873,9.359338],[118.453917870771775,9.359060649092863],[118.45397479429775,9.358856576896594],[118.454093154766284,9.358518554609036],[118.454665,9.357434],[118.455866,9.355217],[118.457649,9.352209],[118.45847,9.350799],[118.458612,9.350521],[118.460018820605399,9.348098346862519],[118.460851,9.347032],[118.462990576298168,9.344774610091067],[118.463298094640606,9.344645990730449],[118.464584,9.344465],[118.465388,9.344324],[118.467541,9.343927],[118.468258,9.343622],[118.468358,9.343594],[118.470977,9.342367],[118.472209,9.341447],[118.472346,9.341362],[118.472597334319246,9.34120482712288],[118.472793423720958,9.341148043661919],[118.472950836466126,9.341144663325819],[118.473189075782187,9.341185432174228],[118.473443104049821,9.341264130299708],[118.47389676539801,9.341431611353951],[118.474006,9.341544],[118.474021,9.341528],[118.474204,9.341469],[118.476064,9.340376],[118.476479,9.34012],[118.476972015532397,9.339876160963446],[118.477682045854294,9.339731607013357],[118.477894759952989,9.339648083241308],[118.478108692663923,9.339470254514939],[118.478467,9.339203],[118.478649,9.339044],[118.479304,9.338634],[118.480865,9.337733],[118.483483,9.336192]]}},
{"type":"Feature","properties":{"id":712,"canal_id":null,"canal_type":"MAIN CANAL","remarks":"OLD DAM OF DAR","Length":"2+480","canal_widt":null,"station_no":null,"canal_leng":null,"station__1":null,"station__2":null,"canal":null,"canaltype":null},"geometry":{"type":"LineString","coordinates":[[118.40775156058146,9.359956319044466],[118.40910108490155,9.35931972793238],[118.411172354128723,9.358212007885964],[118.414434903391509,9.355841419842834],[118.41606295982028,9.357596016838375],[118.416608982864616,9.357327831523119],[118.417023509845023,9.357643591381873],[118.417330914542532,9.358034098794777],[118.418475543328299,9.357984492372413],[118.41938693439279,9.358183693984882],[118.41975086160457,9.358311389312343],[118.420029098854954,9.358678092621119],[118.42047742917218,9.358215371837225],[118.421027906585564,9.357607558182853],[118.420947284731369,9.357460102544909],[118.422060701191697,9.356642874894805],[118.422290194039689,9.356422773556689],[118.422562162351099,9.356160878207058],[118.422735522135696,9.355995667964509],[118.422836577304068,9.355906075949569],[118.42298390808287,9.355775457404901],[118.423478833237667,9.355336671782728],[118.423772940309817,9.355075924268288],[118.425087755826681,9.353910233654441],[118.425302859010046,9.353719525659413],[118.425623101098623,9.35343560190698]]}},
{"type":"Feature","properties":{"id":713,"canal_id":null,"canal_type":"MAIN CANAL","remarks":"TUWAS DAM","Length":"1+200","canal_widt":null,"station_no":null,"canal_leng":null,"station__1":null,"station__2":null,"canal":null,"canaltype":null},"geometry":{"type":"LineString","coordinates":[[118.41555610690834,9.361820413307843],[118.416325961992825,9.361432351100159],[118.417276178383574,9.360608440767173],[118.417592557021692,9.360110808702444],[118.417777816169945,9.359852308274997],[118.418197874200018,9.3596095472],[118.418864634832602,9.359287715236267],[118.419225508621963,9.359248902259925],[118.419414122549156,9.359247998188723],[118.419731440649713,9.359191896683232],[118.420361086613539,9.3592033882596],[118.421568259,9.359294178800001],[118.422027070199988,9.359338983200001],[118.422543586200007,9.3593963345],[118.422935035907997,9.359393889204],[118.423382991434494,9.359493652238747],[118.423893977500015,9.359644762],[118.424555251799987,9.359807338299998],[118.424937797,9.359919311299999],[118.425305971200004,9.360026155799998],[118.425407,9.36004]]}},
{"type":"Feature","properties":{"id":710,"canal_id":null,"canal_type":"MAIN CANAL","remarks":"MC OF ESTRELLA DAM","Length":"2+520","canal_widt":null,"station_no":null,"canal_leng":null,"station__1":null,"station__2":null,"canal":null,"canaltype":null},"geometry":{"type":"LineString","coordinates":[[118.404741,9.359169],[118.404942312732558,9.359039262534292],[118.40530484732902,9.35802735326647],[118.405932,9.357943],[118.406298683606551,9.357877941288804],[118.406554,9.357884],[118.407207301151118,9.35750174310942],[118.408046601820629,9.356903562969235],[118.408294,9.356686],[118.408673424406587,9.356320193599192],[118.408809,9.356191],[118.409035,9.356007],[118.409093,9.355943],[118.409752,9.355259],[118.410157,9.354805],[118.410321,9.354612],[118.410585,9.354364],[118.410828671498408,9.354075836550791],[118.412286,9.352489],[118.412642,9.35209],[118.413982191094192,9.350573525942966],[118.414753425800654,9.349318511015589],[118.415836566088032,9.348559470679362],[118.416414199440482,9.348127706546036],[118.416961278802702,9.347777536471202],[118.417728643878192,9.347266231498283],[118.419819273539105,9.34476910048396],[118.42011237497276,9.34445077913357],[118.420933939249977,9.34385231394841]]}},
{"type":"Feature","properties":{"id":711,"canal_id":null,"canal_type":"LATERAL A","remarks":"ESTRELLA DAM","Length":"2+600","canal_widt":null,"station_no":null,"canal_leng":null,"station__1":null,"station__2":null,"canal":null,"canaltype":null},"geometry":{"type":"LineString","coordinates":[[118.406554,9.357884],[118.406554,9.357884],[118.407042533917831,9.357924195104392],[118.4080374449602,9.358048373317358],[118.4086981497924,9.358027660665895],[118.409077785148725,9.357856891337253],[118.410134226854197,9.3573376543339],[118.411172354128723,9.358212007885964],[118.414434903391509,9.355841419842834],[118.41606295982028,9.357596016838375],[118.416608982864616,9.357327831523119],[118.417023509845023,9.357643591381873],[118.417330914542532,9.358034098794777],[118.418475543328299,9.357984492372413],[118.41938693439279,9.358183693984882],[118.41975086160457,9.358311389312343],[118.420029098854954,9.358678092621119],[118.42047742917218,9.358215371837225],[118.421027906585564,9.357607558182853],[118.420947284731369,9.357460102544909],[118.422060701191697,9.356642874894805],[118.422735522135696,9.355995667964509],[118.425623101098623,9.35343560190698]]}}
]
}
