{
"type": "FeatureCollection",
"name": "Amnay RIS",
"crs": { "type": "name", "properties": { "name": "urn:ogc:def:crs:OGC:1.3:CRS84" } },
"features": [
{"type":"Feature","properties":{"id":170,"canal_id":0,"canal_type":"MAIN CANAL","remarks":"UPIT LEFT MAIN CANAL","LENGTH":1.2817,"canal_widt":null,"station_no":null,"canal_leng":null,"station__1":null,"station__2":null,"canal":null,"canaltype":null},"geometry":{"type":"LineString","coordinates":[[120.812452292522153,12.881490217663137],[120.814927085047074,12.882094567916374],[120.814960299066698,12.882103954513708],[120.815747973112039,12.882374878102173],[120.815800628073646,12.882392275870819],[120.815897030222146,12.88242096876864],[120.815930449039371,12.882429450008765],[120.816069305580442,12.882455098702636],[120.816695651743316,12.882550366658046],[120.816767317632312,12.882561267022545],[120.816804280919953,12.882569287656656],[120.816932170374855,12.882607351802678],[120.817241224451948,12.882709350049888],[120.817468342461012,12.882778552016372],[120.818092132551499,12.882987103744632],[120.818122024122871,12.882999615603287],[120.818191289824213,12.883043924645941],[120.818230735329479,12.883072441057815],[120.818657997480216,12.883415866752962],[120.819087359754747,12.883817307480584],[120.8193366372535,12.884075700016496],[120.819367400162335,12.884125689221255],[120.819594615000355,12.884814649931457],[120.819607945696731,12.884855816784166],[120.819628583403869,12.884919548576667],[120.819652584905441,12.884979645610827],[120.819702794774898,12.885089530056565],[120.819891797942688,12.88549777482457],[120.82007364753386,12.885887828149922],[120.82010708277214,12.885967009872545],[120.820114827163707,12.88598739793801],[120.820164112221349,12.88613605089399],[120.820238220395936,12.886373377877879],[120.820326015624858,12.886648477221589],[120.8203995664948,12.88687982203556],[120.820512866853548,12.887235232545393],[120.820550230973566,12.887353300858825],[120.820665411130463,12.887702749488339],[120.820759853269067,12.888028518893648]]}},
{"type":"Feature","properties":{"id":179,"canal_id":0,"canal_type":"MAIN CANAL","remarks":"INTERIOR SPRING LEFT MAIN CANAL","LENGTH":0.109,"canal_widt":null,"station_no":null,"canal_leng":null,"station__1":null,"station__2":null,"canal":null,"canaltype":null},"geometry":{"type":"LineString","coordinates":[[120.855090808694968,12.884150668295622],[120.855282581179694,12.884001968312589],[120.855533296428973,12.883845298230808],[120.855970603699006,12.883698608806016]]}},
{"type":"Feature","properties":{"id":173,"canal_id":0,"canal_type":"MAIN CANAL","remarks":"INTERIOR SPRING RIGHT MAIN CANAL","LENGTH":1.296,"canal_widt":null,"station_no":null,"canal_leng":null,"station__1":null,"station__2":null,"canal":null,"canaltype":null},"geometry":{"type":"LineString","coordinates":[[120.843567425803855,12.883350019734658],[120.843904383092351,12.88350670852042],[120.84406952701211,12.88357501773886],[120.844205606897518,12.883622046358402],[120.844452814610491,12.883669989928322],[120.844604622422167,12.883701845177852],[120.844766374659528,12.883710828192285],[120.844975015739792,12.883708720076003],[120.845566271311029,12.883652375696308],[120.846481292087859,12.883526483793641],[120.846753532605334,12.883497161241076],[120.84697157332279,12.883478869691327],[120.847068189418422,12.883466752583063],[120.847155909696482,12.883468908569053],[120.847224584496217,12.883475211801509],[120.84789324723549,12.883601218167421],[120.847963844715807,12.883607234688007],[120.847967770963137,12.88360756929354],[120.848160586759377,12.883632108273295],[120.848299104806358,12.883679154919665],[120.848466475184779,12.883772346762504],[120.848869744430473,12.883982247361013],[120.849123055279961,12.884114880012932],[120.849171112438299,12.88413822892999],[120.849211932002234,12.884152910597004],[120.849427935777371,12.884202027940857],[120.849600220103582,12.884233570431643],[120.849893905155966,12.884261806042799],[120.850322273370338,12.88427249712994],[120.850693603031743,12.88428415386098],[120.850790072654647,12.884289249769919],[120.850823607415933,12.884295016424268],[120.850918503065614,12.884318996757107],[120.851342834041176,12.884460204544256],[120.851904222909823,12.884648444641599],[120.851965489408258,12.884666162960755],[120.852003531602051,12.884663605849974],[120.852364020469466,12.884574747063667],[120.852992608885401,12.884427832103521],[120.853524456063866,12.884304559557609],[120.854337688419449,12.884114632909524],[120.854575068810902,12.88405775838679],[120.854602338195775,12.884052811845626],[120.85462335581532,12.884052209971752],[120.854639596141681,12.884053438553694],[120.854650684830546,12.884055708965866],[120.854673529315988,12.884063193970414],[120.854748597075869,12.884101311748575],[120.854879445424572,12.884165578243238],[120.854920929858395,12.884183226208139],[120.854949687469173,12.884192217719562],[120.854963613809488,12.884194910985229],[120.854984625271399,12.884196212762957],[120.85499707979541,12.884195526877313],[120.855009654201652,12.884193235862529],[120.855029609190055,12.884186724559457],[120.855090808694968,12.884150668295622]]}},
{"type":"Feature","properties":{"id":175,"canal_id":0,"canal_type":"MAIN CANAL","remarks":"AMNAY PATRICK MAIN CANAL","LENGTH":3.5884,"canal_widt":null,"station_no":null,"canal_leng":null,"station__1":null,"station__2":null,"canal":null,"canaltype":null},"geometry":{"type":"LineString","coordinates":[[120.893986699685129,12.892696710781733],[120.894234176165355,12.89255150780815],[120.894488106911723,12.892241708986342],[120.894749489485648,12.89192471762693],[120.895057071177135,12.891386906900468],[120.895250501924508,12.891018603060745],[120.895439569870362,12.890508846871423],[120.895620745230261,12.890058857234649],[120.895747450890738,12.889713585653354],[120.895910236362923,12.889252569520991],[120.896140864934225,12.888855554978074],[120.896487759612327,12.888035223230215],[120.896715099963487,12.887810420269327],[120.896810283082445,12.887698776653195],[120.897265900409238,12.887136768701644],[120.897597130697491,12.886753251679874],[120.897814358224267,12.886522020554871],[120.898134417426618,12.886258980182534],[120.898398244327495,12.886090672573808],[120.898591296352009,12.885877376929271],[120.8988386391202,12.885469614764094],[120.899205819768298,12.884874257464093],[120.899602172206485,12.884326272564792],[120.900431628369191,12.883698360455012],[120.900893534251082,12.883266933487993],[120.90152124834681,12.882231277051924],[120.901598733076753,12.882025210777444],[120.901611692236472,12.881800496891115],[120.901572753009319,12.881372305895875],[120.901519408041665,12.880898673297569],[120.901506854631691,12.879964853806086],[120.901564865359859,12.87943409602736],[120.901594877508813,12.879158753423301],[120.901714058753285,12.87893851664057],[120.901929619410893,12.878795199863751],[120.902334749131867,12.878522861869694],[120.902812978463544,12.878349013056299],[120.903632905224299,12.878196935531404],[120.904040122951528,12.878117700940804],[120.904511473536687,12.878104248593354],[120.90526725354998,12.878110294372613],[120.906207791275648,12.878121441159225],[120.906721425224504,12.878134612091081],[120.906902772901049,12.878105239542744],[120.907735821624939,12.877930590367942],[120.908250644088625,12.877800536496032],[120.909222597838493,12.877588917441141],[120.909770696035935,12.877457312923459],[120.910873261091425,12.877094432869846],[120.911303274272328,12.876940126310464],[120.911944875262122,12.876675096176267],[120.912788643300274,12.876321022321918],[120.913186745489568,12.876226288973815],[120.913419396956087,12.876249899023673],[120.913703608840635,12.876295676254536],[120.913912553169709,12.876281022803353],[120.914262595527106,12.876187718062749],[120.91497585462416,12.875972202947688],[120.915707007002908,12.875827537489249],[120.916161672743982,12.87582027637734],[120.916334967977662,12.875870607569727],[120.916513312548801,12.875980809885323],[120.916852247944163,12.876337052751353],[120.917076376272746,12.876721391397727]]}},
{"type":"Feature","properties":{"id":171,"canal_id":0,"canal_type":"MAIN CANAL","remarks":"KAMAI MAIN CANAL","LENGTH":5.0042,"canal_widt":null,"station_no":null,"canal_leng":null,"station__1":null,"station__2":null,"canal":null,"canaltype":null},"geometry":{"type":"LineString","coordinates":[[120.803510683257542,12.888927007483412],[120.80488176450207,12.889774400500459],[120.807053732775643,12.891123913864952],[120.807249645043925,12.891240323228153],[120.807323414187195,12.89127728447075],[120.807422611694733,12.891304894827766],[120.807611525116201,12.891329431328209],[120.808731642463329,12.891444018185128],[120.810402973719945,12.891624423305151],[120.812397765123393,12.891828563551098],[120.81418410069513,12.892013732401459],[120.81469455664994,12.892058165266798],[120.81484069638941,12.892068949858542],[120.815010082425914,12.892097143707437],[120.815198848724719,12.892138888890679],[120.815383682643173,12.892184426712213],[120.816079745549359,12.892410210002904],[120.817981340708272,12.89302095831969],[120.818597384336357,12.893224333900683],[120.818786001887162,12.893284236343311],[120.818884653130695,12.893315566612632],[120.819244328154369,12.893435246142301],[120.819411650443456,12.89347680977682],[120.82000373246062,12.893552518101748],[120.820582035007604,12.893643412790491],[120.821179917517398,12.893724905303364],[120.822128110598328,12.893881999817371],[120.822381066772664,12.893924987961588],[120.823027596931894,12.894034860122281],[120.823379956732424,12.894099002056281],[120.82378274353556,12.894194168004425],[120.824161985976943,12.894306352835441],[120.825225330957522,12.894676716540028],[120.825531183412139,12.894775809075849],[120.826370566028771,12.895047756866061],[120.827743125460003,12.895512495683159],[120.828045439588379,12.895611358209507],[120.828919449149964,12.895897173832681],[120.830289855867022,12.896386749390466],[120.830548208567308,12.896499835809758],[120.830664530697121,12.896577313312783],[120.831001982686288,12.896852153991702],[120.831075014262737,12.896911635064031],[120.831783956594307,12.897456928007625],[120.832360712425043,12.897918213152844],[120.832399091161733,12.897949748835725],[120.832437144254172,12.897978621339057],[120.832648010174623,12.898122468130323],[120.832683342567208,12.898151424363862],[120.832806084290922,12.898261236584785],[120.832812910440822,12.898263690733252],[120.832823260976937,12.89826510075731],[120.832828744530502,12.898265146198733],[120.83287883492369,12.898244520269296],[120.832892924548418,12.898241842135594],[120.832900239040796,12.898241544094018],[120.832907487079751,12.898241604155221],[120.832913877041605,12.898243152930762],[120.832916983399002,12.898244708927349],[120.832922293366693,12.898248500787497],[120.833008757216149,12.898327848107529],[120.833109404196378,12.898433050320923],[120.833129965011608,12.898458740168314],[120.833140465997047,12.898474579243759],[120.833181561645191,12.898554907390093],[120.833229781900954,12.898650238460815],[120.833298529819572,12.8987900997039],[120.833311384093207,12.898808227427635],[120.833327358150498,12.89881966255456],[120.833338635581953,12.898824297880665],[120.833365639929013,12.898830047301047],[120.833405630150182,12.898832599371216],[120.833498958224752,12.898830757146616],[120.833668442468095,12.898820206076261],[120.833744096758011,12.898808877654274],[120.833794089031315,12.89880570523025],[120.834159722061628,12.898801560607938],[120.834457043163013,12.898805218387436],[120.834570390878483,12.898803765961324],[120.834632538025204,12.898804280563551],[120.834687270893284,12.898816688895742],[120.834755408057774,12.898829208202626],[120.835000166177224,12.898851558372471],[120.835503272023189,12.898874851270291],[120.83586952215812,12.89889240537817],[120.836347455300441,12.898915311603236],[120.837134503439955,12.898958245637377],[120.837327196892645,12.898998095784396],[120.837463249937031,12.899048954361261],[120.837541041520041,12.899072551551571],[120.837762750917321,12.899139420891574],[120.838038871929697,12.899227780992108],[120.838128197674592,12.899270601637101],[120.838172745546714,12.899305400777987],[120.838273211074309,12.899413349546236],[120.83834613409762,12.899549762995932],[120.83845061324358,12.89975129408745],[120.83860507576729,12.900049238166938],[120.838693235547311,12.900227859686467],[120.838735209685211,12.900335324884068],[120.838758195779619,12.900383335526584],[120.838798811609365,12.900421927752957],[120.838831743509616,12.900447066682664],[120.838922937434546,12.900499466709645],[120.839059073827784,12.900540761176492],[120.839670063723588,12.900574536429966],[120.839710022277359,12.900576745271621],[120.839973187235913,12.900584657860701],[120.840059338441137,12.900575719344152],[120.840316781817833,12.900553814522915],[120.84041152134715,12.90054575345173],[120.840438750442587,12.900543695263059],[120.840497604818239,12.900541063691197],[120.840545891227819,12.900541241119432],[120.840744666955274,12.900550747752117],[120.841022273743633,12.900564024300753],[120.841209556841321,12.900572980951427],[120.841254747095519,12.900579463940964],[120.841308789243953,12.900591862046097],[120.841400131544177,12.900627047055204],[120.841577118335763,12.900705131743901],[120.841699248873923,12.900752955985118],[120.841832851833203,12.900800930021918],[120.841867065983294,12.900810639446163],[120.841917688367673,12.900821593583295],[120.841955106646878,12.900825986426918],[120.842008834140501,12.900829544523829],[120.842064633578403,12.900827183665928],[120.842088204980413,12.900824078568688],[120.842123347351702,12.900816411087257],[120.842246955738503,12.900780061922221],[120.842708405874404,12.900637844172442],[120.844039570996543,12.900252867242255],[120.84443246778055,12.900139423640237],[120.844649494798972,12.900070437807454],[120.844768707255383,12.900038902249189],[120.844813665876188,12.90002588297199],[120.844881972196532,12.900018794612743],[120.844991141098106,12.90002160716667],[120.845059431040823,12.900016431458418],[120.845870356882941,12.899814614167649],[120.845955258775348,12.89979453344508],[120.845982619864458,12.899782663781396],[120.845997717660467,12.899773560991939],[120.846006172057926,12.89976628453263],[120.84602087195843,12.899747295234329],[120.846033154441557,12.899723548922248],[120.846100231598825,12.899551146236176]]}},
{"type":"Feature","properties":{"id":176,"canal_id":0,"canal_type":"MAIN CANAL","remarks":"PULONG CATMON MAIN CANAL","LENGTH":2.4873,"canal_widt":null,"station_no":null,"canal_leng":null,"station__1":null,"station__2":null,"canal":null,"canaltype":null},"geometry":{"type":"LineString","coordinates":[[120.890666771630833,12.902629956841317],[120.890450025166672,12.902598153220534],[120.890173033115914,12.902595918071865],[120.889955509692072,12.902656776773789],[120.889775786404599,12.902776797709393],[120.889636210964412,12.902828266989614],[120.8895110967173,12.902829761594043],[120.889321051022534,12.902810695405277],[120.889030816347599,12.902713178594167],[120.888836846886107,12.902705350934447],[120.888609999183373,12.902812467616267],[120.888311758314359,12.903060515337689],[120.887931911830975,12.903449411236572],[120.887580331427145,12.903664467633515],[120.887057708058421,12.904029667107764],[120.886290892152743,12.904590751294617],[120.885972455038939,12.904811082186239],[120.88582615883675,12.904902567762562],[120.88572997110542,12.904955637846324],[120.88558913848405,12.905004589925829],[120.88540360833403,12.905055684900779],[120.885238354261389,12.905124475691746],[120.885074313413696,12.905200789859766],[120.884686871480753,12.905429326529006],[120.884320063091792,12.905632983940663],[120.883924725790521,12.90581355569503],[120.883756870579091,12.90588795960802],[120.883521926718643,12.905970586119144],[120.883056843840123,12.906133685865409],[120.882657121510761,12.906266320293733],[120.882505379777868,12.906322069663439],[120.881931510991919,12.906555978738023],[120.881697236011433,12.906634852010459],[120.88140917494573,12.906733951645592],[120.88101871086613,12.906866032197636],[120.880859495496068,12.906925027145467],[120.880773458477833,12.907187131070541],[120.880607094147464,12.907387398547243],[120.880473348544754,12.907504027901611],[120.8801763818621,12.907750822305017],[120.880004267607262,12.9078759060694],[120.879741765935918,12.907971454055703],[120.879517674636645,12.908053538376729],[120.879151545460047,12.908175794922606],[120.878839028179797,12.908298486053855],[120.87871030355906,12.908349410623911],[120.878271566570362,12.908528681059821],[120.877984752537685,12.90863091719241],[120.877840688717356,12.908684221273568],[120.87758969515383,12.908777355748745],[120.877455864190225,12.908828238152246],[120.877195935015337,12.908921299627638],[120.876961588193268,12.909008307285088],[120.876638894309366,12.909126529828159],[120.876299590033156,12.909246495345402],[120.876090867564173,12.909322439918119],[120.875767561220115,12.909437525600884],[120.875563300895237,12.909514132112671],[120.875334069675375,12.909599927456281],[120.875063352583709,12.909685385219401],[120.874929584298471,12.909728753053914],[120.874607264617936,12.909802520193558],[120.874131454351357,12.909911980225543],[120.873647900181254,12.910031394480047],[120.87334238346304,12.910144736971933],[120.872697460783868,12.910319082358759],[120.872530994362933,12.910397358194034],[120.872029501424208,12.910511678788174],[120.871349687419269,12.910637859916882],[120.870041634710319,12.910859780306781],[120.869971425999267,12.910874939060797]]}},
{"type":"Feature","properties":{"id":177,"canal_id":0,"canal_type":"LATERAL CANAL","remarks":"LATERAL B","LENGTH":0.3251,"canal_widt":null,"station_no":null,"canal_leng":null,"station__1":null,"station__2":null,"canal":null,"canaltype":null},"geometry":{"type":"LineString","coordinates":[[120.839670063723588,12.900574536429966],[120.83975246735659,12.901030098452175],[120.83988082772791,12.901593835802149],[120.839927323503275,12.901798037087145],[120.839982648968686,12.902041016538179],[120.840281442643729,12.903009462838238],[120.840389655238965,12.903423732317027]]}},
{"type":"Feature","properties":{"id":178,"canal_id":0,"canal_type":"MAIN CANAL","remarks":"SOUTH MAIN CANAL","LENGTH":6.6606,"canal_widt":null,"station_no":null,"canal_leng":null,"station__1":null,"station__2":null,"canal":null,"canaltype":null},"geometry":{"type":"LineString","coordinates":[[120.868974834213518,12.903003394078091],[120.868941464593007,12.902936862326053],[120.868912820885583,12.902898441404457],[120.868882576329582,12.902872982596568],[120.868665695979431,12.902752139076112],[120.867932824950373,12.902429107084306],[120.867252369144069,12.902133759109708],[120.866437939979448,12.901771322783405],[120.866406675878679,12.901757715063933],[120.865636666139295,12.901422566291622],[120.865081423242771,12.901180893506163],[120.863772798750546,12.900577220282791],[120.86243650562632,12.899979691404107],[120.861632779404772,12.89962163349735],[120.861226063207596,12.899440172982564],[120.861117239166347,12.899376747338577],[120.860862795687396,12.899232498921576],[120.860848271218146,12.899224464429789],[120.860794707294119,12.899190338603839],[120.860765475289071,12.899168824054064],[120.860628618604736,12.899044346948846],[120.860027179278163,12.898496168652166],[120.859172353264228,12.89770202638687],[120.858853657189428,12.897391943001864],[120.858620861995362,12.897187079986564],[120.858414018797291,12.897008976190117],[120.858274454618467,12.89689766163526],[120.858226013173294,12.896862389013927],[120.858124276249242,12.896795847253994],[120.857974764061495,12.896703294043283],[120.857818934857477,12.89661632682388],[120.857754315532915,12.896583292336924],[120.857299352484915,12.896396710048153],[120.857236655819761,12.896369672983242],[120.85687981883521,12.89619937529069],[120.85674138964238,12.896140855612426],[120.856622661316564,12.896058586722441],[120.855046532535809,12.895390516947971],[120.854097176498215,12.894964295734589],[120.85382405920744,12.894837622589337],[120.853735314152985,12.894800812746603],[120.853683350211313,12.894784251000786],[120.853627770050181,12.89477174417495],[120.853585676163277,12.894764780245676],[120.853496936472595,12.894756131355798],[120.853425771589997,12.894755547391194],[120.853368855990112,12.894759671328616],[120.853301870454985,12.894767791916918],[120.853284804742088,12.894770800667979],[120.853230809803378,12.894782057883564],[120.853179999335609,12.894794805999817],[120.853060727087708,12.894824420996995],[120.853014557889693,12.894838004446703],[120.852663813212374,12.894950203144758],[120.852158327791528,12.895103801644044],[120.851532768476986,12.895292339616095],[120.851352032679586,12.895336285056514],[120.851156694427118,12.895377719352638],[120.850973439765397,12.89543120802235],[120.850888078748355,12.895437679858375],[120.850768740704339,12.895427135142075],[120.850493773027054,12.895374663673774],[120.848013767704956,12.894952576595394],[120.845962054374695,12.894586597210056],[120.844947627629296,12.894361852721158],[120.844163336480335,12.894159325059574],[120.843350961531272,12.893948918524769],[120.842426977711398,12.893708645336732],[120.841613661754081,12.893480765340938],[120.84111019476677,12.893350261479934],[120.840918147182691,12.893300480475872],[120.84053637352612,12.893198101441993],[120.840405200863998,12.89314680690905],[120.839962040711441,12.892955452050685],[120.839016886733518,12.892555756291447],[120.838699383688763,12.892405367713604],[120.8385293345127,12.8922834548111],[120.838439057434613,12.892209752567249],[120.838360673142788,12.892113463629551],[120.837956138032965,12.89132705779363],[120.837573339027955,12.890555903243301],[120.837372161353088,12.890150625940329],[120.837182601636712,12.889790476424315],[120.836934507218984,12.88931911381148],[120.836733576091987,12.888900166303936],[120.836654971502483,12.888736273000147],[120.836592814024272,12.888625750405341],[120.836566438367257,12.888582181772872],[120.836511528466673,12.888503388497654],[120.836285781202307,12.8882089745854],[120.836239656827502,12.8881587982456],[120.836191120050813,12.888117282471786],[120.836122932236407,12.88806516842409],[120.835571414019043,12.88769688680418],[120.834361697554101,12.887017391664362],[120.833712948888703,12.886661263048536],[120.833649620951519,12.886617876380893],[120.833544431930633,12.886536688236356],[120.833228813436918,12.886260819542597],[120.832642621196939,12.885675941572833],[120.832563773024631,12.885587354643722],[120.831636020151223,12.884430450496044],[120.831212585853137,12.884007958543],[120.831203953636944,12.884003669132225],[120.831182835704311,12.883997064915285],[120.831118867550543,12.883989804420489],[120.831036490374728,12.884004065826158],[120.830829703205026,12.884050289225042],[120.830736563892088,12.884081839591493],[120.829637986913752,12.88445397248921],[120.8295169430817,12.884489139871729],[120.829099148573832,12.884578865065704],[120.82904567669874,12.884590348585576],[120.828942283008132,12.884603598500012],[120.828773766734159,12.884618929525905],[120.828668117113082,12.884624528334236],[120.828593929168875,12.884610375056187],[120.827540283575942,12.884098091488788],[120.827466504574176,12.88407951240591],[120.827313162134217,12.884068831701663],[120.82712434707021,12.884061287027007],[120.826871380682661,12.884074131106118],[120.826527902192325,12.88408114057019],[120.825213894475681,12.884099220845794],[120.824723725816,12.884097324351531],[120.823867408977009,12.884094009003368],[120.822420011797618,12.88413278231763],[120.820835429536316,12.884125125423903],[120.820743384951726,12.884126841329975],[120.820712248075964,12.88412427181691],[120.82063605227431,12.884113534958733],[120.820396204839255,12.884066945926936],[120.820339986948895,12.884049567559497],[120.820145324741759,12.883970374615375],[120.820090201041751,12.883940265161385],[120.819767169753945,12.883710208192985],[120.819304486916394,12.883314827067744],[120.818884219623541,12.88294669752684],[120.817842329428245,12.882244623902629],[120.81666848457786,12.881302346296863],[120.816483889929614,12.88156723734291],[120.816437866693718,12.881647191253725],[120.816400740732917,12.881712873332097],[120.816276144269779,12.881931738491112],[120.816262161997784,12.881943434219785],[120.816241726447586,12.881946392754317],[120.816204712586554,12.881926933982818]]}},
{"type":"Feature","properties":{"id":174,"canal_id":0,"canal_type":"MAIN CANAL","remarks":"OLD INTAKE MAIN CANAL","LENGTH":10.6631,"canal_widt":null,"station_no":null,"canal_leng":null,"station__1":null,"station__2":null,"canal":null,"canaltype":null},"geometry":{"type":"LineString","coordinates":[[120.8005642515771,12.895814232609137],[120.801074941825661,12.895947504882008],[120.802279529113861,12.89628320595768],[120.803025823043484,12.896478560815485],[120.803425648413267,12.896590862092356],[120.803574752790169,12.896618410900434],[120.803852266834141,12.896704640007824],[120.804143510676255,12.896858737194687],[120.804366166047984,12.897028733541324],[120.80491498471396,12.897135559702072],[120.805370678075363,12.897208882214667],[120.805604393858502,12.897267819360041],[120.806059324816317,12.897341411015622],[120.806361615005088,12.897381862768626],[120.806846761553658,12.897438907531773],[120.807320448364678,12.897503855594483],[120.807749590929546,12.897548150427456],[120.808315103614632,12.89769000862732],[120.808916191935282,12.897850947112886],[120.808998883386167,12.897882945494649],[120.809404933452655,12.898014073857409],[120.810156314030721,12.89821320920729],[120.81189186986235,12.898557071724616],[120.81334016765247,12.898760776593894],[120.814099616038746,12.898913636431338],[120.815186595292602,12.899126833382525],[120.815593260727283,12.899187833233222],[120.816182210005209,12.899277903865325],[120.816967212394772,12.899428464797193],[120.818518422673264,12.89968935181766],[120.819825037518896,12.899894344896653],[120.821148075159542,12.900119504322735],[120.822269901335588,12.900290387866786],[120.823113735901643,12.900428898963357],[120.823764760382289,12.900574568440964],[120.824636364299664,12.900749620828314],[120.825591033163889,12.900914091153389],[120.826469298308879,12.901057261141888],[120.827270851111933,12.901214817712205],[120.827717002464922,12.901286771752796],[120.828525361486669,12.901469426007852],[120.829344072874264,12.901562002682374],[120.830048481153298,12.901639052662414],[120.831570962346021,12.901908001649273],[120.832772219166998,12.90211880792368],[120.834030021372001,12.902330077432895],[120.834575175241753,12.902424495879465],[120.834775536124496,12.902448322818765],[120.83532584515028,12.902480374623787],[120.836381916160633,12.902682789895476],[120.837661779252926,12.902937263892005],[120.839201756561678,12.903211529572856],[120.839592628241277,12.903286883468123],[120.840389655238965,12.903423732317027],[120.840711146617366,12.90347893139889],[120.841584825274495,12.903645721403864],[120.841868056182889,12.903704339274171],[120.841896954179646,12.903710926977878],[120.841974668999427,12.903725059666051],[120.842036574577463,12.903729338973006],[120.842070630975215,12.903726087056024],[120.84211562564208,12.903719923148561],[120.842247059579265,12.903686267567046],[120.842349515210614,12.903665915352114],[120.8424301331154,12.903653417666103],[120.842646125137932,12.903627621332589],[120.843609080588294,12.903490896453922],[120.843953935886759,12.903440740405296],[120.843990392864114,12.903439415499573],[120.844024851696105,12.903441973929594],[120.844122794973586,12.903454187851374],[120.844185032203754,12.903465269752228],[120.8444161821607,12.903518521114696],[120.84451573342217,12.903542838393665],[120.845169821881427,12.903689967457105],[120.845368332245471,12.903738668277713],[120.845544773608609,12.903786938919993],[120.845580968832905,12.903796133300963],[120.845620615178788,12.903803012059408],[120.845645212256201,12.903806216008132],[120.845710275299751,12.903812452269243],[120.845734657688453,12.903813959061274],[120.845804220095417,12.903814881513776],[120.84585789207442,12.903820090152582],[120.845945852023277,12.903832964361055],[120.846012224797576,12.903847970374217],[120.846025958967132,12.903851459128676],[120.846194480605249,12.903890431801937],[120.846567072670126,12.903970921736391],[120.846610184676351,12.903979496821496],[120.847262381159553,12.904135036586698],[120.847690180048602,12.904237059701902],[120.849011197449286,12.904527685428972],[120.849412705440599,12.904605111441006],[120.849585482588637,12.904637616460617],[120.849748633524058,12.904655695902777],[120.84993896180147,12.904630959924123],[120.850112249927633,12.904603692607431],[120.850260920609543,12.904604915300487],[120.850492477377614,12.904604428445809],[120.850636130648212,12.904622347009184],[120.850678370363553,12.90462344787916],[120.850770157612729,12.904625840055207],[120.850882290413381,12.904624370932115],[120.850952929106796,12.904629733778531],[120.8510185912303,12.90464701094092],[120.851070686716227,12.904673989711238],[120.851189570499358,12.904744543540453],[120.851239016337033,12.904779892955309],[120.85137768499267,12.90489239948648],[120.851400744459156,12.904912800666393],[120.851544038789569,12.905053026542362],[120.851612015795482,12.905084668905127],[120.851641553217476,12.905094597970194],[120.852022254734052,12.905254138955636],[120.852406071619058,12.905433114374407],[120.85261008506005,12.905518477306096],[120.852809224184583,12.905603800057259],[120.853081786749954,12.905653859983929],[120.853809391164859,12.90577864576913],[120.854077496757711,12.905817237254432],[120.855207296265093,12.905929543612462],[120.856101194919859,12.906003826754359],[120.856542173758058,12.906026571901586],[120.857168546697011,12.906031707832277],[120.858260353368351,12.906050220726627],[120.858760051020056,12.90604714164582],[120.859448586348918,12.905982245782999],[120.859787029605684,12.905950346125747],[120.860204023616973,12.905927458540893],[120.860467202916752,12.905891335056529],[120.860516378452203,12.905884585285902],[120.860916637025056,12.905823302537689],[120.860979557948852,12.90581610944195],[120.861097834883665,12.905800691477928],[120.861183001676693,12.905787900395001],[120.861401133134009,12.90574779023652],[120.861583336782843,12.905713363002748],[120.862376634738325,12.905538754695879],[120.863311991657127,12.905324033212178],[120.864235486034161,12.905070954120792],[120.864726713112319,12.904917156767148],[120.865352434828694,12.904711853208843],[120.866151991352012,12.904414715300497],[120.866435705766648,12.904299868594945],[120.867267836204462,12.903897785538192],[120.868445175309759,12.903314401629624],[120.868974834213518,12.903003394078091],[120.87002760895993,12.902385215052888],[120.870583957263122,12.90202391212471],[120.871145846081774,12.90158374729288],[120.872644789347575,12.900413159777717],[120.873393798891414,12.899749749555131],[120.874057300259736,12.89910955227047],[120.875033627925148,12.898044363955014],[120.875516141389951,12.897549145016013],[120.87556255121541,12.897499783173119],[120.875639537109706,12.897563266222143],[120.875789746455709,12.897612907515986],[120.876125195182865,12.897695777358923],[120.876293514175217,12.897717180574441],[120.876608717764583,12.897677997414547],[120.877383927124129,12.897584108154671],[120.878309255330137,12.897449691843121],[120.878551361384254,12.897399895037008],[120.878918240710234,12.897287661270372],[120.879607721105188,12.897066172482139],[120.880783436392051,12.896706697074285],[120.881896052478311,12.896361732240969],[120.882962462281654,12.896046442932157],[120.88382419357194,12.895782923661155],[120.884394141940504,12.895607205704156],[120.885489941865401,12.895237042456939],[120.88686514377882,12.89483406740152],[120.888177400404871,12.894427236886562],[120.888610842804923,12.894292149584237],[120.889597068691913,12.893997889693956],[120.890286261931621,12.893808927025926],[120.890493541446361,12.893757575201539],[120.89212255712215,12.893267046324883],[120.893149415666159,12.892952975490076],[120.893921335955142,12.892735061860781],[120.893986699685129,12.892696710781733]]}},
{"type":"Feature","properties":{"id":181,"canal_id":0,"canal_type":"MAIN CANAL","remarks":"SALIFIA RIGHT MAIN CANAL","LENGTH":0.1694,"canal_widt":null,"station_no":null,"canal_leng":null,"station__1":null,"station__2":null,"canal":null,"canaltype":null},"geometry":{"type":"LineString","coordinates":[[120.854602994379931,12.876172439218086],[120.854571851800841,12.876232292614684],[120.854455374245077,12.876195649168949],[120.854258086638779,12.876430710163921],[120.853887790583514,12.876972409240855],[120.854207516078418,12.877198557068034]]}},
{"type":"Feature","properties":{"id":183,"canal_id":0,"canal_type":"LATERAL CANAL","remarks":"SALIFIA LATERAL A","LENGTH":0.3013,"canal_widt":null,"station_no":null,"canal_leng":null,"station__1":null,"station__2":null,"canal":null,"canaltype":null},"geometry":{"type":"LineString","coordinates":[[120.847944913827405,12.874454410396018],[120.847927173993682,12.874622484012233],[120.847925699228341,12.8747952830815],[120.847974240037701,12.874940317296259],[120.84803622998767,12.875079826844772],[120.848045289185919,12.875140009505524],[120.848039252781348,12.875286473752565],[120.848044826597175,12.875530709264631],[120.848050961451136,12.875709205997497],[120.848072251474576,12.875906611057374],[120.848067989777064,12.875957292372664],[120.848001905010008,12.876073209166798],[120.847902585347384,12.876269623312924],[120.847835907187019,12.876455035302424],[120.847790416030094,12.87662559429041],[120.847722871800102,12.876912431729165],[120.847672036690795,12.877082683305744]]}},
{"type":"Feature","properties":{"id":180,"canal_id":0,"canal_type":"LATERAL CANAL","remarks":"LATERAL A","LENGTH":2.5776,"canal_widt":null,"station_no":null,"canal_leng":null,"station__1":null,"station__2":null,"canal":null,"canaltype":null},"geometry":{"type":"LineString","coordinates":[[120.861815793184761,12.881471334859414],[120.861862727059219,12.881473678339596],[120.861930943315457,12.881476626440342],[120.86198687306414,12.881491429543068],[120.862084049620222,12.881528089035886],[120.862117802829843,12.88157140386588],[120.862141726839695,12.881624202714645],[120.862175561196324,12.881657953927611],[120.862211994832748,12.881672597808841],[120.862270605037821,12.881658729917183],[120.862468551327382,12.881595787078592],[120.862568692260012,12.881570302803732],[120.862634593220562,12.88155888540882],[120.862768588845498,12.881564761308313],[120.862985118853828,12.88160956788318],[120.86322092216534,12.881680833347863],[120.863359528451255,12.881717830498333],[120.863434751882551,12.881756701457459],[120.863519743708352,12.881793261034561],[120.863689686910092,12.88187116192845],[120.864083107232986,12.882036964432412],[120.864935364680065,12.882414531723244],[120.865401391674922,12.882640701391235],[120.865874123322612,12.882866705818806],[120.866146018942459,12.882993257838569],[120.866386132101098,12.883131505978557],[120.866478091939229,12.883208769777116],[120.866562558520187,12.883307492162123],[120.866738236261483,12.883571941933649],[120.866978877292297,12.884035071702977],[120.867086248275612,12.884107250009963],[120.867332386551695,12.884512868851344],[120.867539775396594,12.884889479002],[120.867647547397254,12.885056775793148],[120.867697671740771,12.885124134221057],[120.867796262220736,12.885224406055576],[120.868026425672554,12.885444346888065],[120.868258781946793,12.885635612511049],[120.868539168000069,12.885911434995514],[120.869204819313651,12.886511754687868],[120.869404146432004,12.886689360632788],[120.869464214001383,12.886733845419377],[120.869489397893901,12.886753179037713],[120.869520479316961,12.886766822070063],[120.869535963414137,12.886780338143668],[120.869576631418852,12.886813187828462],[120.869619054996349,12.886869006150981],[120.869663638536181,12.886899974832792],[120.869752821825159,12.886959999447331],[120.870319909610188,12.887226676595903],[120.871069637619783,12.887569440082888],[120.871740470635686,12.887903908702752],[120.872480438546404,12.888248502205338],[120.87252740258424,12.888276016390053],[120.872708898922951,12.888382347065459],[120.872838204325845,12.888482388906688],[120.872920826437777,12.88856913942676],[120.873010432846684,12.888694682236972],[120.873065090348973,12.888802725192972],[120.873119493505982,12.888940893723349],[120.873217664354598,12.889264487785807],[120.873327848491016,12.889550878572063],[120.873446079696819,12.88992341373954],[120.873618617911646,12.890445593816853],[120.87378988819637,12.890944809161619],[120.873869680478364,12.891193652021494],[120.873909497940488,12.891327398037079],[120.873954425763216,12.891548699244376],[120.873981442894717,12.891812894428273],[120.873980573545353,12.891999717731281],[120.873979647121345,12.892198800762136],[120.873958834837907,12.892931737902682],[120.873928488620265,12.893581387802852],[120.873898752700796,12.89450506075667],[120.873895654912303,12.894698713324859],[120.873903350489016,12.894826459717198],[120.873933885598134,12.895020385638739],[120.874005434312522,12.895379629649755],[120.874092402205193,12.895817904732748],[120.874099180686486,12.895881084425479],[120.87411643761466,12.895915656281081],[120.874121959744613,12.895954436712614],[120.874127457645756,12.89599608624734],[120.874151880285822,12.89607936091698],[120.874165837519001,12.896126951329986],[120.874275216402239,12.896335864539692],[120.87435167702067,12.896459865845696],[120.874395134467534,12.896508997121856],[120.874458979492204,12.896568336625528],[120.874519863584652,12.89663195600729],[120.874538582921772,12.896666539733468],[120.874576336545772,12.896698408834366],[120.87475054224177,12.896850462697099],[120.875077007439458,12.897155826512353],[120.875357333179366,12.897383344065446],[120.875417009665071,12.897416825816467],[120.87556255121541,12.897499783173119]]}},
{"type":"Feature","properties":{"id":182,"canal_id":0,"canal_type":"MAIN CANAL","remarks":"SALIFIA LEFT MAIN CANAL","LENGTH":2.5732,"canal_widt":null,"station_no":null,"canal_leng":null,"station__1":null,"station__2":null,"canal":null,"canaltype":null},"geometry":{"type":"LineString","coordinates":[[120.854691445784752,12.875902675523355],[120.854691445784752,12.875902675523355],[120.854698067257317,12.875855770006421],[120.854586260079074,12.875832783216575],[120.854544234217826,12.87582163826864],[120.854395906586717,12.875703024012459],[120.854200755210911,12.875574634187563],[120.853747442453695,12.875410318189587],[120.853610813763481,12.875491847824378],[120.853481914707288,12.875564987965172],[120.853442508782763,12.875583448941205],[120.853310313351628,12.875509116756453],[120.853175926446525,12.875412209355886],[120.852990060353505,12.875317705831424],[120.852823296355979,12.875340758008806],[120.852602816119699,12.875376518450121],[120.852282681105407,12.875423671178272],[120.852164871199577,12.875431157988224],[120.852032097804866,12.875397197534054],[120.851791025676519,12.875265612001806],[120.851690837855287,12.875227222647654],[120.851520485124738,12.875222068758069],[120.851263718755732,12.875247199325361],[120.851056647646118,12.875282129238956],[120.850902327524892,12.875305282250379],[120.85072138141112,12.875307554467625],[120.850649798246266,12.875282548125963],[120.850419288555159,12.875147291345383],[120.850179022816292,12.875033555759694],[120.849910205302322,12.875012565683274],[120.849739692773127,12.875026193192845],[120.849577222404704,12.874994805384377],[120.849425958338998,12.874996381200619],[120.84928902848479,12.875000892189677],[120.849051130507959,12.874946344188265],[120.848942536758045,12.874883465854873],[120.848858514354603,12.874745653915884],[120.848778653181114,12.874681133086053],[120.848646709919862,12.874662204920858],[120.848351636118736,12.874577132674737],[120.847932469572157,12.874450655519539],[120.847589567852438,12.874361432817924],[120.847269115230986,12.874221677867132],[120.846633045373935,12.873936571544476],[120.846162993976392,12.873715754554485],[120.846025516929572,12.873672360730005],[120.845717071285691,12.87369612191757],[120.845389465435446,12.873721603535975],[120.844806913243389,12.873783494334479],[120.84419020657603,12.873809413553284],[120.843378607223499,12.87378958515818],[120.843313187853724,12.873827553360984],[120.843183974316602,12.873937313878361],[120.843064292583563,12.874051848734799],[120.842918717922771,12.874171805452002],[120.842761801236904,12.874274763279645],[120.842520537576931,12.874390175000014],[120.842270980280375,12.874467950629896],[120.842101240896866,12.874503180841778],[120.841822275182551,12.87454972056241],[120.841661496252556,12.874544639217552],[120.841494298244697,12.874506633317377],[120.841372241838911,12.874451154723182],[120.841218742349014,12.874378511599881],[120.841086977322732,12.874338919072816],[120.84093122587781,12.874305703112544],[120.840702026870787,12.874241827700169],[120.840526222483575,12.874202811107729],[120.840364912994531,12.874147947716786],[120.840123222409161,12.874089603985031],[120.839719128818444,12.87399235345093],[120.83946301618009,12.873941403721174],[120.839044428365625,12.873859998851644],[120.838723917818655,12.873839510388125],[120.838184207702469,12.873817212848643],[120.837873944876236,12.873829679420659],[120.837490572216197,12.873883805494627],[120.837023697230535,12.873963538761707],[120.836979359763234,12.873998861730461],[120.836966987224756,12.874102069940342],[120.836982734699845,12.874275010023162],[120.836992513388552,12.874474198007167],[120.83694579416877,12.874563974024174],[120.836834323258287,12.874613769582925],[120.836667511610358,12.874642446017766],[120.836460626214361,12.874655764423272],[120.836183084887409,12.874647836997005],[120.836043622997138,12.874612874373673],[120.83575709008835,12.874537250952081],[120.835315587017888,12.874449076542863],[120.83507052659435,12.874448929837842],[120.83486730902969,12.874481060983069],[120.834848164945655,12.874480902759753],[120.834711437969617,12.874461928195963],[120.83440240075889,12.874331644714802],[120.834193499170709,12.874245391223132],[120.833649716954142,12.874028639651721],[120.833239443625544,12.873871220675191],[120.832988689302738,12.873865389913352],[120.832816134927455,12.873894016398454]]}},
{"type":"Feature","properties":{"id":172,"canal_id":0,"canal_type":null,"remarks":"LATERAL C","LENGTH":2.1857,"canal_widt":0.0,"station_no":null,"canal_leng":2185.714,"station__1":null,"station__2":null,"canal":null,"canaltype":null},"geometry":{"type":"LineString","coordinates":[[120.837182601636712,12.889790476424315],[120.838440145132481,12.88921276697123],[120.838645248820157,12.889097898122921],[120.838804760136028,12.888970697394349],[120.83900763768672,12.888760168429068],[120.839327941211138,12.888356337150158],[120.839420868678189,12.888177776688902],[120.839547975314304,12.887871670017146],[120.839728835398574,12.887436109010968],[120.839903528649984,12.886959343603561],[120.840127730452323,12.886393322630278],[120.840189988592186,12.886238418970377],[120.840209265557291,12.886122014984018],[120.840210239162801,12.886008448763267],[120.840186996213916,12.885876749947355],[120.840123895395976,12.885774610209999],[120.839997207068436,12.885627113816225],[120.839414554684495,12.885006613444611],[120.839109623878244,12.88468429544406],[120.838979659710418,12.88456367082548],[120.838879722532923,12.884494103547606],[120.8386217642785,12.884378399694397],[120.837755951067621,12.884084295651135],[120.837314315710685,12.883939613336395],[120.836759770913815,12.8837471947023],[120.835939189702671,12.883432360505104],[120.835285643361345,12.883175256213272],[120.83414619712515,12.882714853659538],[120.833318216177602,12.882415148722737],[120.83222858626894,12.882218292837809],[120.831478250374232,12.8820852898161],[120.83116564455365,12.881923978871649],[120.830678925203102,12.881638192378473],[120.829960765245076,12.881215245106416],[120.828863239606093,12.880824839802651],[120.828405034231011,12.880674528093783],[120.827523117842617,12.880370431973232],[120.826842580071116,12.880248326857252]]}}
]
}
