{
  "type": "FeatureCollection",
  "name": "Amnay RIS",
  "crs": {
    "type": "name",
    "properties": {
      "name": "urn:ogc:def:crs:OGC:1.3:CRS84"
    }
  },
  "features": [
    {
      "type": "Feature",
      "properties": {
        "id": 170,
        "canal_id": 170,
        "canal_type": "Main",
        "remarks": "UPIT LEFT MAIN CANAL",
        "LENGTH": 1.2817,
        "canal_widt": null,
        "station_no": "STA 0+000",
        "canal_leng": 1281.66,
        "station__1": "STA 1+281.7",
        "station__2": "1281.66",
        "canal": "UPIT LEFT MAIN CANAL",
        "canaltype": "Main Canal",
        "canal_lining": "Unspecified"
      },
      "geometry": {
        "type": "LineString",
        "coordinates": [
          [
            120.82075985326907,
            12.888028518893648
          ],
          [
            120.82066541113046,
            12.887702749488339
          ],
          [
            120.82055023097357,
            12.887353300858825
          ],
          [
            120.82051286685355,
            12.887235232545393
          ],
          [
            120.8203995664948,
            12.88687982203556
          ],
          [
            120.82032601562486,
            12.88664847722159
          ],
          [
            120.82023822039594,
            12.886373377877879
          ],
          [
            120.82016411222135,
            12.88613605089399
          ],
          [
            120.8201148271637,
            12.88598739793801
          ],
          [
            120.82010708277214,
            12.885967009872545
          ],
          [
            120.82007364753386,
            12.885887828149922
          ],
          [
            120.81989179794269,
            12.88549777482457
          ],
          [
            120.8197027947749,
            12.885089530056565
          ],
          [
            120.81965258490544,
            12.884979645610827
          ],
          [
            120.81962858340387,
            12.884919548576667
          ],
          [
            120.81960794569673,
            12.884855816784166
          ],
          [
            120.81959461500036,
            12.884814649931457
          ],
          [
            120.81936740016234,
            12.884125689221255
          ],
          [
            120.8193366372535,
            12.884075700016496
          ],
          [
            120.81908735975475,
            12.883817307480584
          ],
          [
            120.81865799748022,
            12.883415866752962
          ],
          [
            120.81823073532948,
            12.883072441057815
          ],
          [
            120.81819128982421,
            12.883043924645941
          ],
          [
            120.81812202412287,
            12.882999615603287
          ],
          [
            120.8180921325515,
            12.882987103744632
          ],
          [
            120.81746834246101,
            12.882778552016372
          ],
          [
            120.81724122445195,
            12.882709350049888
          ],
          [
            120.81693217037486,
            12.882607351802678
          ],
          [
            120.81680428091995,
            12.882569287656656
          ],
          [
            120.81676731763231,
            12.882561267022545
          ],
          [
            120.81669565174332,
            12.882550366658046
          ],
          [
            120.81606930558044,
            12.882455098702636
          ],
          [
            120.81593044903937,
            12.882429450008765
          ],
          [
            120.81589703022215,
            12.88242096876864
          ],
          [
            120.81580062807365,
            12.882392275870819
          ],
          [
            120.81574797311204,
            12.882374878102173
          ],
          [
            120.8149602990667,
            12.882103954513708
          ],
          [
            120.81492708504707,
            12.882094567916374
          ],
          [
            120.81245229252215,
            12.881490217663137
          ]
        ]
      }
    },
    {
      "type": "Feature",
      "properties": {
        "id": 179,
        "canal_id": 179,
        "canal_type": "Main",
        "remarks": "INTERIOR SPRING LEFT MAIN CANAL",
        "LENGTH": 0.109,
        "canal_widt": null,
        "station_no": "STA 0+000",
        "canal_leng": 108.98,
        "station__1": "STA 0+109.0",
        "station__2": "108.98",
        "canal": "INTERIOR SPRING LEFT MAIN CANAL",
        "canaltype": "Main Canal",
        "canal_lining": "Unspecified"
      },
      "geometry": {
        "type": "LineString",
        "coordinates": [
          [
            120.85509080869497,
            12.884150668295622
          ],
          [
            120.8552825811797,
            12.884001968312589
          ],
          [
            120.85553329642897,
            12.883845298230808
          ],
          [
            120.855970603699,
            12.883698608806016
          ]
        ]
      }
    },
    {
      "type": "Feature",
      "properties": {
        "id": 173,
        "canal_id": 173,
        "canal_type": "Main",
        "remarks": "INTERIOR SPRING RIGHT MAIN CANAL",
        "LENGTH": 1.296,
        "canal_widt": null,
        "station_no": "STA 0+000",
        "canal_leng": 1295.99,
        "station__1": "STA 1+296.0",
        "station__2": "1295.99",
        "canal": "INTERIOR SPRING RIGHT MAIN CANAL",
        "canaltype": "Main Canal",
        "canal_lining": "Unspecified"
      },
      "geometry": {
        "type": "LineString",
        "coordinates": [
          [
            120.85509080869497,
            12.884150668295622
          ],
          [
            120.85502960919005,
            12.884186724559457
          ],
          [
            120.85500965420165,
            12.88419323586253
          ],
          [
            120.85499707979541,
            12.884195526877313
          ],
          [
            120.8549846252714,
            12.884196212762957
          ],
          [
            120.85496361380949,
            12.88419491098523
          ],
          [
            120.85494968746917,
            12.884192217719562
          ],
          [
            120.8549209298584,
            12.884183226208139
          ],
          [
            120.85487944542457,
            12.884165578243238
          ],
          [
            120.85474859707587,
            12.884101311748575
          ],
          [
            120.85467352931599,
            12.884063193970414
          ],
          [
            120.85465068483055,
            12.884055708965866
          ],
          [
            120.85463959614168,
            12.884053438553694
          ],
          [
            120.85462335581532,
            12.884052209971752
          ],
          [
            120.85460233819578,
            12.884052811845626
          ],
          [
            120.8545750688109,
            12.88405775838679
          ],
          [
            120.85433768841945,
            12.884114632909524
          ],
          [
            120.85352445606387,
            12.88430455955761
          ],
          [
            120.8529926088854,
            12.88442783210352
          ],
          [
            120.85236402046947,
            12.884574747063667
          ],
          [
            120.85200353160205,
            12.884663605849974
          ],
          [
            120.85196548940826,
            12.884666162960755
          ],
          [
            120.85190422290982,
            12.884648444641599
          ],
          [
            120.85134283404118,
            12.884460204544256
          ],
          [
            120.85091850306561,
            12.884318996757107
          ],
          [
            120.85082360741593,
            12.884295016424268
          ],
          [
            120.85079007265465,
            12.88428924976992
          ],
          [
            120.85069360303174,
            12.88428415386098
          ],
          [
            120.85032227337034,
            12.88427249712994
          ],
          [
            120.84989390515597,
            12.8842618060428
          ],
          [
            120.84960022010358,
            12.884233570431643
          ],
          [
            120.84942793577737,
            12.884202027940857
          ],
          [
            120.84921193200223,
            12.884152910597004
          ],
          [
            120.8491711124383,
            12.88413822892999
          ],
          [
            120.84912305527996,
            12.884114880012932
          ],
          [
            120.84886974443047,
            12.883982247361013
          ],
          [
            120.84846647518478,
            12.883772346762504
          ],
          [
            120.84829910480636,
            12.883679154919665
          ],
          [
            120.84816058675938,
            12.883632108273295
          ],
          [
            120.84796777096314,
            12.88360756929354
          ],
          [
            120.8479638447158,
            12.883607234688007
          ],
          [
            120.84789324723549,
            12.88360121816742
          ],
          [
            120.84722458449622,
            12.883475211801509
          ],
          [
            120.84715590969648,
            12.883468908569053
          ],
          [
            120.84706818941842,
            12.883466752583063
          ],
          [
            120.84697157332279,
            12.883478869691327
          ],
          [
            120.84675353260533,
            12.883497161241076
          ],
          [
            120.84648129208786,
            12.883526483793641
          ],
          [
            120.84556627131103,
            12.883652375696308
          ],
          [
            120.84497501573979,
            12.883708720076003
          ],
          [
            120.84476637465953,
            12.883710828192285
          ],
          [
            120.84460462242217,
            12.883701845177852
          ],
          [
            120.84445281461049,
            12.883669989928322
          ],
          [
            120.84420560689752,
            12.883622046358402
          ],
          [
            120.84406952701211,
            12.88357501773886
          ],
          [
            120.84390438309235,
            12.88350670852042
          ],
          [
            120.84356742580385,
            12.883350019734658
          ]
        ]
      }
    },
    {
      "type": "Feature",
      "properties": {
        "id": 175,
        "canal_id": 175,
        "canal_type": "Main",
        "remarks": "AMNAY PATRICK MAIN CANAL",
        "LENGTH": 3.5884,
        "canal_widt": null,
        "station_no": "STA 0+000",
        "canal_leng": 3588.37,
        "station__1": "STA 3+588.4",
        "station__2": "3588.37",
        "canal": "AMNAY PATRICK MAIN CANAL",
        "canaltype": "Main Canal",
        "canal_lining": "Unspecified"
      },
      "geometry": {
        "type": "LineString",
        "coordinates": [
          [
            120.91707637627275,
            12.876721391397727
          ],
          [
            120.91685224794416,
            12.876337052751353
          ],
          [
            120.9165133125488,
            12.875980809885323
          ],
          [
            120.91633496797766,
            12.875870607569727
          ],
          [
            120.91616167274398,
            12.87582027637734
          ],
          [
            120.91570700700291,
            12.875827537489249
          ],
          [
            120.91497585462416,
            12.875972202947688
          ],
          [
            120.9142625955271,
            12.876187718062749
          ],
          [
            120.91391255316971,
            12.876281022803353
          ],
          [
            120.91370360884063,
            12.876295676254536
          ],
          [
            120.91341939695609,
            12.876249899023673
          ],
          [
            120.91318674548957,
            12.876226288973815
          ],
          [
            120.91278864330027,
            12.876321022321918
          ],
          [
            120.91194487526212,
            12.876675096176267
          ],
          [
            120.91130327427233,
            12.876940126310464
          ],
          [
            120.91087326109142,
            12.877094432869846
          ],
          [
            120.90977069603593,
            12.87745731292346
          ],
          [
            120.9092225978385,
            12.877588917441141
          ],
          [
            120.90825064408862,
            12.877800536496032
          ],
          [
            120.90773582162494,
            12.877930590367942
          ],
          [
            120.90690277290105,
            12.878105239542744
          ],
          [
            120.9067214252245,
            12.878134612091081
          ],
          [
            120.90620779127565,
            12.878121441159225
          ],
          [
            120.90526725354998,
            12.878110294372613
          ],
          [
            120.90451147353669,
            12.878104248593354
          ],
          [
            120.90404012295153,
            12.878117700940804
          ],
          [
            120.9036329052243,
            12.878196935531404
          ],
          [
            120.90281297846354,
            12.8783490130563
          ],
          [
            120.90233474913187,
            12.878522861869694
          ],
          [
            120.9019296194109,
            12.87879519986375
          ],
          [
            120.90171405875329,
            12.87893851664057
          ],
          [
            120.90159487750881,
            12.879158753423301
          ],
          [
            120.90156486535986,
            12.87943409602736
          ],
          [
            120.90150685463169,
            12.879964853806086
          ],
          [
            120.90151940804166,
            12.880898673297569
          ],
          [
            120.90157275300932,
            12.881372305895875
          ],
          [
            120.90161169223647,
            12.881800496891115
          ],
          [
            120.90159873307675,
            12.882025210777444
          ],
          [
            120.90152124834681,
            12.882231277051924
          ],
          [
            120.90089353425108,
            12.883266933487993
          ],
          [
            120.90043162836919,
            12.883698360455012
          ],
          [
            120.89960217220649,
            12.884326272564792
          ],
          [
            120.8992058197683,
            12.884874257464093
          ],
          [
            120.8988386391202,
            12.885469614764094
          ],
          [
            120.89859129635201,
            12.88587737692927
          ],
          [
            120.8983982443275,
            12.886090672573808
          ],
          [
            120.89813441742662,
            12.886258980182534
          ],
          [
            120.89781435822427,
            12.886522020554871
          ],
          [
            120.89759713069749,
            12.886753251679874
          ],
          [
            120.89726590040924,
            12.887136768701644
          ],
          [
            120.89681028308244,
            12.887698776653195
          ],
          [
            120.89671509996349,
            12.887810420269327
          ],
          [
            120.89648775961233,
            12.888035223230215
          ],
          [
            120.89614086493422,
            12.888855554978074
          ],
          [
            120.89591023636292,
            12.889252569520991
          ],
          [
            120.89574745089074,
            12.889713585653354
          ],
          [
            120.89562074523026,
            12.89005885723465
          ],
          [
            120.89543956987036,
            12.890508846871423
          ],
          [
            120.89525050192451,
            12.891018603060745
          ],
          [
            120.89505707117713,
            12.891386906900468
          ],
          [
            120.89474948948565,
            12.89192471762693
          ],
          [
            120.89448810691172,
            12.892241708986342
          ],
          [
            120.89423417616536,
            12.89255150780815
          ],
          [
            120.89398669968513,
            12.892696710781733
          ]
        ]
      }
    },
    {
      "type": "Feature",
      "properties": {
        "id": 171,
        "canal_id": 171,
        "canal_type": "Main",
        "remarks": "KAMAI MAIN CANAL",
        "LENGTH": 5.0042,
        "canal_widt": null,
        "station_no": "STA 0+000",
        "canal_leng": 5004.19,
        "station__1": "STA 5+004.2",
        "station__2": "5004.19",
        "canal": "KAMAI MAIN CANAL",
        "canaltype": "Main Canal",
        "canal_lining": "Unspecified"
      },
      "geometry": {
        "type": "LineString",
        "coordinates": [
          [
            120.84610023159883,
            12.899551146236176
          ],
          [
            120.84603315444156,
            12.899723548922248
          ],
          [
            120.84602087195843,
            12.899747295234329
          ],
          [
            120.84600617205793,
            12.89976628453263
          ],
          [
            120.84599771766047,
            12.899773560991939
          ],
          [
            120.84598261986446,
            12.899782663781396
          ],
          [
            120.84595525877535,
            12.89979453344508
          ],
          [
            120.84587035688294,
            12.89981461416765
          ],
          [
            120.84505943104082,
            12.900016431458418
          ],
          [
            120.8449911410981,
            12.90002160716667
          ],
          [
            120.84488197219653,
            12.900018794612743
          ],
          [
            120.84481366587619,
            12.90002588297199
          ],
          [
            120.84476870725538,
            12.90003890224919
          ],
          [
            120.84464949479897,
            12.900070437807454
          ],
          [
            120.84443246778055,
            12.900139423640237
          ],
          [
            120.84403957099654,
            12.900252867242255
          ],
          [
            120.8427084058744,
            12.900637844172442
          ],
          [
            120.8422469557385,
            12.900780061922221
          ],
          [
            120.8421233473517,
            12.900816411087257
          ],
          [
            120.84208820498041,
            12.900824078568688
          ],
          [
            120.8420646335784,
            12.900827183665928
          ],
          [
            120.8420088341405,
            12.900829544523829
          ],
          [
            120.84195510664688,
            12.900825986426918
          ],
          [
            120.84191768836767,
            12.900821593583295
          ],
          [
            120.8418670659833,
            12.900810639446163
          ],
          [
            120.8418328518332,
            12.900800930021918
          ],
          [
            120.84169924887392,
            12.900752955985118
          ],
          [
            120.84157711833576,
            12.900705131743901
          ],
          [
            120.84140013154418,
            12.900627047055204
          ],
          [
            120.84130878924395,
            12.900591862046097
          ],
          [
            120.84125474709552,
            12.900579463940964
          ],
          [
            120.84120955684132,
            12.900572980951427
          ],
          [
            120.84102227374363,
            12.900564024300753
          ],
          [
            120.84074466695527,
            12.900550747752117
          ],
          [
            120.84054589122782,
            12.900541241119432
          ],
          [
            120.84049760481824,
            12.900541063691197
          ],
          [
            120.84043875044259,
            12.900543695263059
          ],
          [
            120.84041152134715,
            12.90054575345173
          ],
          [
            120.84031678181783,
            12.900553814522915
          ],
          [
            120.84005933844114,
            12.900575719344152
          ],
          [
            120.83997318723591,
            12.900584657860701
          ],
          [
            120.83971002227736,
            12.900576745271621
          ],
          [
            120.83967006372359,
            12.900574536429966
          ],
          [
            120.83905907382778,
            12.900540761176492
          ],
          [
            120.83892293743455,
            12.900499466709645
          ],
          [
            120.83883174350962,
            12.900447066682664
          ],
          [
            120.83879881160937,
            12.900421927752957
          ],
          [
            120.83875819577962,
            12.900383335526584
          ],
          [
            120.83873520968521,
            12.900335324884068
          ],
          [
            120.83869323554731,
            12.900227859686467
          ],
          [
            120.83860507576729,
            12.900049238166938
          ],
          [
            120.83845061324358,
            12.89975129408745
          ],
          [
            120.83834613409762,
            12.899549762995932
          ],
          [
            120.83827321107431,
            12.899413349546236
          ],
          [
            120.83817274554671,
            12.899305400777987
          ],
          [
            120.83812819767459,
            12.8992706016371
          ],
          [
            120.8380388719297,
            12.899227780992108
          ],
          [
            120.83776275091732,
            12.899139420891574
          ],
          [
            120.83754104152004,
            12.899072551551571
          ],
          [
            120.83746324993703,
            12.89904895436126
          ],
          [
            120.83732719689264,
            12.898998095784396
          ],
          [
            120.83713450343996,
            12.898958245637377
          ],
          [
            120.83634745530044,
            12.898915311603236
          ],
          [
            120.83586952215812,
            12.89889240537817
          ],
          [
            120.83550327202319,
            12.89887485127029
          ],
          [
            120.83500016617722,
            12.89885155837247
          ],
          [
            120.83475540805777,
            12.898829208202626
          ],
          [
            120.83468727089328,
            12.898816688895742
          ],
          [
            120.8346325380252,
            12.898804280563551
          ],
          [
            120.83457039087848,
            12.898803765961324
          ],
          [
            120.83445704316301,
            12.898805218387436
          ],
          [
            120.83415972206163,
            12.898801560607938
          ],
          [
            120.83379408903131,
            12.89880570523025
          ],
          [
            120.83374409675801,
            12.898808877654274
          ],
          [
            120.8336684424681,
            12.89882020607626
          ],
          [
            120.83349895822475,
            12.898830757146616
          ],
          [
            120.83340563015018,
            12.898832599371216
          ],
          [
            120.83336563992901,
            12.898830047301047
          ],
          [
            120.83333863558195,
            12.898824297880665
          ],
          [
            120.8333273581505,
            12.89881966255456
          ],
          [
            120.83331138409321,
            12.898808227427635
          ],
          [
            120.83329852981957,
            12.8987900997039
          ],
          [
            120.83322978190095,
            12.898650238460815
          ],
          [
            120.83318156164519,
            12.898554907390093
          ],
          [
            120.83314046599705,
            12.898474579243759
          ],
          [
            120.83312996501161,
            12.898458740168314
          ],
          [
            120.83310940419638,
            12.898433050320923
          ],
          [
            120.83300875721615,
            12.89832784810753
          ],
          [
            120.83292229336669,
            12.898248500787497
          ],
          [
            120.832916983399,
            12.898244708927349
          ],
          [
            120.8329138770416,
            12.898243152930762
          ],
          [
            120.83290748707975,
            12.89824160415522
          ],
          [
            120.8329002390408,
            12.898241544094018
          ],
          [
            120.83289292454842,
            12.898241842135594
          ],
          [
            120.83287883492369,
            12.898244520269296
          ],
          [
            120.8328287445305,
            12.898265146198733
          ],
          [
            120.83282326097694,
            12.89826510075731
          ],
          [
            120.83281291044082,
            12.898263690733252
          ],
          [
            120.83280608429092,
            12.898261236584785
          ],
          [
            120.83268334256721,
            12.898151424363862
          ],
          [
            120.83264801017462,
            12.898122468130323
          ],
          [
            120.83243714425417,
            12.897978621339057
          ],
          [
            120.83239909116173,
            12.897949748835725
          ],
          [
            120.83236071242504,
            12.897918213152844
          ],
          [
            120.83178395659431,
            12.897456928007625
          ],
          [
            120.83107501426274,
            12.896911635064031
          ],
          [
            120.83100198268629,
            12.896852153991702
          ],
          [
            120.83066453069712,
            12.896577313312783
          ],
          [
            120.83054820856731,
            12.896499835809758
          ],
          [
            120.83028985586702,
            12.896386749390466
          ],
          [
            120.82891944914996,
            12.895897173832681
          ],
          [
            120.82804543958838,
            12.895611358209507
          ],
          [
            120.82774312546,
            12.895512495683159
          ],
          [
            120.82637056602877,
            12.895047756866061
          ],
          [
            120.82553118341214,
            12.894775809075849
          ],
          [
            120.82522533095752,
            12.894676716540028
          ],
          [
            120.82416198597694,
            12.894306352835441
          ],
          [
            120.82378274353556,
            12.894194168004425
          ],
          [
            120.82337995673242,
            12.894099002056281
          ],
          [
            120.8230275969319,
            12.89403486012228
          ],
          [
            120.82238106677266,
            12.893924987961588
          ],
          [
            120.82212811059833,
            12.89388199981737
          ],
          [
            120.8211799175174,
            12.893724905303364
          ],
          [
            120.8205820350076,
            12.89364341279049
          ],
          [
            120.82000373246062,
            12.893552518101748
          ],
          [
            120.81941165044346,
            12.89347680977682
          ],
          [
            120.81924432815437,
            12.893435246142301
          ],
          [
            120.8188846531307,
            12.893315566612632
          ],
          [
            120.81878600188716,
            12.89328423634331
          ],
          [
            120.81859738433636,
            12.893224333900683
          ],
          [
            120.81798134070827,
            12.89302095831969
          ],
          [
            120.81607974554936,
            12.892410210002904
          ],
          [
            120.81538368264317,
            12.892184426712213
          ],
          [
            120.81519884872472,
            12.89213888889068
          ],
          [
            120.81501008242591,
            12.892097143707437
          ],
          [
            120.81484069638941,
            12.892068949858542
          ],
          [
            120.81469455664994,
            12.892058165266798
          ],
          [
            120.81418410069513,
            12.892013732401459
          ],
          [
            120.8123977651234,
            12.891828563551098
          ],
          [
            120.81040297371995,
            12.891624423305151
          ],
          [
            120.80873164246333,
            12.891444018185128
          ],
          [
            120.8076115251162,
            12.89132943132821
          ],
          [
            120.80742261169473,
            12.891304894827766
          ],
          [
            120.8073234141872,
            12.89127728447075
          ],
          [
            120.80724964504392,
            12.891240323228153
          ],
          [
            120.80705373277564,
            12.891123913864952
          ],
          [
            120.80488176450207,
            12.889774400500459
          ],
          [
            120.80351068325754,
            12.888927007483412
          ]
        ]
      }
    },
    {
      "type": "Feature",
      "properties": {
        "id": 176,
        "canal_id": 176,
        "canal_type": "Main",
        "remarks": "PULONG CATMON MAIN CANAL",
        "LENGTH": 2.4873,
        "canal_widt": null,
        "station_no": "STA 0+000",
        "canal_leng": 2487.27,
        "station__1": "STA 2+487.3",
        "station__2": "2487.27",
        "canal": "PULONG CATMON MAIN CANAL",
        "canaltype": "Main Canal",
        "canal_lining": "Unspecified"
      },
      "geometry": {
        "type": "LineString",
        "coordinates": [
          [
            120.89066677163083,
            12.902629956841317
          ],
          [
            120.89045002516667,
            12.902598153220534
          ],
          [
            120.89017303311591,
            12.902595918071865
          ],
          [
            120.88995550969207,
            12.902656776773789
          ],
          [
            120.8897757864046,
            12.902776797709393
          ],
          [
            120.88963621096441,
            12.902828266989614
          ],
          [
            120.8895110967173,
            12.902829761594043
          ],
          [
            120.88932105102253,
            12.902810695405277
          ],
          [
            120.8890308163476,
            12.902713178594167
          ],
          [
            120.88883684688611,
            12.902705350934447
          ],
          [
            120.88860999918337,
            12.902812467616267
          ],
          [
            120.88831175831436,
            12.903060515337689
          ],
          [
            120.88793191183098,
            12.903449411236572
          ],
          [
            120.88758033142715,
            12.903664467633515
          ],
          [
            120.88705770805842,
            12.904029667107764
          ],
          [
            120.88629089215274,
            12.904590751294617
          ],
          [
            120.88597245503894,
            12.904811082186239
          ],
          [
            120.88582615883675,
            12.904902567762562
          ],
          [
            120.88572997110542,
            12.904955637846324
          ],
          [
            120.88558913848405,
            12.905004589925829
          ],
          [
            120.88540360833403,
            12.905055684900779
          ],
          [
            120.88523835426139,
            12.905124475691746
          ],
          [
            120.8850743134137,
            12.905200789859766
          ],
          [
            120.88468687148075,
            12.905429326529006
          ],
          [
            120.88432006309179,
            12.905632983940663
          ],
          [
            120.88392472579052,
            12.90581355569503
          ],
          [
            120.88375687057909,
            12.90588795960802
          ],
          [
            120.88352192671864,
            12.905970586119144
          ],
          [
            120.88305684384012,
            12.90613368586541
          ],
          [
            120.88265712151076,
            12.906266320293733
          ],
          [
            120.88250537977787,
            12.906322069663439
          ],
          [
            120.88193151099192,
            12.906555978738023
          ],
          [
            120.88169723601143,
            12.906634852010459
          ],
          [
            120.88140917494573,
            12.906733951645592
          ],
          [
            120.88101871086613,
            12.906866032197636
          ],
          [
            120.88085949549607,
            12.906925027145467
          ],
          [
            120.88077345847783,
            12.907187131070541
          ],
          [
            120.88060709414746,
            12.907387398547243
          ],
          [
            120.88047334854475,
            12.907504027901611
          ],
          [
            120.8801763818621,
            12.907750822305017
          ],
          [
            120.88000426760726,
            12.9078759060694
          ],
          [
            120.87974176593592,
            12.907971454055703
          ],
          [
            120.87951767463665,
            12.908053538376729
          ],
          [
            120.87915154546005,
            12.908175794922606
          ],
          [
            120.8788390281798,
            12.908298486053855
          ],
          [
            120.87871030355906,
            12.908349410623911
          ],
          [
            120.87827156657036,
            12.90852868105982
          ],
          [
            120.87798475253769,
            12.90863091719241
          ],
          [
            120.87784068871736,
            12.908684221273568
          ],
          [
            120.87758969515383,
            12.908777355748745
          ],
          [
            120.87745586419022,
            12.908828238152246
          ],
          [
            120.87719593501534,
            12.908921299627638
          ],
          [
            120.87696158819327,
            12.909008307285088
          ],
          [
            120.87663889430937,
            12.909126529828159
          ],
          [
            120.87629959003316,
            12.909246495345402
          ],
          [
            120.87609086756417,
            12.90932243991812
          ],
          [
            120.87576756122012,
            12.909437525600884
          ],
          [
            120.87556330089524,
            12.90951413211267
          ],
          [
            120.87533406967538,
            12.90959992745628
          ],
          [
            120.87506335258371,
            12.909685385219401
          ],
          [
            120.87492958429847,
            12.909728753053914
          ],
          [
            120.87460726461794,
            12.909802520193558
          ],
          [
            120.87413145435136,
            12.909911980225543
          ],
          [
            120.87364790018125,
            12.910031394480047
          ],
          [
            120.87334238346304,
            12.910144736971933
          ],
          [
            120.87269746078387,
            12.91031908235876
          ],
          [
            120.87253099436293,
            12.910397358194034
          ],
          [
            120.87202950142421,
            12.910511678788174
          ],
          [
            120.87134968741927,
            12.910637859916882
          ],
          [
            120.87004163471032,
            12.910859780306781
          ],
          [
            120.86997142599927,
            12.910874939060797
          ]
        ]
      }
    },
    {
      "type": "Feature",
      "properties": {
        "id": 177,
        "canal_id": 177,
        "canal_type": "Lateral",
        "remarks": "LATERAL B",
        "LENGTH": 0.3251,
        "canal_widt": null,
        "station_no": "STA 0+000",
        "canal_leng": 325.12,
        "station__1": "STA 0+325.1",
        "station__2": "325.12",
        "canal": "LATERAL B",
        "canaltype": "Lateral",
        "canal_lining": "Unspecified"
      },
      "geometry": {
        "type": "LineString",
        "coordinates": [
          [
            120.84038965523897,
            12.903423732317027
          ],
          [
            120.84028144264373,
            12.903009462838238
          ],
          [
            120.83998264896869,
            12.90204101653818
          ],
          [
            120.83992732350328,
            12.901798037087145
          ],
          [
            120.83988082772791,
            12.90159383580215
          ],
          [
            120.83975246735659,
            12.901030098452175
          ],
          [
            120.83967006372359,
            12.900574536429966
          ]
        ]
      }
    },
    {
      "type": "Feature",
      "properties": {
        "id": 178,
        "canal_id": 178,
        "canal_type": "Main",
        "remarks": "SOUTH MAIN CANAL",
        "LENGTH": 6.6606,
        "canal_widt": null,
        "station_no": "STA 0+000",
        "canal_leng": 6660.62,
        "station__1": "STA 6+660.6",
        "station__2": "6660.62",
        "canal": "SOUTH MAIN CANAL",
        "canaltype": "Main Canal",
        "canal_lining": "Unspecified"
      },
      "geometry": {
        "type": "LineString",
        "coordinates": [
          [
            120.86897483421352,
            12.903003394078091
          ],
          [
            120.86894146459301,
            12.902936862326053
          ],
          [
            120.86891282088558,
            12.902898441404457
          ],
          [
            120.86888257632958,
            12.902872982596568
          ],
          [
            120.86866569597943,
            12.902752139076112
          ],
          [
            120.86793282495037,
            12.902429107084306
          ],
          [
            120.86725236914407,
            12.902133759109708
          ],
          [
            120.86643793997945,
            12.901771322783405
          ],
          [
            120.86640667587868,
            12.901757715063933
          ],
          [
            120.8656366661393,
            12.901422566291622
          ],
          [
            120.86508142324277,
            12.901180893506163
          ],
          [
            120.86377279875055,
            12.900577220282791
          ],
          [
            120.86243650562632,
            12.899979691404107
          ],
          [
            120.86163277940477,
            12.89962163349735
          ],
          [
            120.8612260632076,
            12.899440172982564
          ],
          [
            120.86111723916635,
            12.899376747338577
          ],
          [
            120.8608627956874,
            12.899232498921576
          ],
          [
            120.86084827121815,
            12.899224464429789
          ],
          [
            120.86079470729412,
            12.89919033860384
          ],
          [
            120.86076547528907,
            12.899168824054064
          ],
          [
            120.86062861860474,
            12.899044346948846
          ],
          [
            120.86002717927816,
            12.898496168652166
          ],
          [
            120.85917235326423,
            12.89770202638687
          ],
          [
            120.85885365718943,
            12.897391943001864
          ],
          [
            120.85862086199536,
            12.897187079986564
          ],
          [
            120.85841401879729,
            12.897008976190117
          ],
          [
            120.85827445461847,
            12.89689766163526
          ],
          [
            120.8582260131733,
            12.896862389013927
          ],
          [
            120.85812427624924,
            12.896795847253994
          ],
          [
            120.8579747640615,
            12.896703294043283
          ],
          [
            120.85781893485748,
            12.89661632682388
          ],
          [
            120.85775431553292,
            12.896583292336924
          ],
          [
            120.85729935248492,
            12.896396710048153
          ],
          [
            120.85723665581976,
            12.896369672983242
          ],
          [
            120.85687981883521,
            12.89619937529069
          ],
          [
            120.85674138964238,
            12.896140855612426
          ],
          [
            120.85662266131656,
            12.896058586722441
          ],
          [
            120.85504653253581,
            12.895390516947971
          ],
          [
            120.85409717649821,
            12.894964295734589
          ],
          [
            120.85382405920744,
            12.894837622589337
          ],
          [
            120.85373531415298,
            12.894800812746603
          ],
          [
            120.85368335021131,
            12.894784251000786
          ],
          [
            120.85362777005018,
            12.89477174417495
          ],
          [
            120.85358567616328,
            12.894764780245676
          ],
          [
            120.8534969364726,
            12.894756131355798
          ],
          [
            120.85342577159,
            12.894755547391194
          ],
          [
            120.85336885599011,
            12.894759671328616
          ],
          [
            120.85330187045498,
            12.894767791916918
          ],
          [
            120.85328480474209,
            12.89477080066798
          ],
          [
            120.85323080980338,
            12.894782057883564
          ],
          [
            120.85317999933561,
            12.894794805999817
          ],
          [
            120.85306072708771,
            12.894824420996995
          ],
          [
            120.8530145578897,
            12.894838004446703
          ],
          [
            120.85266381321237,
            12.894950203144758
          ],
          [
            120.85215832779153,
            12.895103801644044
          ],
          [
            120.85153276847699,
            12.895292339616095
          ],
          [
            120.85135203267959,
            12.895336285056514
          ],
          [
            120.85115669442712,
            12.895377719352638
          ],
          [
            120.8509734397654,
            12.89543120802235
          ],
          [
            120.85088807874835,
            12.895437679858375
          ],
          [
            120.85076874070434,
            12.895427135142075
          ],
          [
            120.85049377302705,
            12.895374663673774
          ],
          [
            120.84801376770496,
            12.894952576595394
          ],
          [
            120.8459620543747,
            12.894586597210056
          ],
          [
            120.8449476276293,
            12.894361852721158
          ],
          [
            120.84416333648034,
            12.894159325059574
          ],
          [
            120.84335096153127,
            12.893948918524769
          ],
          [
            120.8424269777114,
            12.893708645336732
          ],
          [
            120.84161366175408,
            12.893480765340938
          ],
          [
            120.84111019476677,
            12.893350261479934
          ],
          [
            120.84091814718269,
            12.893300480475872
          ],
          [
            120.84053637352612,
            12.893198101441993
          ],
          [
            120.840405200864,
            12.89314680690905
          ],
          [
            120.83996204071144,
            12.892955452050685
          ],
          [
            120.83901688673352,
            12.892555756291447
          ],
          [
            120.83869938368876,
            12.892405367713604
          ],
          [
            120.8385293345127,
            12.8922834548111
          ],
          [
            120.83843905743461,
            12.892209752567249
          ],
          [
            120.83836067314279,
            12.892113463629551
          ],
          [
            120.83795613803296,
            12.89132705779363
          ],
          [
            120.83757333902795,
            12.890555903243301
          ],
          [
            120.83737216135309,
            12.89015062594033
          ],
          [
            120.83718260163671,
            12.889790476424315
          ],
          [
            120.83693450721898,
            12.88931911381148
          ],
          [
            120.83673357609199,
            12.888900166303936
          ],
          [
            120.83665497150248,
            12.888736273000147
          ],
          [
            120.83659281402427,
            12.88862575040534
          ],
          [
            120.83656643836726,
            12.888582181772872
          ],
          [
            120.83651152846667,
            12.888503388497654
          ],
          [
            120.8362857812023,
            12.8882089745854
          ],
          [
            120.8362396568275,
            12.8881587982456
          ],
          [
            120.83619112005081,
            12.888117282471786
          ],
          [
            120.8361229322364,
            12.88806516842409
          ],
          [
            120.83557141401904,
            12.88769688680418
          ],
          [
            120.8343616975541,
            12.887017391664362
          ],
          [
            120.8337129488887,
            12.886661263048536
          ],
          [
            120.83364962095152,
            12.886617876380893
          ],
          [
            120.83354443193063,
            12.886536688236356
          ],
          [
            120.83322881343692,
            12.886260819542597
          ],
          [
            120.83264262119694,
            12.885675941572833
          ],
          [
            120.83256377302463,
            12.885587354643722
          ],
          [
            120.83163602015122,
            12.884430450496044
          ],
          [
            120.83121258585314,
            12.884007958543
          ],
          [
            120.83120395363694,
            12.884003669132225
          ],
          [
            120.83118283570431,
            12.883997064915285
          ],
          [
            120.83111886755054,
            12.883989804420489
          ],
          [
            120.83103649037473,
            12.884004065826158
          ],
          [
            120.83082970320503,
            12.884050289225042
          ],
          [
            120.83073656389209,
            12.884081839591493
          ],
          [
            120.82963798691375,
            12.88445397248921
          ],
          [
            120.8295169430817,
            12.884489139871729
          ],
          [
            120.82909914857383,
            12.884578865065704
          ],
          [
            120.82904567669874,
            12.884590348585576
          ],
          [
            120.82894228300813,
            12.884603598500012
          ],
          [
            120.82877376673416,
            12.884618929525905
          ],
          [
            120.82866811711308,
            12.884624528334236
          ],
          [
            120.82859392916887,
            12.884610375056187
          ],
          [
            120.82754028357594,
            12.884098091488788
          ],
          [
            120.82746650457418,
            12.88407951240591
          ],
          [
            120.82731316213422,
            12.884068831701663
          ],
          [
            120.82712434707021,
            12.884061287027007
          ],
          [
            120.82687138068266,
            12.884074131106118
          ],
          [
            120.82652790219232,
            12.88408114057019
          ],
          [
            120.82521389447568,
            12.884099220845794
          ],
          [
            120.824723725816,
            12.884097324351531
          ],
          [
            120.82386740897701,
            12.884094009003368
          ],
          [
            120.82242001179762,
            12.88413278231763
          ],
          [
            120.82083542953632,
            12.884125125423903
          ],
          [
            120.82074338495173,
            12.884126841329975
          ],
          [
            120.82071224807596,
            12.88412427181691
          ],
          [
            120.82063605227431,
            12.884113534958733
          ],
          [
            120.82039620483926,
            12.884066945926936
          ],
          [
            120.8203399869489,
            12.884049567559497
          ],
          [
            120.82014532474176,
            12.883970374615375
          ],
          [
            120.82009020104175,
            12.883940265161385
          ],
          [
            120.81976716975394,
            12.883710208192985
          ],
          [
            120.8193044869164,
            12.883314827067744
          ],
          [
            120.81888421962354,
            12.88294669752684
          ],
          [
            120.81784232942825,
            12.88224462390263
          ],
          [
            120.81666848457786,
            12.881302346296863
          ],
          [
            120.81648388992961,
            12.88156723734291
          ],
          [
            120.81643786669372,
            12.881647191253725
          ],
          [
            120.81640074073292,
            12.881712873332097
          ],
          [
            120.81627614426978,
            12.881931738491112
          ],
          [
            120.81626216199778,
            12.881943434219785
          ],
          [
            120.81624172644759,
            12.881946392754317
          ],
          [
            120.81620471258655,
            12.881926933982818
          ]
        ]
      }
    },
    {
      "type": "Feature",
      "properties": {
        "id": 174,
        "canal_id": 174,
        "canal_type": "Main",
        "remarks": "OLD INTAKE MAIN CANAL",
        "LENGTH": 10.6631,
        "canal_widt": null,
        "station_no": "STA 0+000",
        "canal_leng": 10663.05,
        "station__1": "STA 10+663.0",
        "station__2": "10663.05",
        "canal": "OLD INTAKE MAIN CANAL",
        "canaltype": "Main Canal",
        "canal_lining": "Unspecified"
      },
      "geometry": {
        "type": "LineString",
        "coordinates": [
          [
            120.89398669968513,
            12.892696710781733
          ],
          [
            120.89392133595514,
            12.892735061860781
          ],
          [
            120.89314941566616,
            12.892952975490076
          ],
          [
            120.89212255712215,
            12.893267046324883
          ],
          [
            120.89049354144636,
            12.893757575201539
          ],
          [
            120.89028626193162,
            12.893808927025926
          ],
          [
            120.88959706869191,
            12.893997889693956
          ],
          [
            120.88861084280492,
            12.894292149584237
          ],
          [
            120.88817740040487,
            12.894427236886562
          ],
          [
            120.88686514377882,
            12.89483406740152
          ],
          [
            120.8854899418654,
            12.89523704245694
          ],
          [
            120.8843941419405,
            12.895607205704156
          ],
          [
            120.88382419357194,
            12.895782923661155
          ],
          [
            120.88296246228165,
            12.896046442932157
          ],
          [
            120.88189605247831,
            12.896361732240969
          ],
          [
            120.88078343639205,
            12.896706697074285
          ],
          [
            120.87960772110519,
            12.89706617248214
          ],
          [
            120.87891824071023,
            12.897287661270372
          ],
          [
            120.87855136138425,
            12.897399895037008
          ],
          [
            120.87830925533014,
            12.897449691843121
          ],
          [
            120.87738392712413,
            12.897584108154671
          ],
          [
            120.87660871776458,
            12.897677997414547
          ],
          [
            120.87629351417522,
            12.89771718057444
          ],
          [
            120.87612519518287,
            12.897695777358923
          ],
          [
            120.87578974645571,
            12.897612907515986
          ],
          [
            120.8756395371097,
            12.897563266222143
          ],
          [
            120.87556255121541,
            12.897499783173119
          ],
          [
            120.87551614138995,
            12.897549145016013
          ],
          [
            120.87503362792515,
            12.898044363955014
          ],
          [
            120.87405730025974,
            12.89910955227047
          ],
          [
            120.87339379889141,
            12.89974974955513
          ],
          [
            120.87264478934758,
            12.900413159777717
          ],
          [
            120.87114584608177,
            12.90158374729288
          ],
          [
            120.87058395726312,
            12.90202391212471
          ],
          [
            120.87002760895993,
            12.902385215052888
          ],
          [
            120.86897483421352,
            12.903003394078091
          ],
          [
            120.86844517530976,
            12.903314401629624
          ],
          [
            120.86726783620446,
            12.903897785538192
          ],
          [
            120.86643570576665,
            12.904299868594945
          ],
          [
            120.86615199135201,
            12.904414715300497
          ],
          [
            120.8653524348287,
            12.904711853208843
          ],
          [
            120.86472671311232,
            12.904917156767148
          ],
          [
            120.86423548603416,
            12.905070954120792
          ],
          [
            120.86331199165713,
            12.905324033212178
          ],
          [
            120.86237663473833,
            12.905538754695879
          ],
          [
            120.86158333678284,
            12.905713363002748
          ],
          [
            120.86140113313401,
            12.90574779023652
          ],
          [
            120.8611830016767,
            12.905787900395001
          ],
          [
            120.86109783488367,
            12.905800691477928
          ],
          [
            120.86097955794885,
            12.90581610944195
          ],
          [
            120.86091663702506,
            12.905823302537689
          ],
          [
            120.8605163784522,
            12.905884585285902
          ],
          [
            120.86046720291675,
            12.905891335056529
          ],
          [
            120.86020402361697,
            12.905927458540893
          ],
          [
            120.85978702960568,
            12.905950346125747
          ],
          [
            120.85944858634892,
            12.905982245783
          ],
          [
            120.85876005102006,
            12.90604714164582
          ],
          [
            120.85826035336835,
            12.906050220726627
          ],
          [
            120.85716854669701,
            12.906031707832277
          ],
          [
            120.85654217375806,
            12.906026571901586
          ],
          [
            120.85610119491986,
            12.90600382675436
          ],
          [
            120.85520729626509,
            12.905929543612462
          ],
          [
            120.85407749675771,
            12.905817237254432
          ],
          [
            120.85380939116486,
            12.90577864576913
          ],
          [
            120.85308178674995,
            12.905653859983929
          ],
          [
            120.85280922418458,
            12.905603800057259
          ],
          [
            120.85261008506005,
            12.905518477306096
          ],
          [
            120.85240607161906,
            12.905433114374407
          ],
          [
            120.85202225473405,
            12.905254138955636
          ],
          [
            120.85164155321748,
            12.905094597970194
          ],
          [
            120.85161201579548,
            12.905084668905127
          ],
          [
            120.85154403878957,
            12.905053026542362
          ],
          [
            120.85140074445916,
            12.904912800666393
          ],
          [
            120.85137768499267,
            12.90489239948648
          ],
          [
            120.85123901633703,
            12.90477989295531
          ],
          [
            120.85118957049936,
            12.904744543540453
          ],
          [
            120.85107068671623,
            12.904673989711238
          ],
          [
            120.8510185912303,
            12.90464701094092
          ],
          [
            120.8509529291068,
            12.904629733778531
          ],
          [
            120.85088229041338,
            12.904624370932115
          ],
          [
            120.85077015761273,
            12.904625840055207
          ],
          [
            120.85067837036355,
            12.90462344787916
          ],
          [
            120.85063613064821,
            12.904622347009184
          ],
          [
            120.85049247737761,
            12.90460442844581
          ],
          [
            120.85026092060954,
            12.904604915300487
          ],
          [
            120.85011224992763,
            12.90460369260743
          ],
          [
            120.84993896180147,
            12.904630959924123
          ],
          [
            120.84974863352406,
            12.904655695902777
          ],
          [
            120.84958548258864,
            12.904637616460617
          ],
          [
            120.8494127054406,
            12.904605111441006
          ],
          [
            120.84901119744929,
            12.904527685428972
          ],
          [
            120.8476901800486,
            12.904237059701902
          ],
          [
            120.84726238115955,
            12.904135036586698
          ],
          [
            120.84661018467635,
            12.903979496821496
          ],
          [
            120.84656707267013,
            12.903970921736391
          ],
          [
            120.84619448060525,
            12.903890431801937
          ],
          [
            120.84602595896713,
            12.903851459128676
          ],
          [
            120.84601222479758,
            12.903847970374217
          ],
          [
            120.84594585202328,
            12.903832964361055
          ],
          [
            120.84585789207442,
            12.903820090152582
          ],
          [
            120.84580422009542,
            12.903814881513776
          ],
          [
            120.84573465768845,
            12.903813959061274
          ],
          [
            120.84571027529975,
            12.903812452269243
          ],
          [
            120.8456452122562,
            12.903806216008132
          ],
          [
            120.84562061517879,
            12.903803012059408
          ],
          [
            120.8455809688329,
            12.903796133300963
          ],
          [
            120.84554477360861,
            12.903786938919993
          ],
          [
            120.84536833224547,
            12.903738668277713
          ],
          [
            120.84516982188143,
            12.903689967457105
          ],
          [
            120.84451573342217,
            12.903542838393665
          ],
          [
            120.8444161821607,
            12.903518521114696
          ],
          [
            120.84418503220375,
            12.903465269752228
          ],
          [
            120.84412279497359,
            12.903454187851374
          ],
          [
            120.8440248516961,
            12.903441973929594
          ],
          [
            120.84399039286411,
            12.903439415499573
          ],
          [
            120.84395393588676,
            12.903440740405296
          ],
          [
            120.8436090805883,
            12.903490896453922
          ],
          [
            120.84264612513793,
            12.90362762133259
          ],
          [
            120.8424301331154,
            12.903653417666103
          ],
          [
            120.84234951521061,
            12.903665915352114
          ],
          [
            120.84224705957926,
            12.903686267567046
          ],
          [
            120.84211562564208,
            12.90371992314856
          ],
          [
            120.84207063097521,
            12.903726087056024
          ],
          [
            120.84203657457746,
            12.903729338973006
          ],
          [
            120.84197466899943,
            12.903725059666051
          ],
          [
            120.84189695417965,
            12.903710926977878
          ],
          [
            120.84186805618289,
            12.90370433927417
          ],
          [
            120.8415848252745,
            12.903645721403864
          ],
          [
            120.84071114661737,
            12.90347893139889
          ],
          [
            120.84038965523897,
            12.903423732317027
          ],
          [
            120.83959262824128,
            12.903286883468123
          ],
          [
            120.83920175656168,
            12.903211529572856
          ],
          [
            120.83766177925293,
            12.902937263892005
          ],
          [
            120.83638191616063,
            12.902682789895476
          ],
          [
            120.83532584515028,
            12.902480374623787
          ],
          [
            120.8347755361245,
            12.902448322818765
          ],
          [
            120.83457517524175,
            12.902424495879465
          ],
          [
            120.834030021372,
            12.902330077432895
          ],
          [
            120.832772219167,
            12.90211880792368
          ],
          [
            120.83157096234602,
            12.901908001649273
          ],
          [
            120.8300484811533,
            12.901639052662414
          ],
          [
            120.82934407287426,
            12.901562002682374
          ],
          [
            120.82852536148667,
            12.901469426007852
          ],
          [
            120.82771700246492,
            12.901286771752796
          ],
          [
            120.82727085111193,
            12.901214817712205
          ],
          [
            120.82646929830888,
            12.901057261141888
          ],
          [
            120.82559103316389,
            12.900914091153389
          ],
          [
            120.82463636429966,
            12.900749620828314
          ],
          [
            120.82376476038229,
            12.900574568440964
          ],
          [
            120.82311373590164,
            12.900428898963357
          ],
          [
            120.82226990133559,
            12.900290387866786
          ],
          [
            120.82114807515954,
            12.900119504322735
          ],
          [
            120.8198250375189,
            12.899894344896653
          ],
          [
            120.81851842267326,
            12.89968935181766
          ],
          [
            120.81696721239477,
            12.899428464797193
          ],
          [
            120.81618221000521,
            12.899277903865325
          ],
          [
            120.81559326072728,
            12.899187833233222
          ],
          [
            120.8151865952926,
            12.899126833382525
          ],
          [
            120.81409961603875,
            12.898913636431338
          ],
          [
            120.81334016765247,
            12.898760776593894
          ],
          [
            120.81189186986235,
            12.898557071724616
          ],
          [
            120.81015631403072,
            12.89821320920729
          ],
          [
            120.80940493345265,
            12.898014073857409
          ],
          [
            120.80899888338617,
            12.897882945494649
          ],
          [
            120.80891619193528,
            12.897850947112886
          ],
          [
            120.80831510361463,
            12.89769000862732
          ],
          [
            120.80774959092955,
            12.897548150427456
          ],
          [
            120.80732044836468,
            12.897503855594483
          ],
          [
            120.80684676155366,
            12.897438907531773
          ],
          [
            120.80636161500509,
            12.897381862768626
          ],
          [
            120.80605932481632,
            12.897341411015622
          ],
          [
            120.8056043938585,
            12.89726781936004
          ],
          [
            120.80537067807536,
            12.897208882214667
          ],
          [
            120.80491498471396,
            12.897135559702072
          ],
          [
            120.80436616604798,
            12.897028733541324
          ],
          [
            120.80414351067625,
            12.896858737194687
          ],
          [
            120.80385226683414,
            12.896704640007824
          ],
          [
            120.80357475279017,
            12.896618410900434
          ],
          [
            120.80342564841327,
            12.896590862092356
          ],
          [
            120.80302582304348,
            12.896478560815485
          ],
          [
            120.80227952911386,
            12.89628320595768
          ],
          [
            120.80107494182566,
            12.895947504882008
          ],
          [
            120.8005642515771,
            12.895814232609137
          ]
        ]
      }
    },
    {
      "type": "Feature",
      "properties": {
        "id": 181,
        "canal_id": 181,
        "canal_type": "Main",
        "remarks": "SALIFIA RIGHT MAIN CANAL",
        "LENGTH": 0.1694,
        "canal_widt": null,
        "station_no": "STA 0+000",
        "canal_leng": 169.38,
        "station__1": "STA 0+169.4",
        "station__2": "169.38",
        "canal": "SALIFIA RIGHT MAIN CANAL",
        "canaltype": "Main Canal",
        "canal_lining": "Unspecified"
      },
      "geometry": {
        "type": "LineString",
        "coordinates": [
          [
            120.85460299437993,
            12.876172439218086
          ],
          [
            120.85457185180084,
            12.876232292614684
          ],
          [
            120.85445537424508,
            12.876195649168949
          ],
          [
            120.85425808663878,
            12.876430710163921
          ],
          [
            120.85388779058351,
            12.876972409240855
          ],
          [
            120.85420751607842,
            12.877198557068034
          ]
        ]
      }
    },
    {
      "type": "Feature",
      "properties": {
        "id": 183,
        "canal_id": 183,
        "canal_type": "Lateral",
        "remarks": "SALIFIA LATERAL A",
        "LENGTH": 0.3013,
        "canal_widt": null,
        "station_no": "STA 0+000",
        "canal_leng": 301.34,
        "station__1": "STA 0+301.3",
        "station__2": "301.34",
        "canal": "SALIFIA LATERAL A",
        "canaltype": "Lateral",
        "canal_lining": "Unspecified"
      },
      "geometry": {
        "type": "LineString",
        "coordinates": [
          [
            120.8479449138274,
            12.874454410396018
          ],
          [
            120.84792717399368,
            12.874622484012233
          ],
          [
            120.84792569922834,
            12.8747952830815
          ],
          [
            120.8479742400377,
            12.874940317296259
          ],
          [
            120.84803622998767,
            12.875079826844772
          ],
          [
            120.84804528918592,
            12.875140009505524
          ],
          [
            120.84803925278135,
            12.875286473752565
          ],
          [
            120.84804482659717,
            12.87553070926463
          ],
          [
            120.84805096145114,
            12.875709205997497
          ],
          [
            120.84807225147458,
            12.875906611057374
          ],
          [
            120.84806798977706,
            12.875957292372664
          ],
          [
            120.84800190501001,
            12.876073209166798
          ],
          [
            120.84790258534738,
            12.876269623312924
          ],
          [
            120.84783590718702,
            12.876455035302424
          ],
          [
            120.8477904160301,
            12.87662559429041
          ],
          [
            120.8477228718001,
            12.876912431729165
          ],
          [
            120.8476720366908,
            12.877082683305744
          ]
        ]
      }
    },
    {
      "type": "Feature",
      "properties": {
        "id": 180,
        "canal_id": 180,
        "canal_type": "Lateral",
        "remarks": "LATERAL A",
        "LENGTH": 2.5776,
        "canal_widt": null,
        "station_no": "STA 0+000",
        "canal_leng": 2577.56,
        "station__1": "STA 2+577.6",
        "station__2": "2577.56",
        "canal": "LATERAL A",
        "canaltype": "Lateral",
        "canal_lining": "Unspecified"
      },
      "geometry": {
        "type": "LineString",
        "coordinates": [
          [
            120.87556255121541,
            12.897499783173119
          ],
          [
            120.87541700966507,
            12.897416825816467
          ],
          [
            120.87535733317937,
            12.897383344065446
          ],
          [
            120.87507700743946,
            12.897155826512353
          ],
          [
            120.87475054224177,
            12.896850462697099
          ],
          [
            120.87457633654577,
            12.896698408834366
          ],
          [
            120.87453858292177,
            12.896666539733468
          ],
          [
            120.87451986358465,
            12.89663195600729
          ],
          [
            120.8744589794922,
            12.896568336625528
          ],
          [
            120.87439513446753,
            12.896508997121856
          ],
          [
            120.87435167702067,
            12.896459865845696
          ],
          [
            120.87427521640224,
            12.896335864539692
          ],
          [
            120.874165837519,
            12.896126951329986
          ],
          [
            120.87415188028582,
            12.89607936091698
          ],
          [
            120.87412745764576,
            12.89599608624734
          ],
          [
            120.87412195974461,
            12.895954436712614
          ],
          [
            120.87411643761466,
            12.895915656281081
          ],
          [
            120.87409918068649,
            12.89588108442548
          ],
          [
            120.87409240220519,
            12.895817904732748
          ],
          [
            120.87400543431252,
            12.895379629649755
          ],
          [
            120.87393388559813,
            12.89502038563874
          ],
          [
            120.87390335048902,
            12.894826459717198
          ],
          [
            120.8738956549123,
            12.894698713324859
          ],
          [
            120.8738987527008,
            12.89450506075667
          ],
          [
            120.87392848862027,
            12.893581387802852
          ],
          [
            120.87395883483791,
            12.892931737902682
          ],
          [
            120.87397964712135,
            12.892198800762136
          ],
          [
            120.87398057354535,
            12.89199971773128
          ],
          [
            120.87398144289472,
            12.891812894428273
          ],
          [
            120.87395442576322,
            12.891548699244376
          ],
          [
            120.87390949794049,
            12.89132739803708
          ],
          [
            120.87386968047836,
            12.891193652021494
          ],
          [
            120.87378988819637,
            12.890944809161619
          ],
          [
            120.87361861791165,
            12.890445593816853
          ],
          [
            120.87344607969682,
            12.88992341373954
          ],
          [
            120.87332784849102,
            12.889550878572063
          ],
          [
            120.8732176643546,
            12.889264487785807
          ],
          [
            120.87311949350598,
            12.88894089372335
          ],
          [
            120.87306509034897,
            12.888802725192972
          ],
          [
            120.87301043284668,
            12.888694682236972
          ],
          [
            120.87292082643778,
            12.88856913942676
          ],
          [
            120.87283820432584,
            12.888482388906688
          ],
          [
            120.87270889892295,
            12.888382347065459
          ],
          [
            120.87252740258424,
            12.888276016390053
          ],
          [
            120.8724804385464,
            12.888248502205338
          ],
          [
            120.87174047063569,
            12.887903908702752
          ],
          [
            120.87106963761978,
            12.887569440082888
          ],
          [
            120.87031990961019,
            12.887226676595903
          ],
          [
            120.86975282182516,
            12.886959999447331
          ],
          [
            120.86966363853618,
            12.886899974832792
          ],
          [
            120.86961905499635,
            12.886869006150981
          ],
          [
            120.86957663141885,
            12.886813187828462
          ],
          [
            120.86953596341414,
            12.886780338143668
          ],
          [
            120.86952047931696,
            12.886766822070063
          ],
          [
            120.8694893978939,
            12.886753179037713
          ],
          [
            120.86946421400138,
            12.886733845419377
          ],
          [
            120.869404146432,
            12.886689360632788
          ],
          [
            120.86920481931365,
            12.886511754687868
          ],
          [
            120.86853916800007,
            12.885911434995514
          ],
          [
            120.86825878194679,
            12.885635612511049
          ],
          [
            120.86802642567255,
            12.885444346888065
          ],
          [
            120.86779626222074,
            12.885224406055576
          ],
          [
            120.86769767174077,
            12.885124134221057
          ],
          [
            120.86764754739725,
            12.885056775793148
          ],
          [
            120.8675397753966,
            12.884889479002
          ],
          [
            120.8673323865517,
            12.884512868851344
          ],
          [
            120.86708624827561,
            12.884107250009963
          ],
          [
            120.8669788772923,
            12.884035071702977
          ],
          [
            120.86673823626148,
            12.88357194193365
          ],
          [
            120.86656255852019,
            12.883307492162123
          ],
          [
            120.86647809193923,
            12.883208769777116
          ],
          [
            120.8663861321011,
            12.883131505978557
          ],
          [
            120.86614601894246,
            12.882993257838569
          ],
          [
            120.86587412332261,
            12.882866705818806
          ],
          [
            120.86540139167492,
            12.882640701391235
          ],
          [
            120.86493536468006,
            12.882414531723244
          ],
          [
            120.86408310723299,
            12.882036964432412
          ],
          [
            120.86368968691009,
            12.88187116192845
          ],
          [
            120.86351974370835,
            12.881793261034561
          ],
          [
            120.86343475188255,
            12.881756701457459
          ],
          [
            120.86335952845126,
            12.881717830498333
          ],
          [
            120.86322092216534,
            12.881680833347863
          ],
          [
            120.86298511885383,
            12.88160956788318
          ],
          [
            120.8627685888455,
            12.881564761308313
          ],
          [
            120.86263459322056,
            12.88155888540882
          ],
          [
            120.86256869226001,
            12.881570302803732
          ],
          [
            120.86246855132738,
            12.881595787078592
          ],
          [
            120.86227060503782,
            12.881658729917183
          ],
          [
            120.86221199483275,
            12.88167259780884
          ],
          [
            120.86217556119632,
            12.881657953927611
          ],
          [
            120.8621417268397,
            12.881624202714645
          ],
          [
            120.86211780282984,
            12.88157140386588
          ],
          [
            120.86208404962022,
            12.881528089035886
          ],
          [
            120.86198687306414,
            12.881491429543068
          ],
          [
            120.86193094331546,
            12.881476626440342
          ],
          [
            120.86186272705922,
            12.881473678339596
          ],
          [
            120.86181579318476,
            12.881471334859414
          ]
        ]
      }
    },
    {
      "type": "Feature",
      "properties": {
        "id": 182,
        "canal_id": 182,
        "canal_type": "Main",
        "remarks": "SALIFIA LEFT MAIN CANAL",
        "LENGTH": 2.5732,
        "canal_widt": null,
        "station_no": "STA 0+000",
        "canal_leng": 2573.22,
        "station__1": "STA 2+573.2",
        "station__2": "2573.22",
        "canal": "SALIFIA LEFT MAIN CANAL",
        "canaltype": "Main Canal",
        "canal_lining": "Unspecified"
      },
      "geometry": {
        "type": "LineString",
        "coordinates": [
          [
            120.85469144578475,
            12.875902675523355
          ],
          [
            120.85469144578475,
            12.875902675523355
          ],
          [
            120.85469806725732,
            12.875855770006421
          ],
          [
            120.85458626007907,
            12.875832783216575
          ],
          [
            120.85454423421783,
            12.87582163826864
          ],
          [
            120.85439590658672,
            12.87570302401246
          ],
          [
            120.85420075521091,
            12.875574634187563
          ],
          [
            120.8537474424537,
            12.875410318189587
          ],
          [
            120.85361081376348,
            12.875491847824378
          ],
          [
            120.85348191470729,
            12.875564987965172
          ],
          [
            120.85344250878276,
            12.875583448941205
          ],
          [
            120.85331031335163,
            12.875509116756453
          ],
          [
            120.85317592644653,
            12.875412209355886
          ],
          [
            120.8529900603535,
            12.875317705831424
          ],
          [
            120.85282329635598,
            12.875340758008806
          ],
          [
            120.8526028161197,
            12.875376518450121
          ],
          [
            120.85228268110541,
            12.875423671178272
          ],
          [
            120.85216487119958,
            12.875431157988224
          ],
          [
            120.85203209780487,
            12.875397197534054
          ],
          [
            120.85179102567652,
            12.875265612001806
          ],
          [
            120.85169083785529,
            12.875227222647654
          ],
          [
            120.85152048512474,
            12.875222068758069
          ],
          [
            120.85126371875573,
            12.875247199325361
          ],
          [
            120.85105664764612,
            12.875282129238956
          ],
          [
            120.85090232752489,
            12.875305282250379
          ],
          [
            120.85072138141112,
            12.875307554467625
          ],
          [
            120.85064979824627,
            12.875282548125963
          ],
          [
            120.85041928855516,
            12.875147291345383
          ],
          [
            120.85017902281629,
            12.875033555759694
          ],
          [
            120.84991020530232,
            12.875012565683274
          ],
          [
            120.84973969277313,
            12.875026193192845
          ],
          [
            120.8495772224047,
            12.874994805384377
          ],
          [
            120.849425958339,
            12.874996381200619
          ],
          [
            120.84928902848479,
            12.875000892189677
          ],
          [
            120.84905113050796,
            12.874946344188265
          ],
          [
            120.84894253675805,
            12.874883465854873
          ],
          [
            120.8488585143546,
            12.874745653915884
          ],
          [
            120.84877865318111,
            12.874681133086053
          ],
          [
            120.84864670991986,
            12.874662204920858
          ],
          [
            120.84835163611874,
            12.874577132674737
          ],
          [
            120.84793246957216,
            12.874450655519539
          ],
          [
            120.84758956785244,
            12.874361432817924
          ],
          [
            120.84726911523099,
            12.874221677867132
          ],
          [
            120.84663304537393,
            12.873936571544476
          ],
          [
            120.84616299397639,
            12.873715754554485
          ],
          [
            120.84602551692957,
            12.873672360730005
          ],
          [
            120.84571707128569,
            12.87369612191757
          ],
          [
            120.84538946543545,
            12.873721603535975
          ],
          [
            120.84480691324339,
            12.873783494334479
          ],
          [
            120.84419020657603,
            12.873809413553284
          ],
          [
            120.8433786072235,
            12.87378958515818
          ],
          [
            120.84331318785372,
            12.873827553360984
          ],
          [
            120.8431839743166,
            12.873937313878361
          ],
          [
            120.84306429258356,
            12.8740518487348
          ],
          [
            120.84291871792277,
            12.874171805452002
          ],
          [
            120.8427618012369,
            12.874274763279645
          ],
          [
            120.84252053757693,
            12.874390175000014
          ],
          [
            120.84227098028038,
            12.874467950629896
          ],
          [
            120.84210124089687,
            12.874503180841778
          ],
          [
            120.84182227518255,
            12.87454972056241
          ],
          [
            120.84166149625256,
            12.874544639217552
          ],
          [
            120.8414942982447,
            12.874506633317377
          ],
          [
            120.84137224183891,
            12.874451154723182
          ],
          [
            120.84121874234901,
            12.87437851159988
          ],
          [
            120.84108697732273,
            12.874338919072816
          ],
          [
            120.84093122587781,
            12.874305703112544
          ],
          [
            120.84070202687079,
            12.87424182770017
          ],
          [
            120.84052622248358,
            12.874202811107729
          ],
          [
            120.84036491299453,
            12.874147947716786
          ],
          [
            120.84012322240916,
            12.87408960398503
          ],
          [
            120.83971912881844,
            12.87399235345093
          ],
          [
            120.83946301618009,
            12.873941403721174
          ],
          [
            120.83904442836563,
            12.873859998851644
          ],
          [
            120.83872391781865,
            12.873839510388125
          ],
          [
            120.83818420770247,
            12.873817212848643
          ],
          [
            120.83787394487624,
            12.873829679420659
          ],
          [
            120.8374905722162,
            12.873883805494627
          ],
          [
            120.83702369723053,
            12.873963538761707
          ],
          [
            120.83697935976323,
            12.873998861730461
          ],
          [
            120.83696698722476,
            12.874102069940342
          ],
          [
            120.83698273469984,
            12.874275010023162
          ],
          [
            120.83699251338855,
            12.874474198007167
          ],
          [
            120.83694579416877,
            12.874563974024174
          ],
          [
            120.83683432325829,
            12.874613769582925
          ],
          [
            120.83666751161036,
            12.874642446017766
          ],
          [
            120.83646062621436,
            12.874655764423272
          ],
          [
            120.83618308488741,
            12.874647836997005
          ],
          [
            120.83604362299714,
            12.874612874373673
          ],
          [
            120.83575709008835,
            12.87453725095208
          ],
          [
            120.83531558701789,
            12.874449076542863
          ],
          [
            120.83507052659435,
            12.874448929837842
          ],
          [
            120.83486730902969,
            12.874481060983069
          ],
          [
            120.83484816494565,
            12.874480902759753
          ],
          [
            120.83471143796962,
            12.874461928195963
          ],
          [
            120.83440240075889,
            12.874331644714802
          ],
          [
            120.83419349917071,
            12.874245391223132
          ],
          [
            120.83364971695414,
            12.874028639651721
          ],
          [
            120.83323944362554,
            12.873871220675191
          ],
          [
            120.83298868930274,
            12.873865389913352
          ],
          [
            120.83281613492746,
            12.873894016398454
          ]
        ]
      }
    },
    {
      "type": "Feature",
      "properties": {
        "id": 172,
        "canal_id": 172,
        "canal_type": "Lateral",
        "remarks": "LATERAL C",
        "LENGTH": 2.1857,
        "canal_widt": 0,
        "station_no": "STA 0+000",
        "canal_leng": 2185.71,
        "station__1": "STA 2+185.7",
        "station__2": "2185.71",
        "canal": "LATERAL C",
        "canaltype": "Lateral",
        "canal_lining": "Unspecified"
      },
      "geometry": {
        "type": "LineString",
        "coordinates": [
          [
            120.83718260163671,
            12.889790476424315
          ],
          [
            120.83844014513248,
            12.88921276697123
          ],
          [
            120.83864524882016,
            12.889097898122921
          ],
          [
            120.83880476013603,
            12.888970697394349
          ],
          [
            120.83900763768672,
            12.888760168429068
          ],
          [
            120.83932794121114,
            12.888356337150158
          ],
          [
            120.83942086867819,
            12.888177776688902
          ],
          [
            120.8395479753143,
            12.887871670017146
          ],
          [
            120.83972883539857,
            12.887436109010968
          ],
          [
            120.83990352864998,
            12.88695934360356
          ],
          [
            120.84012773045232,
            12.886393322630278
          ],
          [
            120.84018998859219,
            12.886238418970377
          ],
          [
            120.84020926555729,
            12.886122014984018
          ],
          [
            120.8402102391628,
            12.886008448763267
          ],
          [
            120.84018699621392,
            12.885876749947355
          ],
          [
            120.84012389539598,
            12.88577461021
          ],
          [
            120.83999720706844,
            12.885627113816225
          ],
          [
            120.8394145546845,
            12.885006613444611
          ],
          [
            120.83910962387824,
            12.88468429544406
          ],
          [
            120.83897965971042,
            12.88456367082548
          ],
          [
            120.83887972253292,
            12.884494103547606
          ],
          [
            120.8386217642785,
            12.884378399694397
          ],
          [
            120.83775595106762,
            12.884084295651135
          ],
          [
            120.83731431571069,
            12.883939613336395
          ],
          [
            120.83675977091382,
            12.8837471947023
          ],
          [
            120.83593918970267,
            12.883432360505104
          ],
          [
            120.83528564336135,
            12.883175256213272
          ],
          [
            120.83414619712515,
            12.882714853659538
          ],
          [
            120.8333182161776,
            12.882415148722737
          ],
          [
            120.83222858626894,
            12.882218292837809
          ],
          [
            120.83147825037423,
            12.8820852898161
          ],
          [
            120.83116564455365,
            12.881923978871649
          ],
          [
            120.8306789252031,
            12.881638192378473
          ],
          [
            120.82996076524508,
            12.881215245106416
          ],
          [
            120.8288632396061,
            12.880824839802651
          ],
          [
            120.82840503423101,
            12.880674528093783
          ],
          [
            120.82752311784262,
            12.880370431973232
          ],
          [
            120.82684258007112,
            12.880248326857252
          ]
        ]
      }
    }
  ]
}