{
"type": "FeatureCollection",
"name": "Caguray RIS",
"crs": { "type": "name", "properties": { "name": "urn:ogc:def:crs:OGC:1.3:CRS84" } },
"features": [
{"type":"Feature","properties":{"id":11,"canal_id":20,"canal_type":"LATERAL","remarks":"LATERAL B1-A","Length":2.469,"canal_widt":null,"station_no":null,"canal_leng":null,"station__1":null,"station__2":null,"canal":"LAT B1-1","canaltype":"LATERAL"},"geometry":{"type":"LineString","coordinates":[[121.176108789250236,12.303039014147338],[121.176301362771369,12.302685827701637],[121.176495659642157,12.302352698780444],[121.176670226814622,12.302069953947855],[121.176914594669483,12.301681169399163],[121.177134492092677,12.301304561960633],[121.177228020786302,12.30114847206826],[121.177359661054794,12.30094092175448],[121.177646335690682,12.300477112686261],[121.177743746485774,12.300310500523898],[121.177838235300868,12.300160308379555],[121.177919300673722,12.300035955296432],[121.177998302698285,12.299904553536736],[121.178190420009528,12.29958976487654],[121.178305401751217,12.299408891447962],[121.17843999089375,12.29918736607855],[121.178561299699325,12.298995371064823],[121.178650823993877,12.298852752316456],[121.178770865659601,12.298655771974431],[121.178904590084173,12.298437386286091],[121.178973573750383,12.298322452246177],[121.179060679976558,12.298182543863001],[121.179135295987976,12.298041219148473],[121.1793069411804,12.297793616209015],[121.179405168991707,12.29762590081987],[121.179598144934701,12.29731288321115],[121.179814085660681,12.296960364590149],[121.18000972426708,12.296653987149901],[121.180083550156311,12.29651556360762],[121.180166031860495,12.296386082090908],[121.180295799587796,12.29613720592539],[121.180364088535327,12.295996936735877],[121.180432377482859,12.295838211074061],[121.180463753485768,12.29576253953762],[121.180493283841443,12.295624115995336],[121.180527227104264,12.295464695614839],[121.180582378820148,12.295057454593842],[121.180612457493197,12.294914350261903],[121.180601861690477,12.294803840648576],[121.180633621540494,12.294744034563234],[121.180697020563258,12.294329070954754],[121.180738453343295,12.294146399002502],[121.18077434693987,12.293924969614826],[121.180861310060763,12.293416217996155],[121.180927154045889,12.292973766572484],[121.180951052056358,12.292795338106293],[121.180983796688864,12.292466812899281],[121.1809882280956,12.292340890984557],[121.180984958021298,12.292274637482389],[121.18097328482277,12.292194951143022],[121.180962439044336,12.292099624503964],[121.18092576185326,12.291928885690881],[121.180886892007564,12.291724341356961],[121.180802515697366,12.291372165544459],[121.180744121000529,12.291114106538927],[121.18067406050605,12.29081222626222],[121.180551121863985,12.290289388454694],[121.18041066324507,12.289691304726151],[121.180375947480044,12.289543482965607],[121.180278585612996,12.289119441095014],[121.180196534674351,12.288765486024255],[121.180128694066028,12.288504134566219],[121.179888492488189,12.287689571075994],[121.17979267094158,12.287375778922915],[121.179611700405303,12.28677827978758],[121.179499216695845,12.286379191612152],[121.179396103487434,12.286025049683099],[121.17933996403211,12.285839699491998],[121.179285504320447,12.285666461899208],[121.179219719657681,12.28545073366964],[121.179158588505103,12.285239205364915],[121.179122575053938,12.285108681696675],[121.179075447554169,12.284950427825125],[121.179038682041536,12.284803047132153],[121.178940995234214,12.284463908104501],[121.178876430330774,12.284264359283698],[121.178789829703788,12.284100436532448],[121.178694243172714,12.283946527889009],[121.17858923511163,12.283777443980412],[121.178473834139083,12.283602809188018],[121.178296716936458,12.283319615280144],[121.178071144789129,12.282977837074418],[121.177818591694489,12.282591576527338],[121.177763114320385,12.282534050129195]]}},
{"type":"Feature","properties":{"id":12,"canal_id":95,"canal_type":"LATERAL","remarks":"SUPPLY CANAL","Length":1.054,"canal_widt":null,"station_no":null,"canal_leng":null,"station__1":null,"station__2":null,"canal":"MAIN CANAL  SUPPLY I","canaltype":"MAIN"},"geometry":{"type":"LineString","coordinates":[[121.19628399099571,12.348977148698415],[121.19629681791794,12.348592341031649],[121.196290404456818,12.348136985292635],[121.196299277476925,12.347758949098175],[121.19630366726318,12.34765276897862],[121.196302289627283,12.347448316543762],[121.196299082896743,12.347140470410347],[121.196296475481347,12.347074553428339],[121.196295082270822,12.346747256756805],[121.196294482955665,12.34636243351544],[121.196291680960073,12.346108907221293],[121.196291859965683,12.345721071829558],[121.196296522205131,12.345558734886588],[121.19629469311046,12.34542388877221],[121.196283243824155,12.345312929706003],[121.196248942688968,12.345231235949768],[121.196136932848859,12.345125351543047],[121.195984192837912,12.344998327674872],[121.195711636315181,12.344808126521919],[121.195470695639315,12.344640582637641],[121.195235615833155,12.344472844173177],[121.194795110691217,12.344162001463983],[121.194383808560858,12.34386038978608],[121.193776748010166,12.343435676992952],[121.193083884055198,12.342939801237833],[121.192864223012094,12.342776257979452],[121.192727921388837,12.342666014935633],[121.192648998479015,12.342580079249537],[121.19245798785613,12.342323136070055],[121.192311887035601,12.342111702008109],[121.192156991067989,12.341911639359529],[121.192003215857682,12.341716161077404],[121.191947876393684,12.341655023042053],[121.191878768255719,12.341610082090492],[121.191774238225236,12.341556571721153]]}},
{"type":"Feature","properties":{"id":13,"canal_id":null,"canal_type":"LATERAL","remarks":"LATERAL B (FLUME)","Length":0.119,"canal_widt":null,"station_no":null,"canal_leng":null,"station__1":null,"station__2":null,"canal":null,"canaltype":null},"geometry":{"type":"LineString","coordinates":[[121.18908800158168,12.310887618590742],[121.189104642863242,12.310961099431195],[121.18913606587688,12.311009563983967],[121.189282710948802,12.31109474790077],[121.189435967379296,12.311127934491573],[121.189534612993171,12.311126222741514],[121.189709304604946,12.311120756976045],[121.189769880218662,12.311127781782645],[121.189820587054442,12.31117069684479],[121.189934745922599,12.31136258597404]]}},
{"type":"Feature","properties":{"id":9,"canal_id":21,"canal_type":"LATERAL","remarks":"LATERAL B1-B","Length":0.901,"canal_widt":null,"station_no":null,"canal_leng":null,"station__1":null,"station__2":null,"canal":"LAT B1-2","canaltype":"LATERAL"},"geometry":{"type":"LineString","coordinates":[[121.169696247543683,12.272437249839875],[121.170238867829426,12.272776848930267],[121.170812312504694,12.273108275309527],[121.171205754803054,12.273342795493647],[121.171779538369591,12.273692808793967],[121.172241947365237,12.273961853468862],[121.172485421554029,12.274113448836276],[121.172736650789417,12.274261478717779],[121.172894203257997,12.274355119434228],[121.173010908721508,12.274409100648811],[121.173133270818752,12.274446231414244],[121.173435178239373,12.274500638792405],[121.173736369331024,12.2745316301305],[121.174084597342429,12.274601213111863],[121.174270169888729,12.274633140728168],[121.175132277952372,12.274763078454743],[121.17583606886231,12.274869240468368],[121.176299973334039,12.274930194528737],[121.176673345687988,12.274981872651185],[121.17711246800117,12.275043484380106],[121.177360247412764,12.275064296866979]]}},
{"type":"Feature","properties":{"id":10,"canal_id":21,"canal_type":"LATERAL","remarks":"LATERAL B2","Length":4.383,"canal_widt":null,"station_no":null,"canal_leng":null,"station__1":null,"station__2":null,"canal":"LAT B1-2","canaltype":"LATERAL"},"geometry":{"type":"LineString","coordinates":[[121.192832458039561,12.307840455014908],[121.192819557079901,12.307620818351712],[121.192818155825208,12.307453685594558],[121.192802628587685,12.307201244309759],[121.192783849805508,12.306633093344358],[121.192775691503812,12.30623067709813],[121.192768329401773,12.305875009430347],[121.192758590214112,12.305576458544799],[121.192744240584261,12.305248170812677],[121.192727882196209,12.305084379790896],[121.192721751704909,12.305004386268436],[121.192700800322854,12.304939705046067],[121.192648960212182,12.304665485568211],[121.192642033833138,12.304186720515009],[121.192645772829366,12.30383355487702],[121.192638628749265,12.303318019984495],[121.192637334715428,12.303106826077983],[121.192640522098259,12.302188531581065],[121.192644356498008,12.301580461096593],[121.19265639050289,12.301302477805022],[121.19265598199479,12.301023185758034],[121.192667750596868,12.300746434076951],[121.192666408861271,12.300607357431531],[121.192672953626214,12.300437041802276],[121.192678681374957,12.300222699579306],[121.19269390276267,12.299753979778449],[121.192704111928094,12.299344341496761],[121.192713197058964,12.299081156363213],[121.192726429694147,12.298620248467165],[121.19275591234809,12.297531221197513],[121.192778203220129,12.296815709387149],[121.192787983069707,12.296545093962918],[121.192782684636839,12.29642251801746],[121.191979336721772,12.296409471543573],[121.191130555751457,12.296411916505958],[121.190429209803767,12.296402688269804],[121.189659920417654,12.296399860748048],[121.188839762029033,12.296401133478925],[121.188264614811729,12.296419876161821],[121.187686232509819,12.296443583365235],[121.187346633419381,12.296450965954161],[121.18723774023276,12.296474959368158],[121.187186062110285,12.296474959368158],[121.187110390573835,12.296467576779236],[121.186746798069365,12.296467576779238],[121.186554850757389,12.296463885484775],[121.185908874226612,12.29647311372093],[121.185825820101243,12.296478650662618],[121.185449137872297,12.296427268508916],[121.18534492768012,12.296376938439195],[121.185288134959322,12.296216299745444],[121.185326342691397,12.295998230679846],[121.185312982844152,12.295641577675109],[121.185261519707836,12.295013096971179],[121.185135187242196,12.293899546550263],[121.185083025283333,12.29315417720772],[121.185062722198538,12.292736737447308],[121.185072795173454,12.29158287509749],[121.185106078066639,12.290390110831366],[121.185114782423739,12.289019594694469],[121.185222802182693,12.287538581289597],[121.185358798033221,12.28524277551967],[121.18535892007759,12.284617054128415],[121.185298235876473,12.283569662252608],[121.185182602092183,12.281493856510345],[121.185155221287616,12.281016280226593],[121.185130958636691,12.28061787487121],[121.185112721014221,12.280221812485179],[121.185120481140231,12.279840796547878],[121.185082698014639,12.278486820614569],[121.185070311560509,12.277899075170414],[121.185006144892327,12.275562651221952]]}},
{"type":"Feature","properties":{"id":14,"canal_id":78,"canal_type":"LATERAL","remarks":"LATERAL A","Length":7.607,"canal_widt":null,"station_no":null,"canal_leng":null,"station__1":null,"station__2":null,"canal":"LATERAL A-1","canaltype":"LATERAL"},"geometry":{"type":"LineString","coordinates":[[121.17680060514293,12.325100947908965],[121.17663390239251,12.325112771662415],[121.176155285260194,12.325134919429178],[121.175401604542387,12.325152626031411],[121.175262273713543,12.325154939835906],[121.175173744794648,12.325153970401173],[121.175096759962514,12.32515365761429],[121.175026061942134,12.325147182311946],[121.174941100021414,12.325131822634413],[121.174862362764273,12.325106984081993],[121.174787004014718,12.325079674308579],[121.174715868911164,12.325045889232811],[121.174556579823744,12.324968904400684],[121.17450671627445,12.324938466758422],[121.174417812420515,12.324888884921938],[121.174138243476236,12.324743578022083],[121.173981394535758,12.324661712896113],[121.173854326589677,12.324597239539358],[121.173675893308015,12.324509462536653],[121.173545790715323,12.324449401316482],[121.173469180818245,12.324416743091957],[121.173408774714048,12.324393218858292],[121.173320340040448,12.324363501035087],[121.173168371393785,12.324325962516715],[121.173053941265522,12.324297370521679],[121.172899783110665,12.324264774445309],[121.172636230491776,12.324197330636215],[121.172443063106357,12.324153097250839],[121.172219708717449,12.324095225538859],[121.172110189957095,12.324066977404781],[121.171950869795594,12.324025809740105],[121.171839536462116,12.324005445472421],[121.171563847302863,12.323942975179401],[121.171302422044008,12.323889919566984],[121.170978182631188,12.323821568471313],[121.170680061946257,12.323770453774483],[121.170530535492674,12.323748587720527],[121.170091051887212,12.323682457207125],[121.169910804032412,12.323653960480447],[121.169379601491059,12.323588892624],[121.168955353266838,12.323531083060169],[121.168056835852582,12.323411397703014],[121.167304437356421,12.323312358326346],[121.167103081074387,12.323286586355952],[121.16672152561857,12.323227615970261],[121.1665248304936,12.32315851500452],[121.166330687535066,12.323031662530841],[121.165770360647159,12.32267385556078],[121.165231369507779,12.322338981393886],[121.164876379665799,12.322115627004948],[121.164545070450913,12.321907006719778],[121.163797082045207,12.3214402133409],[121.163591453938537,12.321314141214735],[121.163414032559757,12.321200687256212],[121.163311301888612,12.321120667777469],[121.163206210664299,12.321036093192015],[121.163129146238447,12.320946238577172],[121.163067019806363,12.320860682156736],[121.162978366591148,12.320725042622348],[121.162828212517667,12.320500561382177],[121.162523461160021,12.320019067019743],[121.162280055290282,12.319655880524497],[121.162097023427606,12.319375936645189],[121.161987566815412,12.319216898196506],[121.16187867362882,12.319079413014892],[121.161526693032997,12.318695948358087],[121.161042908220409,12.318153492604996],[121.160712850153061,12.317783706511104],[121.160495268856579,12.317553395666685],[121.159937427677633,12.316924198327428],[121.159249314047642,12.31617402041352],[121.158973374249669,12.315869770333341],[121.158876806094,12.315757185852297],[121.158767005620831,12.315633558561947],[121.158706724836009,12.31555113001035],[121.158662336080255,12.315488784013635],[121.158626392570369,12.315423092629546],[121.158586946256619,12.315281039940967],[121.158564235064247,12.315189571643806],[121.158544902379461,12.315110459451638],[121.158501139197455,12.314913412281189],[121.158463225744072,12.314742674375353],[121.158446770289359,12.314633124540924],[121.158432850249952,12.314533397442338],[121.158425846129916,12.314335249664403],[121.158402159652482,12.3140443748867],[121.158342570952158,12.313310452124679],[121.158300870935932,12.31266560244533],[121.158302059935309,12.312607792881499],[121.158305469516975,12.312517043380332],[121.158319671269183,12.312402582177983],[121.158331652439159,12.312313052750271],[121.158368064106327,12.312204816211537],[121.158456717321513,12.311950711393456],[121.158782895603778,12.311058669281554],[121.158938431248586,12.310568321618002],[121.159078700438073,12.310114292399359],[121.159185903347833,12.309678688578943],[121.159463500302451,12.308661830177307],[121.159676690140714,12.307857065836767],[121.159679911231791,12.307740446200304],[121.159657670242808,12.307615567762415],[121.159604709898716,12.30749716462687],[121.159416453881235,12.307092967883444],[121.159303869400176,12.306877027157508],[121.159124841618862,12.306493132533616],[121.158871987948302,12.306050177198355],[121.158590761847393,12.305601778143631],[121.158204239609063,12.304991463410115],[121.157906809715271,12.304526234988723],[121.157543341507179,12.30394898551191],[121.157274471511258,12.303545132629445],[121.156985110905239,12.303122226728858],[121.156908971211507,12.303022313185815],[121.156772231807707,12.302878222267173],[121.156635964653432,12.302750151766162],[121.156482626701305,12.302603413412704],[121.156358391543279,12.302487818090526],[121.155911665059335,12.302058854257558],[121.155555736856684,12.301723634183571],[121.155155167213465,12.301343118067257],[121.155087472765615,12.301273358407544],[121.155025971907349,12.30120563288564],[121.154968100195362,12.301131587431774],[121.154905190773036,12.301034986155901],[121.154842819840624,12.300927571866026],[121.154759699474852,12.300797651625532],[121.154632287667809,12.300581835195896],[121.154533518056567,12.300435508525391],[121.154359762266949,12.300200712449973],[121.154239103841505,12.300043957913616],[121.153992504726759,12.299752545089818],[121.153845008318712,12.299567887144569],[121.153656190921723,12.2993634573852],[121.153434837550407,12.299110448344278],[121.153288124132672,12.298942432298171],[121.153069461546977,12.298695678994941],[121.152874042505218,12.298474607336418],[121.152459960877778,12.297995708491284],[121.152149421939725,12.297636996280767],[121.152074469199292,12.297541743466921],[121.152050258266769,12.297521596717768],[121.151832440819504,12.297305061492132],[121.151584560665029,12.297046764102125],[121.151330486921026,12.296785995491115],[121.151023233268319,12.296468513093435],[121.150722581260368,12.296153501916757],[121.15031660511012,12.295732822736818],[121.149827566650018,12.295224797498971],[121.149654701384108,12.295042985709754],[121.149465538080051,12.29484268637416],[121.149290858241017,12.294665754878784],[121.149150963986571,12.294512375621963],[121.149101632788813,12.294446309302838],[121.149042478855222,12.294375047856853],[121.148864045573561,12.294101173270777],[121.148749020945615,12.293917859695286],[121.148586603989344,12.293655715640435],[121.148460130542958,12.293455134592033],[121.14838602294094,12.293333603587641],[121.148318922992814,12.293225493391333],[121.148182407245912,12.293012398821427],[121.148083305721073,12.292853484669042],[121.147987300991062,12.292700859374547],[121.14791481947158,12.292581360461844],[121.147874122010293,12.292513634939942],[121.147822506036007,12.292404022957358],[121.147775426494604,12.292307390607411],[121.147760989640673,12.292267241034699],[121.147736355115882,12.292203612816369],[121.147719353818729,12.29215448564624],[121.147708404231679,12.292087259355673],[121.147700724392891,12.292048123782671],[121.14769459295151,12.292001139509615],[121.147683159670123,12.291923105511438],[121.147680329051141,12.291823348361842],[121.147685005317356,12.291712892263899],[121.147688885102397,12.291615401284615],[121.147712002303876,12.29143143106128],[121.147738904022063,12.291249932058941],[121.147762114445769,12.291166877933575],[121.147904123783533,12.290765158167391],[121.148061424130105,12.290391972272625],[121.148157553156452,12.290171745752524],[121.148373307437936,12.289681992588653],[121.148585712239807,12.289187421279081],[121.148718441423881,12.288911794267998],[121.148847763072439,12.288608358252159],[121.1490856340466,12.288103538568334],[121.149115869707373,12.288017698388954],[121.149138767344212,12.287950332265046],[121.149154251318024,12.287885579241609],[121.149155861863562,12.287809717168457],[121.149146429599782,12.287707647237427],[121.149129428302643,12.28763083535884],[121.149096237726596,12.287530167853468],[121.149049643925608,12.287412734152644],[121.149031702221677,12.287350075369039],[121.148981306320835,12.287209856882903],[121.148708026234416,12.286345421794222],[121.148488114547362,12.285692812544745],[121.148366204515639,12.285396844155533],[121.148292098959757,12.285259893371581],[121.148217079978906,12.285130192695732],[121.148080564232018,12.284923449131858],[121.147979648134012,12.284793379659359],[121.147888621012299,12.284667741952742],[121.147664201920279,12.284378867087117],[121.14749427807881,12.284152291607104],[121.147191015016531,12.283765269114349],[121.147090219122575,12.283634698364386],[121.146950878929744,12.283535019822484],[121.146792632231922,12.283439185152105],[121.146394068301916,12.283211823537846],[121.14617015048735,12.283070990922724],[121.145890925404018,12.282906586439751],[121.145590506451612,12.282750456295238],[121.145499444163562,12.282707913186716],[121.145406425422877,12.282662273283426],[121.145332617116821,12.282630209558592],[121.14520619028157,12.282562732629291],[121.14508215698207,12.282507303110359],[121.144728731074522,12.282325804108016],[121.144118698053759,12.282039056602432],[121.143811147151169,12.281880721412694],[121.143709183933296,12.281832750121744],[121.143558245645067,12.281759953731964],[121.14309922859772,12.28153230009527],[121.142726392320156,12.281353006138156],[121.142515112323395,12.281247147598181],[121.14179052283194,12.280902339890028],[121.141488274792451,12.280753922704493],[121.141318021603951,12.280666333169302],[121.140628297428393,12.280327859907089],[121.14047629770765,12.280258756895218],[121.14040559968727,12.280225129235959],[121.140367528817364,12.280201887738164],[121.140155903042199,12.280317640883883],[121.13901917317348,12.277915138931599]]}},
{"type":"Feature","properties":{"id":16,"canal_id":11,"canal_type":"LATERAL","remarks":"LATERAL B","Length":6.253,"canal_widt":null,"station_no":null,"canal_leng":null,"station__1":null,"station__2":null,"canal":"LAT B-1","canaltype":"LATERAL"},"geometry":{"type":"LineString","coordinates":[[121.176712459884286,12.318593593881859],[121.176961775769584,12.31858113056111],[121.177299062599019,12.318565861471637],[121.177479336712423,12.318546901087705],[121.17758462360419,12.318533429943702],[121.17767760068439,12.318514002946019],[121.177825024357873,12.318475292055943],[121.177945961953256,12.318431691241097],[121.178063436359096,12.31838103134579],[121.178184782462523,12.318343243279335],[121.178427628178611,12.318230982306744],[121.17866438533963,12.318132887196835],[121.178970391569635,12.318008306008778],[121.179287471683054,12.317871680411967],[121.179617062818963,12.317728510050209],[121.180214129698001,12.317500572617254],[121.180249196995376,12.317480270497722],[121.180539658329238,12.317333313437969],[121.180882253995406,12.317192349529781],[121.18124021415457,12.317000163708997],[121.18141749169223,12.316895200325684],[121.181483934992528,12.316861978675538],[121.18165927147939,12.316723555133258],[121.181733097368607,12.316677413952497],[121.181851218791365,12.316577749002059],[121.182337461836923,12.316220531263339],[121.182644942503941,12.3159985019823],[121.182800671589973,12.315880523664843],[121.183501227415334,12.315363313124458],[121.1839488072726,12.314997248763698],[121.184245214056233,12.314773183028368],[121.184827430757764,12.314317403565992],[121.184943611129711,12.31422780467568],[121.185249985032911,12.314034158358828],[121.186151576838128,12.313351557643328],[121.186554431845977,12.31303156595378],[121.186651201835161,12.312958219879871],[121.186698874922143,12.312909673996373],[121.186909225430099,12.312746376158811],[121.187063326569955,12.312629909576238],[121.187264502118055,12.312456418736582],[121.187738833456265,12.312050376345894],[121.188143030199726,12.311712622902734],[121.188384809986914,12.311498527824003],[121.18908800158168,12.310887618590742],[121.189355620430106,12.310660603981402],[121.190090188027796,12.31004784910091],[121.191003783406842,12.309304053267065],[121.191592544873345,12.308842641459465],[121.19184031781208,12.308652948302834],[121.192217810776341,12.308379023198299],[121.192461722421328,12.308194840089371],[121.192810263537282,12.307934916934455],[121.193213357053978,12.307655876843322],[121.193887760713508,12.307197352760978],[121.194645245392408,12.306712764555584],[121.195095556422629,12.306382509912652],[121.195879513732692,12.305849192458819],[121.196615818127071,12.305357385577567],[121.196808501982886,12.305223137085791],[121.196963637630375,12.305078910546824],[121.197055225273189,12.304985334151464],[121.197125741482068,12.304880901573769],[121.197152874577128,12.304818871180599],[121.197173946011091,12.304747367956255],[121.19724561314851,12.304399998576619],[121.197348662375077,12.304070262566883],[121.197483871640515,12.303581559837358],[121.197577904245748,12.303276816429507],[121.197677017582791,12.302890885351301],[121.197687778361612,12.302828813342579],[121.197694527850587,12.302771423232096],[121.197690175622213,12.30269852953124],[121.197680613473736,12.302572283099122],[121.197614504085777,12.302214874553348],[121.197494489314039,12.301395502586582],[121.197422965281916,12.30096920577812],[121.19736380916703,12.300572248518291],[121.197268100913846,12.299993314603103],[121.19721992327878,12.299677157313315],[121.197171936450815,12.299415998230211],[121.197153479978482,12.299214822682103],[121.197088882325417,12.298827236763719],[121.196939384899764,12.297930252209747],[121.196819417829786,12.297210449789889],[121.196738209351636,12.296629070912312],[121.196733133821766,12.296538172786219],[121.196720214291176,12.296366066181983],[121.19672298276204,12.296226719816085],[121.196716522996738,12.2959969367359],[121.196710986055038,12.295758848243176],[121.196709140407805,12.295288208199427],[121.196712831702271,12.295051965353935],[121.1966906839355,12.294662533788321],[121.196683301346567,12.294380149762071],[121.196678687228498,12.294071926674595],[121.196675918757649,12.293686186403445],[121.196647311225561,12.292864873385914],[121.196640851460273,12.292616633833427],[121.196630101085361,12.292470323790601],[121.19661900030799,12.292280352278114],[121.196603026095943,12.291980558669215],[121.196584194941238,12.291538636892188],[121.196580700925836,12.291224183852743],[121.196570196376371,12.290801415211133],[121.196561108922708,12.2905836477726],[121.196557752485774,12.290414333158553],[121.1965531413707,12.290228926352635],[121.196542034137636,12.289949790061716],[121.196521389264277,12.289678137165009],[121.19650007794381,12.289445522182508],[121.196452918288202,12.289209822558576],[121.196393216565937,12.288975390615805],[121.196268567566008,12.288562641852579],[121.196191664049209,12.28835446533],[121.196081410129466,12.288028537977114],[121.195936781325301,12.287597582351841],[121.195820170692286,12.287217118265149],[121.1956689582629,12.286742460830785],[121.195539253454413,12.286357394920195],[121.195449703211011,12.286101931878692],[121.195346927283637,12.285804943382722],[121.195286371079717,12.285666153973194],[121.195168685428584,12.285463920514283],[121.195068546711283,12.285278529114386],[121.194880131346096,12.284975600759353],[121.19470070665345,12.284673337473725],[121.194578411777542,12.284490177485262],[121.194368931064631,12.284128992893129],[121.194238615874042,12.283909825878245],[121.193964878371617,12.283431147432983],[121.193549419692999,12.282744143803116],[121.193427188761191,12.282534159628245],[121.193215606114421,12.282148637565802],[121.192943578995838,12.28165880945067],[121.19275539853372,12.281364904950387],[121.192650098038811,12.281314408083441],[121.192620503955197,12.28124251696544],[121.192602565746583,12.280922145950825],[121.192557716161119,12.280617903540726],[121.192531389430627,12.280430241281989],[121.192477773012712,12.2800837232134],[121.192445654589335,12.279920161414786],[121.192415364625717,12.279781952738114],[121.192319390969715,12.27928789219702],[121.192217825719098,12.278668500398831],[121.192074610906346,12.277670987121597],[121.191968599894352,12.276854401925915],[121.191857027882122,12.276045441528399],[121.191815511223353,12.275688628966856],[121.191770133766283,12.275603343959864],[121.191618845346383,12.275478876475574],[121.190581591602893,12.274851356417244],[121.190522530891513,12.274740617583419]]}},
{"type":"Feature","properties":{"id":17,"canal_id":11,"canal_type":"LATERAL","remarks":"LATERAL B1-1","Length":6.716,"canal_widt":null,"station_no":null,"canal_leng":null,"station__1":null,"station__2":null,"canal":"LAT B-1","canaltype":"LATERAL"},"geometry":{"type":"LineString","coordinates":[[121.187041640215043,12.312644674754059],[121.186894076230118,12.312518735970267],[121.186753910054151,12.312321454066126],[121.186572124205853,12.312030414224896],[121.186299806239717,12.311605459152039],[121.186008003170258,12.31110085503769],[121.185734152661453,12.310649053080361],[121.185460159047409,12.310166978346887],[121.185321878610409,12.3099275004168],[121.185233049034537,12.309802548018526],[121.185165645612742,12.309729512251524],[121.185072498533273,12.309563860210648],[121.184747426111926,12.308957936305687],[121.184473623304896,12.308443600043564],[121.184279734942194,12.308120611778243],[121.184151738266351,12.307919463124113],[121.184049580651759,12.307788088258404],[121.183971511854708,12.307685209031145],[121.183896344229879,12.307591632635786],[121.183720912339467,12.307430462011586],[121.183615111132184,12.307330531658337],[121.183361753549988,12.307102747734568],[121.183120116868125,12.306888366445255],[121.182738333294225,12.30657765069363],[121.182387156408808,12.30627621087992],[121.181947987771494,12.305900849773463],[121.1814088202714,12.305440827403229],[121.181054789915521,12.305135028470362],[121.180724732165856,12.304823877316652],[121.180463753485895,12.304617954949059],[121.180241902839512,12.304468546840718],[121.179987576500466,12.304409396812027],[121.179891602844492,12.304394631634182],[121.179452338803642,12.304289429742051],[121.179264082786133,12.304222986441758],[121.178974316170965,12.304104865019015],[121.178570119427505,12.303947985004427],[121.178396533184326,12.3038775373051],[121.178024767968807,12.303739713077983],[121.177776995030072,12.303649827977079],[121.177422126850189,12.303521640494209],[121.177051151756899,12.303392445188077],[121.176728163491561,12.303272478118105],[121.176291914285102,12.303108582407139],[121.175988372056736,12.30299903611742],[121.175779262306321,12.302910826664478],[121.175540887603006,12.30280037404124],[121.1754219014623,12.302736975018485],[121.175248130498275,12.302642778500189],[121.175152156842302,12.302581872141589],[121.174939519710477,12.30244946255864],[121.174779929330711,12.30235598156681],[121.17449653748119,12.30218258613068],[121.17435092215706,12.302104061123751],[121.174168250783012,12.301987186033081],[121.173987690458986,12.301876855707354],[121.173162086831837,12.301379729585456],[121.172605995402108,12.301048854819587],[121.172250337100053,12.300834160425705],[121.172017642443734,12.300691350870283],[121.1718060877309,12.300562046713633],[121.171576423905137,12.300425925028447],[121.171351459197083,12.300291935201077],[121.171050761803812,12.300107479328554],[121.170759210690164,12.299936671960106],[121.17051537427821,12.299789333286249],[121.170391314129176,12.299712667373536],[121.169986014158923,12.299464907881797],[121.169789238070962,12.29934487966306],[121.169664176822167,12.299262029791743],[121.16951089269854,12.29914879829377],[121.169356900409198,12.299005437124952],[121.169290157451314,12.298943284434271],[121.169225607499996,12.298877992062529],[121.169145427652907,12.298719484101754],[121.169080829999828,12.298562481789659],[121.168939075969433,12.298238655700361],[121.168785574144749,12.297910539001451],[121.168634448772863,12.297549152950626],[121.168552456258737,12.297362516243949],[121.16844357779371,12.297154375250381],[121.168133917567147,12.296447131554805],[121.167912896109357,12.295947056558889],[121.167731375663848,12.295540394045268],[121.167682932625993,12.295442452444545],[121.167643887823587,12.295356497146926],[121.167549759814847,12.295105489123594],[121.167472242631163,12.29495783734516],[121.167344892972224,12.294668070729992],[121.167265530141336,12.294500116832026],[121.167184321663186,12.294311860814524],[121.16716032824921,12.294228806689159],[121.167147408718591,12.294099611383027],[121.167145563071387,12.294025785493814],[121.16714740871862,12.293920583601682],[121.167171402132595,12.293230311537517],[121.167184703277314,12.292749244627297],[121.167190335622536,12.292547422062265],[121.167215289158023,12.291878099134552],[121.167237451806628,12.291184202475327],[121.167249781728614,12.290920293907522],[121.167273584335547,12.290240738632331],[121.167294298663606,12.289495156449789],[121.167324504740336,12.288736230919834],[121.167350483206434,12.288099613234541],[121.167349145171244,12.287601249587738],[121.167319178548453,12.287387283262236],[121.167281603289737,12.287145857779853],[121.167211089836144,12.286821798242645],[121.167137676155463,12.286486868171032],[121.167058942288989,12.286095245449067],[121.166994303389899,12.285826627573071],[121.166860512265913,12.285160891740617],[121.166807282603145,12.284898887184937],[121.166735910022325,12.284548721327738],[121.166640516683842,12.284112726216685],[121.166550928445147,12.283709099139115],[121.166451847512661,12.283221289256039],[121.166408619100935,12.282985709300311],[121.166396619390937,12.282814968055632],[121.16638761066595,12.282639282808843],[121.166349644991669,12.281648431003353],[121.16631456054688,12.280979052027872],[121.166297743617534,12.280586293674562],[121.166263010232527,12.279748149375633],[121.166262091357027,12.279353245244939],[121.16624635772888,12.278388710463464],[121.166245046614549,12.278085089508027],[121.166235057365981,12.27768252461569],[121.166244045715644,12.277375801666318],[121.166273573748541,12.277088585140714],[121.166320789907388,12.276842400173463],[121.166385128653431,12.276615301448327],[121.166478216974966,12.27638425844545],[121.1665888826887,12.276218176288726],[121.166694561638863,12.276055100951357],[121.16683821411894,12.275860506576134],[121.166983146115044,12.275685588965372],[121.167422015094786,12.275169011994912],[121.167965030441607,12.274544978976989],[121.169626589966569,12.272527421151358],[121.169709258801348,12.272416026303127],[121.169803172785549,12.272249593137525],[121.169846033375521,12.272183197302716],[121.169907536853728,12.272119798516245],[121.169960617860525,12.272069796041748],[121.170251331150183,12.271915578690592],[121.170350581326986,12.271858028998455],[121.170679677013737,12.271685689946382],[121.170913991056224,12.271571654632657],[121.171174862931082,12.271444305076916],[121.171612029368873,12.271208048784432],[121.171840385713793,12.271082040861138],[121.171991524532629,12.27099034436778],[121.172075048314866,12.270932005269078],[121.172291527207207,12.270697356115004],[121.172532360319906,12.270422702037013],[121.17290019573214,12.269999306400807],[121.173296948737914,12.269632656171884],[121.173840277189328,12.269166967201661],[121.174503606965487,12.268626036010875],[121.174748000129497,12.268452507346856],[121.174993186585397,12.268321674217134],[121.175543257969608,12.268026152959232],[121.175761044342792,12.267904340242026],[121.175898623684972,12.267789142939897],[121.177550871782714,12.266906922425134]]}},
{"type":"Feature","properties":{"id":18,"canal_id":null,"canal_type":"LATERAL","remarks":"PROPOSED LATERAL B2","Length":null,"canal_widt":null,"station_no":null,"canal_leng":null,"station__1":null,"station__2":null,"canal":null,"canaltype":null},"geometry":{"type":"LineString","coordinates":[[121.186554850757389,12.296463885484775],[121.185908874226612,12.29647311372093],[121.185887250071104,12.296217892002574],[121.185876564199987,12.296057657099999],[121.18586573,12.295840331799997],[121.185849420899999,12.295664585700001],[121.185864967400008,12.295405907699999],[121.185887296000018,12.295222961299999],[121.185914438300003,12.2949055836],[121.1859411808,12.294636761],[121.185992682899993,12.2943649855],[121.1861447717,12.293831623199999],[121.186234402599993,12.2936028854],[121.186294704900021,12.293448704199998],[121.186327415199983,12.2932400742],[121.186355657600018,12.292878777299999],[121.18637304870002,12.292701635499999],[121.18644055110002,12.292485107499999],[121.186462548099996,12.2922568846],[121.186478687900021,12.292135455499999],[121.186495600300006,12.291857004499999],[121.186525506699979,12.291614495],[121.186535766700018,12.291470611699996],[121.186558575700005,12.291277133799998],[121.186591319300007,12.291062095799999],[121.186597349099998,12.290849014300001],[121.1866022074,12.290653018899999],[121.186571998100007,12.290422155],[121.186390494800008,12.290318717399996],[121.186179598,12.290225251799999],[121.186083587699997,12.290176213200001],[121.186092075900007,12.290036381400002],[121.186094532,12.2898769967],[121.186103366799998,12.289699907699999],[121.186105724600012,12.2895291476],[121.186107681300001,12.289367174399999],[121.186120564300012,12.2890917646],[121.186121188400008,12.288906494799999],[121.185953309500007,12.288907416500003],[121.185731337899995,12.288909698899998],[121.1857329443,12.288764531700002],[121.185733288,12.288583962400001],[121.185748332300008,12.288380520599999],[121.185746383400001,12.2881760425],[121.185702952800014,12.287944303699998],[121.18552014319998,12.287929790899998],[121.185276929900013,12.287911278299998],[121.185291902100005,12.287696465099996],[121.185306479499999,12.287490673799999],[121.185320057599981,12.2872909871],[121.185336374599999,12.287084848499999],[121.185347415400003,12.286883877],[121.18536464189998,12.286679493],[121.185378904200007,12.286478494600001],[121.18539040269998,12.286273695400002],[121.185405447600019,12.286070917699998],[121.185420416100015,12.2858675016],[121.185439679,12.2856310384],[121.185443692599989,12.285601881099996],[121.185455019800003,12.2854539443],[121.185462307700007,12.285286624900001],[121.185461582200006,12.285256743599998],[121.185463151100009,12.285248346499996],[121.185464747000012,12.285227451100003],[121.185465659100018,12.2851760062]]}},
{"type":"Feature","properties":{"id":15,"canal_id":96,"canal_type":"MAIN CANAL","remarks":"MAIN CANAL","Length":16.673,"canal_widt":null,"station_no":null,"canal_leng":null,"station__1":null,"station__2":null,"canal":"MAIN CANAL 1","canaltype":"MAIN"},"geometry":{"type":"LineString","coordinates":[[121.193488738410394,12.381529439439678],[121.193966326485523,12.380429563675053],[121.194065337667851,12.379752659624193],[121.194183624562996,12.379415613625026],[121.19427711053136,12.378984113785034],[121.194360225501441,12.378638207194529],[121.194429072221538,12.378217161254231],[121.194466454187406,12.377926207734339],[121.19447425259446,12.377661587398077],[121.194501321890485,12.377258351849418],[121.194524013454142,12.377029850443195],[121.194507056696679,12.376809632692634],[121.194505603388421,12.376227689450708],[121.194522353552784,12.374787264480821],[121.194536840621026,12.373689618996224],[121.194541707497535,12.373268820781783],[121.194530671609684,12.372442235170022],[121.194467839133324,12.370996437146262],[121.194447024781525,12.370699922858162],[121.194413585905281,12.370321435097203],[121.194398954972343,12.369920298172643],[121.194379994387987,12.369253399999721],[121.194314719758637,12.368337723794818],[121.194266879704372,12.367423243544938],[121.194206761293756,12.366578464623585],[121.194163844017041,12.366150350519749],[121.194123176144529,12.365877778422471],[121.19402953491948,12.365491188384864],[121.193928507332373,12.365126531704034],[121.193857180939347,12.364868856927599],[121.193723486731542,12.364373339183713],[121.193674397297656,12.364174747618598],[121.193639738151276,12.364061554722783],[121.19340360757127,12.363173259209542],[121.193178731697387,12.362350670523519],[121.193076805137537,12.361980230845912],[121.192812354944039,12.361141686380062],[121.192589502744994,12.360453500239162],[121.192369436966942,12.359769143403657],[121.1921120890525,12.358937759570489],[121.19200932581829,12.358596507534299],[121.191617505375277,12.35733946915628],[121.191399805708656,12.356610762999271],[121.191275373681307,12.35624555372706],[121.191103408861579,12.355848518453248],[121.190999939687785,12.355650036012277],[121.190846839267905,12.355308199929127],[121.190532579673402,12.354612728558809],[121.190264864395729,12.354040280430755],[121.19012373710207,12.35374307411375],[121.190001266451191,12.35347630058784],[121.189892299910653,12.353254662593674],[121.189613641214265,12.352641966902665],[121.189514878605976,12.352425333584524],[121.189454939200928,12.352210241333298],[121.18943330155696,12.352050068236498],[121.189419260429858,12.351897974264453],[121.189405087020901,12.351674164739032],[121.189396229575379,12.351380180727169],[121.18936076095909,12.350769072826845],[121.189346719831946,12.350398734281887],[121.189322311341584,12.350083291631657],[121.189299397194361,12.349731002729218],[121.189282196060432,12.349502997997719],[121.189253919226019,12.349077623591102],[121.189235083577614,12.348801580199618],[121.189237496412844,12.347823885391179],[121.189237480838244,12.347546323988071],[121.189238484888364,12.34737381446646],[121.189244120028746,12.347245428536981],[121.18925297747424,12.347175759918137],[121.189266987452172,12.347070303710478],[121.189296820928121,12.346994182796244],[121.189363072661649,12.346818069289805],[121.18946920605741,12.346489558617787],[121.189554752583135,12.346260682117984],[121.189741778154698,12.345683034733712],[121.189820506484324,12.345450562342972],[121.189943755455985,12.345125483926468],[121.190076025304151,12.344829094866677],[121.190442588850402,12.344115566168709],[121.190590682196529,12.343848224476814],[121.190853649676754,12.343340961733757],[121.191018391565436,12.34302853123388],[121.191258297042012,12.342559912688507],[121.191606017152566,12.341885269492183],[121.191709831160679,12.341680443471546],[121.19175896731835,12.341578769845501],[121.191782656566829,12.341512393903605],[121.191793027149558,12.341469639873946],[121.191807262856855,12.341415078730718],[121.191820463364877,12.341302438426276],[121.191825320184492,12.341175398983518],[121.191808041177609,12.340882956038548],[121.191756764637901,12.340525600161707],[121.191720346608307,12.340303092271137],[121.191699012338717,12.340067037692151],[121.191664143037542,12.339635927012511],[121.191651736424873,12.339302185730691],[121.191631881151793,12.33912432889205],[121.191619248809744,12.338987785964852],[121.191607620517857,12.338867043275972],[121.191589205179028,12.338769315866958],[121.191579974147743,12.338694751594229],[121.191549930517013,12.338589933535994],[121.191512601656868,12.338509165956928],[121.191431834077818,12.338407733634849],[121.191345252352789,12.338322350540135],[121.191243641025096,12.338217727062084],[121.191109931242678,12.338083884997838],[121.190925544235697,12.337921945104743],[121.190742760593977,12.337796882613048],[121.190659854454751,12.337749704313959],[121.190413013174819,12.337601599545989],[121.19040445052029,12.337596461953272],[121.190070981691605,12.337408385607802],[121.189688976020435,12.337174309851781],[121.18932098032721,12.336951862387679],[121.188841200523228,12.336663793654401],[121.188404649283441,12.336394638442442],[121.18806486812629,12.336180519092148],[121.187737664902315,12.335976191254023],[121.187408570285314,12.335774151654384],[121.186720352995181,12.335356887521687],[121.185970771940347,12.334899282378474],[121.185485146841273,12.334601025287553],[121.185161913094007,12.334414241019944],[121.18479910108239,12.334192603025771],[121.184386421316177,12.333934640221582],[121.183854329773212,12.333606790958674],[121.183401161140068,12.333320598043814],[121.183183835059197,12.333188865212453],[121.18304057506856,12.333105832654592],[121.182934356114743,12.333034015968586],[121.182871451283077,12.332994110842229],[121.182820112445029,12.332950205089967],[121.182776432422116,12.332891869050206],[121.182733141559609,12.332798064394138],[121.182683888694726,12.332691300534023],[121.182650202449295,12.332601737807817],[121.18262475875963,12.332521180383532],[121.182576673375863,12.332336388641574],[121.18252197995082,12.332053776043065],[121.182486091024927,12.331852771642724],[121.182384658702858,12.331389399077338],[121.182276050173485,12.330882945804211],[121.18220289468583,12.330400348430075],[121.182173613801268,12.330173075295548],[121.182148574846565,12.330030165631005],[121.182137740450003,12.329902705878688],[121.182124555516594,12.329814715368578],[121.182115939375024,12.329735146419825],[121.182097882047401,12.329624109480664],[121.182066624211771,12.32942009292996],[121.181981856006814,12.32876509485194],[121.181928361212073,12.328387720271007],[121.181912895725262,12.328220386541513],[121.181903649119334,12.32812078331408],[121.181894822823054,12.328043012310792],[121.181857676913268,12.327780928228723],[121.181842705664224,12.327655492151241],[121.181824348679001,12.32750898659577],[121.181803220847414,12.327412379944114],[121.181786498376695,12.327350043278456],[121.181765533976076,12.327288111347764],[121.181741798729092,12.327242796810411],[121.181720145510511,12.327205273370089],[121.181692183908268,12.327161620551633],[121.181661525387781,12.327110958901656],[121.181628858767084,12.32707068018952],[121.18158814417076,12.327013527205478],[121.181540966481563,12.326976733677352],[121.18149212125968,12.326941227911547],[121.18143543530897,12.326911573441196],[121.181326795630426,12.326877093300419],[121.181164256422193,12.326842691032597],[121.181015143451305,12.326825054014538],[121.180747381449876,12.326799400170088],[121.180401054549776,12.326760919403409],[121.180134895913596,12.326741679020072],[121.17990882140937,12.326730455463126],[121.179485532975946,12.326693578061729],[121.179239813353419,12.326685483362384],[121.178595665246561,12.326623388000682],[121.178120469809059,12.326572274891969],[121.177445453026962,12.326505159279659],[121.177223589303409,12.326500107879863],[121.177024367273944,12.326464296826952],[121.176937785548915,12.326453073270004],[121.176878461033624,12.32643062615611],[121.176841583632239,12.326398558850547],[121.176827153344732,12.326360078083871],[121.176823946614164,12.326323200682474],[121.176815929787779,12.326164467519932],[121.176814326422488,12.325943203111544],[121.176811119691934,12.325596876211462],[121.176804706230826,12.325176794508581],[121.176799896135009,12.325064558939111],[121.176793482673858,12.32496675365714],[121.176780686900841,12.324862939649028],[121.176769657924083,12.324465904375199],[121.176761866827036,12.323948359826952],[121.176751452740049,12.323693471471497],[121.176748425015091,12.323282963236514],[121.176746027754433,12.322945509356527],[121.176741816973774,12.322228594922409],[121.176734189307766,12.321868047889598],[121.17672606740399,12.32175570724274],[121.176725483663404,12.32159246364194],[121.176722771170631,12.321469409250488],[121.176722771170631,12.321265182545005],[121.176716373284137,12.320899809841773],[121.1767087456181,12.320422411723845],[121.176700129476558,12.320131003978185],[121.17669932000662,12.320038802687394],[121.176695692966504,12.3198215544795],[121.176691513335001,12.319476636364504],[121.176693101125707,12.319342747576483],[121.176692097075588,12.318986395749763],[121.176690688290492,12.318785181194643],[121.176693846535827,12.318605449280621],[121.176682492458497,12.318543898082172],[121.176679075573176,12.318391337076777],[121.176676962395518,12.318220092224186],[121.176676047848161,12.317907751227136],[121.176671253326944,12.317595484158266],[121.17667144790714,12.317299460896953],[121.176665439180979,12.316855928030051],[121.176665649335746,12.316450681349636],[121.176662668334586,12.315934786890432],[121.176660060919161,12.315640382568995],[121.176653227148492,12.315094428904475],[121.17664446927688,12.314635029805414],[121.176629192243922,12.313919971625451],[121.176629582315769,12.313397719834061],[121.176619034673379,12.312634989108876],[121.176617340556547,12.312406956105926],[121.176617112494739,12.312190339125491],[121.176616310810346,12.31187206942967],[121.176617112492963,12.311186630773211],[121.176604466881386,12.310516436865695],[121.176602658391531,12.31019732727122],[121.176609049059238,12.310052209212017],[121.176609095666578,12.309913558742268],[121.176588288218113,12.309850486572362],[121.17653689762173,12.309774827018881],[121.176487842228582,12.309710816492959],[121.176434328851258,12.309658623663017],[121.176176710271861,12.309496128063053],[121.175994069250834,12.309393775357266],[121.175274158240867,12.309000950864093],[121.174664213584037,12.308669347286324],[121.174177914753272,12.308412368602889],[121.173269032547395,12.307902898146196],[121.173221184833622,12.30787728483886],[121.173100932437734,12.307712138215194],[121.173063253353718,12.307650408651984],[121.172916088843834,12.307378895412214],[121.172620035718978,12.306794009225905],[121.172314077033832,12.306151059749318],[121.17227013657066,12.30609989113481],[121.172089232309048,12.305965855485042],[121.171562167500241,12.305582030077185],[121.170744138527922,12.305009787782343],[121.169775396609495,12.304331942558333],[121.169407731722984,12.304071613642691],[121.16918624262712,12.303910065317833],[121.16898664596998,12.303739117714928],[121.168718164598758,12.303488656130103],[121.168351134720879,12.303093290319955],[121.16795793250165,12.302667608522931],[121.167513026185134,12.302181782210239],[121.167044007789755,12.301678340069262],[121.166612152093066,12.301214080115381],[121.165972199192254,12.300535794304304],[121.165833955007813,12.300382695490581],[121.165439816004309,12.299968121054951],[121.16524241193612,12.299781698269861],[121.165075315838195,12.299619558839639],[121.164977743480563,12.29950872891488],[121.164913163960549,12.299407388107452],[121.164862978329694,12.299301404643714],[121.164732471641841,12.298982514914735],[121.164549844243652,12.298495520072684],[121.164326910019824,12.297871354498493],[121.164255312949706,12.297657348559229],[121.164159208781768,12.297374419072781],[121.16405318528588,12.29709003826637],[121.163996826147184,12.296902564553656],[121.163923328490796,12.296727863112684],[121.163777402281056,12.296447874458206],[121.163490427964291,12.295898701666211],[121.163350950759664,12.295651363103795],[121.163209705059145,12.295382866861177],[121.163061791388628,12.295097693607218],[121.162959395218536,12.294886452941753],[121.16293273338195,12.294803800909287],[121.162928070142314,12.294741333525623],[121.162946994889651,12.294596307025696],[121.163076577929701,12.294129115124095],[121.163147785401492,12.293764398237647],[121.163204619503631,12.293433983619122],[121.163300663312555,12.292901771649232],[121.163367980604193,12.292584326138547],[121.163417911797538,12.292336585649426],[121.163469916814606,12.292047230659673],[121.163529262931505,12.291726707268587],[121.163574453503102,12.291457598805007],[121.163650526364393,12.291055262888847],[121.163695972334011,12.290858102307281],[121.16376733097529,12.290474435969593],[121.163849994477189,12.290071163769634],[121.163921227834408,12.28965482509691],[121.163961385315147,12.28944000651053],[121.164056777874336,12.288953542520533],[121.164079679411302,12.288808072539958],[121.164107419929778,12.28865062486366],[121.164135565564152,12.288496055005501],[121.164153691964941,12.288394367446333],[121.164157572820358,12.288319795130107],[121.16415398406798,12.288190954515855],[121.164099274229656,12.287732640947789],[121.164038249725209,12.287212325663273],[121.163879551407305,12.286497271923761],[121.163733367819574,12.285904358890878],[121.163426860776923,12.284660626284332],[121.163256797593235,12.284004407215068],[121.163224719311501,12.283908335111182],[121.16289924749573,12.282743666784402],[121.162843926382081,12.282531912921835],[121.162801024579991,12.282340710917344],[121.162756258138657,12.282008671932076],[121.162739464144181,12.281617569822277],[121.162737618496948,12.281250286023468],[121.16274114814685,12.280816508846822],[121.16273192261859,12.280096373637509],[121.16272379037629,12.27952891820614],[121.162734127961443,12.279393694643787],[121.162814290432067,12.278967149741622],[121.163191404495919,12.277466822969235],[121.16333840611334,12.276998626871134],[121.163343766869858,12.276893716424564],[121.163458231364743,12.276498147154763],[121.16351824698792,12.276231667747144],[121.163555595014557,12.275992080597502],[121.163548029289956,12.275865046068672],[121.163520313050952,12.275733886890171],[121.163479823535468,12.275603426712092],[121.163401769567045,12.275452267471699],[121.163276187769384,12.275316926416538],[121.162885980352684,12.275018316011243],[121.162307648134203,12.274580942496588],[121.162032960321653,12.274367483093252],[121.161741668087728,12.274133658431465],[121.161519888156079,12.273940064226615],[121.161242830195988,12.273690774280057],[121.160584583128895,12.273075936363064],[121.160132298951993,12.272675242716515],[121.159381626505294,12.272003620382556],[121.159033991496869,12.271694307272224],[121.158340691166941,12.27107832777555],[121.157208294974282,12.270072058014065],[121.157011288632745,12.269892077880714],[121.156025015201863,12.269013002137358],[121.15562332838519,12.26866396715576],[121.155326807240186,12.268443785902203],[121.155019140686747,12.268231978861591],[121.154819970525409,12.268105750149271],[121.154335334480606,12.267794423314422],[121.153694820682333,12.267373968247712],[121.153027641976422,12.266933680620673],[121.152570270264022,12.266630147775398],[121.152275441134464,12.266435367346634],[121.151628214204351,12.266004545433349],[121.151383075515497,12.265848561669079],[121.150813315681731,12.26548192315934],[121.150647721891033,12.265387052554537],[121.150494353873896,12.265309256263674],[121.149695091973456,12.264934330595162],[121.149356359437562,12.264775847526264],[121.14878136428311,12.264503265724407],[121.147768117469923,12.264043674296559],[121.14498435110238,12.262757208302137],[121.144529142115033,12.262545069328629],[121.144050547919733,12.261468726017387],[121.139953096225199,12.261526666845016]]}}
]
}
