{
"type": "FeatureCollection",
"name": "Cantingas RIS",
"crs": { "type": "name", "properties": { "name": "urn:ogc:def:crs:OGC:1.3:CRS84" } },
"features": [
{"type":"Feature","properties":{"id":86,"canal_id":8,"canal_type":"LINED","remarks":"West Main Canal","canal_leng":2109.244,"canal_widt":0.0,"station_no":null,"station__1":null,"station__2":null,"canal":"WEST MAIN CANAL","canaltype":"MAIN"},"geometry":{"type":"LineString","coordinates":[[122.577210602077898,12.32660728740515],[122.576912144228402,12.326495474609848],[122.576304795078215,12.325418658618929],[122.576016522177113,12.324938426795407],[122.575578137336308,12.324575391603718],[122.575467850598514,12.324467649067739],[122.575029599170904,12.324393431656659],[122.574291450472117,12.324183024533507],[122.573933639187203,12.324139860901724],[122.573547015759004,12.324072069866416],[122.573462930481099,12.324031982447826],[122.573441357014218,12.323989860987069],[122.573421936390105,12.323951942796647],[122.572972440022497,12.323873493851861],[122.572952949060706,12.32383754481898],[122.57290093071299,12.323778231614421],[122.572816269361198,12.323746212959676],[122.572383171541915,12.32367291580392],[122.572324418833006,12.32365356920786],[122.572287386390016,12.323623641318378],[122.57228302742709,12.323621495784669],[122.572224141310116,12.323593574717741],[122.572182655801612,12.323572089306913],[122.572138944571392,12.323556967980357],[122.571736367256108,12.323521499629418],[122.571607043086004,12.32352088489248],[122.571525777876204,12.32354409498927],[122.571475236090507,12.32358252169881],[122.571429064482501,12.323620993148499],[122.571373852355293,12.323652860398528],[122.571320742311102,12.32369552632087],[122.571260879664379,12.323731791882388],[122.571214236507402,12.323742357667902],[122.571209790477511,12.323742340107289],[122.571127418892402,12.323742015024571],[122.571076099944079,12.323748282330023],[122.5710626977271,12.323774116505152],[122.571019155255797,12.323810686135991],[122.570917566104612,12.32384943141826],[122.570571371470805,12.3239616982773],[122.568489760463521,12.324779411241941],[122.568352249378705,12.324786384430858],[122.568201770155994,12.324786507045488],[122.568029236751414,12.324723885384586],[122.566442729706296,12.323792842259587],[122.560683373129919,12.320339600256187]]}},
{"type":"Feature","properties":{"id":87,"canal_id":11,"canal_type":"LINED","remarks":"Lateral A","canal_leng":2012.22,"canal_widt":0.0,"station_no":null,"station__1":null,"station__2":null,"canal":"EAST MAIN CANAL","canaltype":"MAIN"},"geometry":{"type":"LineString","coordinates":[[122.576040148154405,12.323649043650221],[122.575765150238283,12.323434430019567],[122.57571827799481,12.323377872988106],[122.575632175862395,12.323192852337968],[122.575574090426215,12.323102203314269],[122.575519780480505,12.323037957267529],[122.575480874546997,12.323015233629269],[122.575267721211503,12.322687915528951],[122.575112037195311,12.32248730370971],[122.574895210950118,12.322239580937639],[122.574867151323986,12.322178425296048],[122.574842812961194,12.322105717533757],[122.574364114056607,12.321605186674667],[122.574322126828719,12.321451854608201],[122.574278897528515,12.321379007275278],[122.573596961487894,12.320284098763672],[122.573497996449916,12.320106867314196],[122.573489870818094,12.320037436079783],[122.573471963161381,12.319829960118099],[122.573456035104883,12.31976444357881],[122.573321802598613,12.319406196027181],[122.573111712307409,12.319043475645998],[122.572894730619595,12.318726156232611],[122.572852256815295,12.31865994952126],[122.572775537517117,12.318461175721328],[122.572610939890808,12.31798928801879],[122.572636341648419,12.317162836684187],[122.572000059473396,12.31684067398518],[122.571579057763699,12.31669494878399],[122.571448449192701,12.3160125249461],[122.571512188771806,12.315991819821669],[122.571622712129411,12.315921439673271],[122.571665272312302,12.31585522531889],[122.571750135603182,12.31557318012741],[122.572212924750019,12.315368652941791],[122.572272411888108,12.315360332179649],[122.572769671529713,12.31475407530843],[122.572522107702596,12.31438716314787],[122.572487996196003,12.314166893873679],[122.572171083418695,12.313538309057337],[122.572158330625896,12.31346749918125],[122.572158334606613,12.313363442991298],[122.572200976511482,12.313221800751188],[122.572192517996299,12.313154976355049],[122.572171259532794,12.31312563336936],[122.572097400251891,12.312837746157516],[122.572118675470421,12.312800300487382],[122.572152704684001,12.312687899447113],[122.572191186767611,12.312579414921929],[122.5722125919755,12.312512613876081],[122.572225461726418,12.312458312993879],[122.572225532173903,12.31241650681401],[122.572003752541079,12.311974088781769],[122.571282050683095,12.311082780305119],[122.5712607110341,12.31104104360295],[122.571256442671697,12.31098673203185],[122.571183801584993,12.310582542790591],[122.571064762475302,12.310132813324667],[122.570983480397217,12.309944424285471],[122.570957779900795,12.309852240010922],[122.570932068475003,12.309785144281618],[122.570871983461316,12.309541707153311],[122.570829050659597,12.309474349005241],[122.570427710985683,12.308830586372002],[122.570289460273699,12.308640025538212],[122.570254855032502,12.30855124200299]]}},
{"type":"Feature","properties":{"id":88,"canal_id":10,"canal_type":"LINED","remarks":"East Main Canal","canal_leng":4000.644,"canal_widt":0.0,"station_no":null,"station__1":null,"station__2":null,"canal":"LATERAL A","canaltype":"LATERAL"},"geometry":{"type":"LineString","coordinates":[[122.575882333427302,12.323795949153126],[122.57619523051828,12.323508918778797],[122.576624589734394,12.323145444126817],[122.57702525469081,12.322678993421128],[122.577349757277716,12.322417690871552],[122.577623079287818,12.322242677442949],[122.57780776816638,12.322217653582838],[122.577979769375119,12.322254971049839],[122.578183630094188,12.322335779265494],[122.578330170542884,12.322404223774598],[122.578489426358814,12.322510141962709],[122.5785913675887,12.32255990539957],[122.578693375079482,12.322565978732452],[122.579453739718815,12.322295373539699],[122.579720932527408,12.32212768319437],[122.579937346355806,12.321959784023788],[122.580070452901396,12.321811001057171],[122.580139522375902,12.321637803112839],[122.580158029433818,12.32144584522144],[122.58006923705031,12.321193622561397],[122.579897912200806,12.32103801915337],[122.579752075040801,12.320937995776482],[122.579542476281802,12.320818949239939],[122.579434313882203,12.320737693689562],[122.579191805368907,12.319833336704079],[122.579191751732921,12.319684688462941],[122.579191748483311,12.319554401533997],[122.579248790119493,12.31925548882764],[122.579312106439417,12.319100668221349],[122.579521104152292,12.318754096030839],[122.579604314621605,12.318517392079439],[122.579643090980809,12.31831759419657],[122.579700533243695,12.318161870031298],[122.5797645139629,12.317949811213651],[122.579904501692795,12.317800577855371],[122.580000048741596,12.317674325009548],[122.580108189112096,12.317599833565028],[122.580222589373193,12.317556504351327],[122.580393996011907,12.317476050892529],[122.580489128459305,12.317426568033834],[122.580520882043004,12.317376930086258],[122.580533693651702,12.317296131521148],[122.580514806863221,12.317227617709261],[122.580140230509997,12.316687285941407],[122.580108339313512,12.316640171329919],[122.58009558559732,12.315409446530207],[122.580119299242682,12.315302472776869],[122.580147382448303,12.315252297965309],[122.580222241991706,12.315193133132798],[122.580575169107419,12.31489093422511],[122.580818332587,12.314699228508346],[122.581830566202697,12.3138777596188],[122.581981355693017,12.31376172297333],[122.582156883489404,12.31363195204627],[122.582285091037406,12.31351140017601],[122.582379943666396,12.313423346509181],[122.582436894481305,12.313358445942939],[122.582826610322101,12.312626688427811],[122.583182667010803,12.311891326812669],[122.583240271225918,12.31174197448432],[122.583283394272996,12.311657911083252],[122.583369931138606,12.311570852655528],[122.583480242375799,12.311444817062132],[122.586609852361107,12.30978167489387],[122.58669639531702,12.309794409145594],[122.586802949063099,12.30983303851019],[122.586862493854994,12.309885073260329],[122.586908639336912,12.309950141292989],[122.586987708253403,12.310047743824679],[122.587060147559498,12.310138782458461],[122.587757142997205,12.310522380410889],[122.587876628929195,12.310548131608929],[122.588081283501012,12.310580671889621],[122.588186719518902,12.310561414332168],[122.588320227836121,12.31056126826202],[122.588841650544509,12.310501122853008],[122.589781005244006,12.310466916515207],[122.58994808398441,12.310460134125748],[122.590067194269196,12.310531863142788],[122.590151938288997,12.310655787873159],[122.590246084076398,12.31084459978743],[122.59024544405132,12.310929048516128],[122.590171006400595,12.311143114733557],[122.590170490692515,12.311233808983602],[122.590183526865104,12.311279133816392],[122.590249852023604,12.311305034178901],[122.591077501025794,12.311370271049519],[122.59165193346351,12.311259665213958],[122.591937640042417,12.31118193744477],[122.592150350064401,12.31096916910025],[122.592137740778597,12.310814282183179],[122.592059927006304,12.310304073657839],[122.591976082374387,12.310083542550778],[122.591963160186793,12.30990890071029],[122.592022220990088,12.30980579026043],[122.592101298370096,12.30974780916598],[122.592407126576589,12.309525877567481],[122.592838927380214,12.30928533752159],[122.592984883825821,12.309252781963679],[122.593218352867495,12.30923232992965],[122.593815566074596,12.309092526687509],[122.594089751850802,12.30909176386673],[122.594414842158599,12.309092101615056],[122.594557965531195,12.309060892537266],[122.59477197498272,12.309036933981949],[122.59492737250082,12.30899300723236],[122.594998602426116,12.308954795263002],[122.598153305499594,12.308411831422088],[122.598260490763195,12.308437855909823],[122.598439599777393,12.308463688193548],[122.598571904357911,12.308496210231951],[122.598752145825216,12.308512682743986],[122.598927956769998,12.308502703411021],[122.599033394279402,12.30838205907019]]}},
{"type":"Feature","properties":{"id":89,"canal_id":9,"canal_type":"LINED","remarks":"Lateral B","canal_leng":3523.627,"canal_widt":0.0,"station_no":null,"station__1":null,"station__2":null,"canal":"LATERAL B","canaltype":"LATERAL"},"geometry":{"type":"LineString","coordinates":[[122.574313429533589,12.324181681542242],[122.574238585863995,12.324264336886831],[122.574196293470507,12.324296119668761],[122.574157190895093,12.324347656406262],[122.574108400132502,12.32437612774058],[122.573991154276513,12.324375783638081],[122.573984634626896,12.324375764476191],[122.573847570838879,12.324372175232918],[122.573837769659903,12.32437214616666],[122.573582764615807,12.324342959778411],[122.57329724046761,12.324323004635662],[122.573056613435796,12.324315811392243],[122.572934228299104,12.324334600445207],[122.572788647266705,12.324417614661259],[122.572556123094913,12.324574882414451],[122.572503370918312,12.324642237128558],[122.572460494636502,12.32471605785231],[122.572434102342612,12.324802772734451],[122.572411004647293,12.324886293757237],[122.572364797124493,12.324979460747258],[122.572248598462096,12.325402460254081],[122.572225554994702,12.325447479982786],[122.572192613457901,12.325502147246148],[122.572156392381913,12.325569681594768],[122.57195128631912,12.325888858997949],[122.5719115205073,12.32593703675831],[122.571868400257713,12.325994920652798],[122.571828584204596,12.32609803802981],[122.571802186805002,12.326159330047361],[122.571742697266799,12.32625287235869],[122.571699678820394,12.326301267078518],[122.571689769995999,12.32632062542412],[122.571464049737202,12.326710182963778],[122.571388714799113,12.326813162870868],[122.571339778015599,12.326906351386601],[122.571261396171195,12.327015441268959],[122.571219042096217,12.327082731448408],[122.571176630063206,12.327133954501747],[122.571134165813504,12.327172345958527],[122.571081806321104,12.327201125202659],[122.571029396624212,12.32722030515707],[122.570943324175801,12.32722062911103],[122.570538033493506,12.327151803739499],[122.570445528330396,12.327132569597508],[122.570375999750581,12.327087423861595],[122.570306365823001,12.327077769775542],[122.570273195964404,12.32710690123],[122.570173566154594,12.32718144319694],[122.570073831909312,12.32729496005814],[122.569976204418211,12.327424398993678],[122.569883461855497,12.327511865121377],[122.5697800536784,12.327596168747093],[122.569709564726395,12.327644986100781],[122.569652416140698,12.327693876372638],[122.56965581835901,12.327719857273717],[122.569719882214585,12.327752001247298],[122.569880784772707,12.327780240349167],[122.570116637225595,12.3278495327231],[122.570192490848797,12.327903459391351],[122.570261496250907,12.327957245489728],[122.570320447344614,12.328023722619832],[122.570339834112403,12.328114196109992],[122.570362355293284,12.32818834995237],[122.570368513946406,12.32827139439823],[122.570332792517718,12.328323909958574],[122.570281053952002,12.32835233420314],[122.570007292315196,12.32842631245796],[122.56988103649951,12.328471391003642],[122.569819258161303,12.32851913664342],[122.56972489798919,12.32858298238351],[122.569676094668708,12.328636877802957],[122.569633817009219,12.328668555049941],[122.568011268988798,12.32918432162981],[122.567899053179715,12.329245644278078],[122.567806586512404,12.329297308550379],[122.567714074047586,12.329365059155158],[122.567628184637101,12.329416687904278],[122.567515856422901,12.329474796382678],[122.567399842024201,12.329501069082561],[122.567276761052213,12.329521065038303],[122.56709010566162,12.32957038612664],[122.566960438959796,12.32958417840298],[122.566849938881589,12.3296397093896],[122.566732807553507,12.329695258446202],[122.566676069474298,12.329744178991318],[122.56664277090438,12.329780017586211],[122.566616276066313,12.329835346841167],[122.566530369798798,12.33038979488412],[122.566507190591295,12.330493639164718],[122.5665074698354,12.330584307844287],[122.5665078582185,12.330710391002931],[122.566467890208685,12.330785110159379],[122.566455508884005,12.330852057217349],[122.566433080688682,12.330915755981207],[122.566403530705614,12.330951008712777],[122.566344318874883,12.33101198833498],[122.566268236057496,12.331066970338911],[122.566191681938804,12.33109342376242],[122.566107503758701,12.331075543890597],[122.566023012063496,12.33105759741329],[122.565978863625105,12.331045456480688],[122.565938626775406,12.33105224028729],[122.565538121925286,12.33147550353061],[122.565525506377995,12.331539500784569],[122.565533158345403,12.331618915627049],[122.565550901773605,12.331704022598394],[122.565524836250319,12.331755038174059],[122.565482295247307,12.33180930632887],[122.565423099389406,12.33186070189771],[122.565383246297799,12.331870892634267],[122.564856687979301,12.331991275598286],[122.564796978514821,12.33203001404522],[122.564697160870097,12.33207558677514],[122.56460372923199,12.332144192902073],[122.564267087659886,12.332212755754945],[122.564183494582394,12.332245710263352],[122.564049779881515,12.332271956916506],[122.564039744458697,12.332271971637729],[122.563838953489295,12.33227873906225],[122.563712212193209,12.332320981424047],[122.563568146188217,12.332363648726439],[122.563332749449188,12.33246309784932],[122.5628032228135,12.332581181521649],[122.561414696926406,12.33282775243684],[122.561381324639015,12.332860483424078],[122.5613181998241,12.332935617018258],[122.561225398270295,12.33304312781296],[122.561165747436419,12.333098379067868],[122.561105928718206,12.333130836796858],[122.560231103723012,12.333413406357851],[122.559985773921909,12.333465153812815],[122.559838616380006,12.333494716573929],[122.559694417977099,12.33352759914205],[122.559590933538516,12.333573215552542],[122.559497926502104,12.333638174551517],[122.559419785482618,12.33372010291634],[122.559319844091803,12.33405543554507],[122.559256082934681,12.334176140098771],[122.559226097104087,12.334303274565379],[122.559192793719404,12.334404291361716],[122.559139194732609,12.334495732726378],[122.559102533101182,12.334600027062228],[122.559102549338817,12.334603272615968],[122.559079213430792,12.334714098588659],[122.5590828360139,12.33480504865399],[122.558983632649401,12.335397485183249],[122.558953486292609,12.335436762550263],[122.558913167359805,12.33546652428401],[122.558775941550195,12.335810862352391],[122.558702474080604,12.33590879266271],[122.558609042722381,12.336039189946847],[122.558529063759195,12.33617264783814],[122.558492355693701,12.336257382510672],[122.558383762265805,12.33643945722139],[122.558377078558308,12.336504669630772],[122.5583603812414,12.336595978548049],[122.558363714814021,12.336648075070208],[122.558370375751082,12.33675869577444],[122.558310291518595,12.33683732653026],[122.5582701745317,12.336867022614451],[122.558276873066603,12.336898538336488],[122.558263494315412,12.336996438707031],[122.558300201544611,12.337280492123858],[122.558316904927693,12.337362098329052],[122.558460390003816,12.33759854857885],[122.558463800488198,12.337703095395771],[122.558450588934804,12.337820463967578],[122.558323420853895,12.337947966317468],[122.55799604482992,12.338294132436269],[122.55768144187401,12.33879552107236],[122.557266441636216,12.339578737343007],[122.556970944657095,12.340257445717812],[122.556471918701789,12.34124346815811],[122.556161496367309,12.341934379975328],[122.555309850739206,12.34379520758211]]}}
]
}
