{
"type": "FeatureCollection",
"name": "Lumintao RIS",
"crs": { "type": "name", "properties": { "name": "urn:ogc:def:crs:OGC:1.3:CRS84" } },
"features": [
{"type":"Feature","properties":{"id":612,"canal_id":null,"canal_type":"MAIN FARM DITCH","remarks":"LATERAL X-2 MFD 2","Length":691.5,"canal_widt":null,"station_no":null,"canal_leng":null,"station__1":null,"station__2":null,"canal":null,"canaltype":null},"geometry":{"type":"LineString","coordinates":[[120.979158517048887,12.505793181488672],[120.979073840475166,12.505787305582571],[120.978802113562267,12.505726681759036],[120.978235701015649,12.50560031094904],[120.977504253359712,12.505403640077006],[120.977112061356038,12.50528153538292],[120.976956411285016,12.505246320612219],[120.976700866720222,12.505203807833247],[120.976629028282929,12.505187554769901],[120.976573293275251,12.505157019044473],[120.976364046478906,12.504987839649507],[120.976141066064997,12.504870933910629],[120.976063938144208,12.504849403245711],[120.976023106661302,12.50478755325773],[120.976004939658139,12.504724564241332],[120.976002719266262,12.504325172725293],[120.97600205963947,12.504238745672094],[120.975862843335918,12.503975813877636],[120.975695928251227,12.503676009869794],[120.975545728735611,12.503283362294683],[120.975500046508103,12.503159932807733],[120.975479221941995,12.503081491261259],[120.975400155826804,12.502886610455848],[120.975214974748326,12.502491987865453],[120.975109925665635,12.502242351795909],[120.975073177406543,12.502091703209601],[120.975108844464742,12.502033419417208]]}},
{"type":"Feature","properties":{"id":616,"canal_id":44,"canal_type":"MAIN FARM DITCH","remarks":"LATERAL AS MFD 1","Length":468.5,"canal_widt":null,"station_no":null,"canal_leng":null,"station__1":null,"station__2":null,"canal":"LATERAL SMC X-2","canaltype":"LATERAL"},"geometry":{"type":"LineString","coordinates":[[120.973999897000169,12.515600842540472],[120.974006250279601,12.515675142753174],[120.973654114954542,12.515750559479368],[120.973264659932312,12.515825694519402],[120.972960826352917,12.515882548350657],[120.972734768444425,12.515923723598991],[120.972482519678763,12.515965588376112],[120.972382497958336,12.51597784594264],[120.972339303052124,12.51599762905319],[120.972322294339349,12.516017313842989],[120.972286249432798,12.516085056920499],[120.972218680952196,12.516219689988295],[120.972126325481014,12.516406477970985],[120.972026364901396,12.516603558635572],[120.971722491048808,12.517204824509893],[120.971529911668597,12.517583663398545],[120.971439981310354,12.517768103545235],[120.971244882348813,12.518161117472154],[120.971223278572452,12.518229560684173]]}},
{"type":"Feature","properties":{"id":611,"canal_id":null,"canal_type":"LATERAL CANAL","remarks":"LATERAL CS-1","Length":1772.1,"canal_widt":null,"station_no":null,"canal_leng":null,"station__1":null,"station__2":null,"canal":null,"canaltype":null},"geometry":{"type":"LineString","coordinates":[[120.982896805844987,12.504595808422755],[120.983182295044557,12.503756419720128],[120.983177289745399,12.503714480432979],[120.983127301025888,12.503630302374676],[120.982934322896099,12.503081514560421],[120.982859186152837,12.502803352314396],[120.982755738312193,12.502395344311335],[120.982691184168274,12.502171945280612],[120.982663593100199,12.502076462276969],[120.982677203568684,12.502039900186533],[120.982844142174642,12.501822475887957],[120.98313588063715,12.502009291021466],[120.983341691480334,12.5021064210163],[120.983369676005978,12.502106630608401],[120.983401851313957,12.502081992389462],[120.983517061958707,12.50183275382607],[120.983734961088601,12.50140227312345],[120.9841276369052,12.500602531335009],[120.984367200278513,12.500127691263511],[120.984556695805935,12.499750683572566],[120.984620748224302,12.499567842384161],[120.984799805469393,12.499161948766236],[120.985055620730932,12.498653184012603],[120.985143902347374,12.498439097469644],[120.985290245507755,12.498127237716215],[120.985260144039984,12.498056303168994],[120.984976815653511,12.49764433118969],[120.984734808006763,12.497231358752089],[120.984490991551738,12.49687991599275],[120.984466007585752,12.496836517777739],[120.984463657024378,12.496795907781458],[120.98447496703298,12.496712188725796],[120.984527464912816,12.496644491036099],[120.984609441633893,12.496556062966308],[120.984674838983423,12.496543457921497],[120.984719003112815,12.496347373422914],[120.984793498175094,12.496020572526358],[120.984842566238413,12.4958795208408],[120.984867658210902,12.495736980354961],[120.984893839239135,12.49562587439841],[120.984891028453376,12.495472649718618],[120.984910282860497,12.495395537198686],[120.984992299583624,12.495301871495712],[120.985066320871042,12.495208145957992],[120.985098921103912,12.495128514363756],[120.98514743091242,12.495059477215213],[120.985294976212813,12.494936184498979],[120.985458998875046,12.494750162088778],[120.985798186248957,12.49414381152328],[120.986081814679807,12.4936562034906],[120.986124005788881,12.493542598094406],[120.986117591765193,12.493338278445197],[120.986108421393354,12.493145723099149],[120.986090373839616,12.493067022163361],[120.986086903274398,12.492998905653298],[120.986122497689266,12.492704549027925],[120.986153242936098,12.492520148606145],[120.986141969619609,12.492427094528558],[120.986078919488705,12.492308774229425],[120.985985301898026,12.492179749983626],[120.985950817837676,12.492158541295034],[120.985886956918677,12.492144969628377],[120.985765938392873,12.492112638624436],[120.985470974716989,12.491999131741915],[120.985363565694513,12.491930238178078],[120.985292155741874,12.491858994866696],[120.985293822886746,12.491815796024017],[120.985326361629262,12.491744020454364],[120.985377941250775,12.491622628754158],[120.985382618177638,12.491534931665681],[120.985339282974806,12.49145211336509],[120.985280376786946,12.491346350020196]]}},
{"type":"Feature","properties":{"id":614,"canal_id":2,"canal_type":"MAIN CANAL","remarks":"SECONDARY MAIN CANAL","Length":1354.9,"canal_widt":null,"station_no":null,"canal_leng":null,"station__1":null,"station__2":null,"canal":"AS 1-1B","canaltype":"SUB-LATERAL"},"geometry":{"type":"LineString","coordinates":[[120.986505146315494,12.522546277756751],[120.986546959825077,12.52243303489846],[120.986632928463393,12.522059890157719],[120.986671405399676,12.521911136014584],[120.986663170828606,12.521886233971866],[120.986630784954656,12.521870614076049],[120.986243744162891,12.521633506222676],[120.98593830260775,12.52143131253133],[120.985578925148658,12.521197959737849],[120.985299593825729,12.521044458926312],[120.984943507820603,12.520852530695],[120.984752686452055,12.52077421376929],[120.98445234816721,12.520690344323246],[120.984156614387572,12.520633715182619],[120.983793251805224,12.520603784731446],[120.983563447271422,12.520584318390409],[120.983434080012472,12.520576842412719],[120.983342612215196,12.520572607803688],[120.983204082573863,12.520582214658102],[120.983065539146551,12.52059359564549],[120.982919175054008,12.520604326456112],[120.982737503159726,12.520588177663882],[120.982641863176354,12.520578588589462],[120.982531248183378,12.520559424144563],[120.98228995218922,12.52046948960302],[120.982032900907527,12.520238083393668],[120.981844223094839,12.520039127716595],[120.981500595382187,12.519639103513036],[120.981218191733106,12.519262013201219],[120.981085325353789,12.519085359271237],[120.98079548799258,12.518735418915403],[120.980662897458714,12.518600758860494],[120.980571964213681,12.518527920885401],[120.98011782503589,12.517941354832749],[120.979725598689356,12.517443968683235],[120.979254839181237,12.516827705075633],[120.979108073147614,12.516503678695893],[120.979016979720257,12.51614221873119],[120.978997169882419,12.515903130030344],[120.978886958146632,12.514827072592519],[120.978870400886905,12.514675226554855]]}},
{"type":"Feature","properties":{"id":615,"canal_id":3,"canal_type":"LATERAL","remarks":"LATERAL AS","Length":4940.4,"canal_widt":null,"station_no":null,"canal_leng":null,"station__1":null,"station__2":null,"canal":"AS 1-1C","canaltype":"SUB-LATERAL"},"geometry":{"type":"LineString","coordinates":[[120.945692220442922,12.499256626709673],[120.94496239449029,12.498638157775368],[120.945294346366623,12.49827118460435],[120.946285134324725,12.499315257827874],[120.946559867397809,12.499587304165775],[120.946599226680235,12.49959915133967],[120.946635618422945,12.499667886421902],[120.946809182839388,12.500117895771227],[120.947686917928806,12.502432369103062],[120.948434063222891,12.504366226569749],[120.948655313862389,12.504980912511234],[120.949008376938551,12.505556007817031],[120.949359866792179,12.506117894221896],[120.94995514744231,12.507061041413994],[120.950512847519661,12.50787358458861],[120.951140605476411,12.508744395887909],[120.951314669049381,12.509026150322573],[120.951330364531358,12.50916483488496],[120.951318470610502,12.509395686135198],[120.951180510827584,12.510070965307175],[120.951134154083022,12.510190083637413],[120.951164144426627,12.510292736686257],[120.951253270209108,12.51040747914716],[120.951446544238863,12.510534653659585],[120.952062884004945,12.510909905690042],[120.952127981686488,12.510949539598434],[120.952823819536661,12.511341255319577],[120.953207613156607,12.511571145652953],[120.953335529865711,12.511647766883177],[120.953958076099596,12.512020299966492],[120.954271590714271,12.512222877971794],[120.954787914685923,12.512545717210109],[120.955272635175618,12.512970740378986],[120.95563482255298,12.513311029563143],[120.955894899714934,12.513550707031209],[120.956034697048906,12.513679538810463],[120.956366234293313,12.514000971683123],[120.956956197683596,12.514601380145907],[120.957490055075795,12.515105920159998],[120.957943839546786,12.515549327622926],[120.958094714371569,12.515645914516091],[120.958312529447269,12.515666190637022],[120.958523383549931,12.515667791010333],[120.95916854187324,12.515577245103071],[120.95962806738612,12.515520224863712],[120.959716048250158,12.515509307660807],[120.959946427127093,12.515480720699262],[120.960681502962075,12.515404820019144],[120.961231328202473,12.515385709426541],[120.961835443001434,12.515392615380284],[120.96238976935345,12.515403798531686],[120.962984389774959,12.515412957839237],[120.963405767785787,12.515442449141144],[120.96373030765406,12.515465162508763],[120.964592314753716,12.515518243609886],[120.965290796117912,12.515577068638231],[120.966391870950886,12.515659886593657],[120.967838626186719,12.515773246219531],[120.968660252197907,12.515839976587335],[120.96971637185608,12.515915458148013],[120.970199499869366,12.515942382976382],[120.970308605657479,12.515949850377734],[120.970467088420889,12.515960697151533],[120.971438738461814,12.51593078101487],[120.972310992765955,12.515886144895106],[120.972393431907577,12.51587621145789],[120.972856447089228,12.515820420327517],[120.973746284756629,12.515647879492375],[120.974325233913575,12.515540502572241],[120.975249591054123,12.51536243740922],[120.975383535509422,12.515336634491016],[120.976536802366468,12.515107869824323],[120.977222489607811,12.514984994113385],[120.978468242658622,12.514745276764568],[120.979085107770217,12.514636861796332]]}},
{"type":"Feature","properties":{"id":617,"canal_id":null,"canal_type":"MAIN FARM DITCH","remarks":"LATERAL AS MFD 2","Length":134.7,"canal_widt":null,"station_no":null,"canal_leng":null,"station__1":null,"station__2":null,"canal":null,"canaltype":null},"geometry":{"type":"LineString","coordinates":[[120.963831640772597,12.516479336959879],[120.96391740482359,12.516381423920288],[120.963983137546151,12.516296593511735],[120.964489455735773,12.515643169222001],[120.964592314753716,12.515518243609886]]}},
{"type":"Feature","properties":{"id":618,"canal_id":null,"canal_type":"MAIN FARM DITCH","remarks":"LATERAL AS MFD 3","Length":1426.4,"canal_widt":null,"station_no":null,"canal_leng":null,"station__1":null,"station__2":null,"canal":null,"canaltype":null},"geometry":{"type":"LineString","coordinates":[[120.955894899714934,12.513550707031209],[120.956418188345822,12.513091970354347],[120.956497729975283,12.513022240583691],[120.956450336251464,12.512496370525524],[120.956438791239151,12.512382800592709],[120.956462192291866,12.512344568958216],[120.956361473439202,12.512159613541341],[120.95629561586955,12.511947861756855],[120.956211742809046,12.511767398974456],[120.955385039176022,12.510286212112307],[120.955230626505028,12.510173259001224],[120.95512577895758,12.509994063649536],[120.954590103672032,12.509195617518243],[120.954508351351365,12.509094103740452],[120.954229362753523,12.508747676348754],[120.953718543338184,12.508178128210657],[120.954384343918633,12.507078140714043],[120.954454877060812,12.506961610219367],[120.954554057564778,12.506777300730715],[120.954975282147856,12.506087387092451],[120.955301400571884,12.505515469911096],[120.955708488899106,12.504814971816016],[120.956151604629582,12.504051894537231],[120.956378402533105,12.503681743471677],[120.95617541991902,12.50291917892666],[120.956046744529658,12.502518988124239]]}},
{"type":"Feature","properties":{"id":619,"canal_id":null,"canal_type":"SUPPLEMENTARY FARM DITCH","remarks":"MFD 3 SFD 1","Length":125.5,"canal_widt":null,"station_no":null,"canal_leng":null,"station__1":null,"station__2":null,"canal":null,"canaltype":null},"geometry":{"type":"LineString","coordinates":[[120.956378402533105,12.503681743471677],[120.956336144254848,12.503632538013402],[120.956310640204947,12.503610811836623],[120.95556345539255,12.50297430384253],[120.955513297873935,12.502931575741663]]}},
{"type":"Feature","properties":{"id":620,"canal_id":null,"canal_type":"LATERAL CANAL","remarks":"LATERAL AS-1","Length":746.4,"canal_widt":null,"station_no":null,"canal_leng":null,"station__1":null,"station__2":null,"canal":null,"canaltype":null},"geometry":{"type":"LineString","coordinates":[[120.945436945172716,12.513861006695491],[120.945631444981871,12.513732983083877],[120.946256346282112,12.513357154624316],[120.946743864202659,12.513051856686179],[120.947225857400525,12.512770957734148],[120.948000807833935,12.512295008707314],[120.948401813530282,12.512061846250267],[120.948925505101457,12.511757347145391],[120.949285883286151,12.511562251175564],[120.949669665158893,12.511354484361974],[120.949788288781832,12.511298002394751],[120.950441976752074,12.510986751091671],[120.951280662048092,12.510539210337283],[120.951378300410724,12.510489749177538]]}},
{"type":"Feature","properties":{"id":613,"canal_id":1,"canal_type":"LINED","remarks":"SOUTH MAIN CANAL","Length":3268.2,"canal_widt":0.0,"station_no":null,"canal_leng":3268.181,"station__1":null,"station__2":null,"canal":"AS 1-1A","canaltype":"SUB-LATERAL"},"geometry":{"type":"LineString","coordinates":[[120.987723072334447,12.522449380778509],[120.986973338173897,12.52198377790172],[120.986557531845236,12.521729894808463],[120.985728155186294,12.521244618400054],[120.985454861517908,12.521088797211782],[120.98525828659308,12.5209761341352],[120.984902145614413,12.520791302699104],[120.984790698265229,12.520724226510927],[120.984540877370577,12.520646650143192],[120.984326971188111,12.520595366016838],[120.984069463369906,12.520577466741226],[120.983915347476398,12.520578676997161],[120.983679128203633,12.520455069806149],[120.983418280101361,12.52040225012594],[120.983270422741683,12.520372752262412],[120.983101014978175,12.520327715330632],[120.982813755283118,12.52026523400925],[120.982479774137843,12.520172830040497],[120.982322626215094,12.520099495700702],[120.982029872545624,12.519814592388075],[120.981586001778538,12.51930026031099],[120.980811043129833,12.518322122087488],[120.980339040326271,12.517555625813181],[120.979913429496477,12.516861632651468],[120.97950031959553,12.516108589474698],[120.979302010341428,12.515600831049264],[120.979163876210478,12.515095890384071],[120.979053313479866,12.514451578096546],[120.978852679971908,12.513314514940518],[120.978619186696974,12.51206838084121],[120.978646021040916,12.512023633355312],[120.978749947354189,12.51197355065554],[120.979052756209413,12.511893024289822],[120.979512579742973,12.511747435881579],[120.979606773880022,12.511710291311882],[120.980184536660261,12.511570318703878],[120.980490901186187,12.511496914503484],[120.980767472968466,12.511384251572768],[120.980861979462631,12.511306891206445],[120.980915656433012,12.511216212832078],[120.980936682559616,12.511144215399339],[120.981045378064962,12.510945125565673],[120.981113096890638,12.510751642588371],[120.981256308709973,12.510293762501979],[120.981564969237795,12.509304830509263],[120.981720382796709,12.508825749699955],[120.981819206756157,12.50850238359634],[120.981850009937901,12.508411533358213],[120.981973589874954,12.50800082016012],[120.982131648031711,12.507491003971053],[120.982201901022009,12.507280979198072],[120.982255539771828,12.507195031549969],[120.982467549747767,12.507023921260748],[120.982990364896466,12.50667179452625],[120.983173060005427,12.5065548760801],[120.983254873955687,12.506561403449172],[120.9836209381332,12.506706090839312],[120.984104592068604,12.506901339232584],[120.984827422738704,12.507148058411371],[120.985350252275225,12.507259613956194],[120.98588049791492,12.507346383651667],[120.986986717898844,12.507522627822299],[120.987388283644577,12.507591871975009],[120.987700967820032,12.50763442775377],[120.98804053940664,12.507625137577657],[120.988312934651844,12.507584590073634],[120.988639895910268,12.50749358631858],[120.98902232469807,12.507391167782377],[120.989308584214015,12.507270287086133],[120.989700967544877,12.506970401172634],[120.989773463600528,12.506897604152178]]}},
{"type":"Feature","properties":{"id":621,"canal_id":null,"canal_type":"MAIN CANAL","remarks":"4TH INTAKE MAIN CANAL","Length":3657.3,"canal_widt":null,"station_no":null,"canal_leng":null,"station__1":null,"station__2":null,"canal":null,"canaltype":null},"geometry":{"type":"LineString","coordinates":[[120.934903769343464,12.507067794189668],[120.935038138334107,12.507152626380956],[120.935068676812065,12.507185450058145],[120.935177042020285,12.507263099253384],[120.935252481239061,12.507310234253191],[120.935424607121973,12.507413978441074],[120.935592198509298,12.507492081804916],[120.935778520418751,12.507598262503977],[120.936063732052816,12.507782019335393],[120.936292105549612,12.507963012285654],[120.936383592373275,12.508077776708678],[120.936498862172755,12.508181084387289],[120.936668379844761,12.508315069532507],[120.936854795271572,12.508409611272505],[120.936922906220275,12.508484623502088],[120.937062181135559,12.508548542147262],[120.93731976085536,12.508631990022252],[120.937537865258335,12.508912999538063],[120.93773816324061,12.50904954786342],[120.938814967893521,12.509795715668023],[120.939594863716366,12.510339414336672],[120.93995126618799,12.51058154519734],[120.940419646255691,12.510899749521062],[120.94087209187596,12.511208156724905],[120.941086202168023,12.511396020813555],[120.941419715585354,12.51176404056107],[120.941877703471548,12.512270353693616],[120.94193733502442,12.512328478514888],[120.942282089098384,12.512664520872205],[120.942576160885494,12.512927485967014],[120.942950469305828,12.51323063732127],[120.943344118577286,12.51348505184542],[120.943565966593653,12.513593827624453],[120.943655863615149,12.513610809551617],[120.943894424660925,12.513703418075449],[120.94439708955197,12.513863613591553],[120.944478157308154,12.513889449173371],[120.944754882693445,12.51394975906614],[120.944879646084232,12.513976900241305],[120.945064616389999,12.513955616934375],[120.945436945172716,12.513861006695491],[120.945823012861027,12.514009445272499],[120.94613708347417,12.514142252364284],[120.94638306828972,12.514264337309193],[120.946525034636167,12.514352360432545],[120.946651067540074,12.514457117473237],[120.946763739813662,12.514538706934355],[120.94687430226476,12.514601650380932],[120.946952998612304,12.514640841459697],[120.947007933641302,12.514659003458855],[120.94711340857674,12.514680212556648],[120.947301440412062,12.514709148697579],[120.947488708854266,12.514777556492877],[120.947758701871237,12.514889621462526],[120.948260173448062,12.515074422872067],[120.948691361634587,12.515240944727072],[120.949070050445954,12.515423921309434],[120.949348709510957,12.515582182131469],[120.949544493222291,12.515715858235085],[120.949673919383031,12.515791364431189],[120.949801686958779,12.515848228029613],[120.950006626003415,12.51596600515068],[120.950170970644322,12.516079037087586],[120.950422261387772,12.516215797091307],[120.950777994249975,12.51644761113139],[120.951186079192823,12.516739040108824],[120.951559229058958,12.516937940055836],[120.951753965227326,12.51709023680068],[120.952000502180397,12.51731478617546],[120.952146392073971,12.517478243561953],[120.952262060054082,12.517695586292312],[120.952363450069242,12.517948749438128],[120.952455944762804,12.518356650687073],[120.95251804158022,12.518497291507984],[120.952586374732348,12.518648625477077],[120.952596467622925,12.518685518608557],[120.952625727974464,12.518810828052528],[120.952644531451412,12.518888152349597],[120.952655887738686,12.518936587913702],[120.952666178558104,12.519034251611549],[120.952696695345949,12.519171990575293],[120.952760654183592,12.519305548440176],[120.952911389241592,12.519541787964265],[120.953040867812959,12.519725524388177],[120.953117306571855,12.519879581424675],[120.95308894605455,12.519926383945947],[120.952888643761042,12.520078777851833],[120.95263609233389,12.520272912873626],[120.952430431630404,12.520417724870857],[120.952263427289182,12.520526901930683],[120.952148720870809,12.520588128090226],[120.951917061144258,12.520709232414301],[120.951487799184036,12.520983636840006],[120.951412438517195,12.521036291002646],[120.951326577201073,12.521103724704947],[120.951295316812391,12.521146069176297],[120.951277935805265,12.52120315718803],[120.951281939121699,12.521267948819258],[120.951329421453437,12.521372549418972],[120.951437184367407,12.521561887499244],[120.951517447627623,12.521688916318652],[120.95214276507879,12.522716107744726],[120.952245745062797,12.522882343603076],[120.95233349826519,12.523032938525521],[120.952414546258723,12.523175054539935],[120.952512532582091,12.523344800865422],[120.952751558226652,12.523720994050539],[120.953312293653482,12.5241794792879],[120.953662868638091,12.524379980430091],[120.95392626745975,12.524528363531218],[120.954075580489061,12.524544581395473],[120.954193882965384,12.524542820368147],[120.954464704194578,12.524551534926202],[120.954506266137528,12.524548302636745],[120.954701785140713,12.52454491110691],[120.954794708213356,12.524555376669745],[120.95504899398783,12.524599894020243],[120.955128310497585,12.524618240223527],[120.95526563716588,12.524608639184201],[120.955342980104888,12.524648261688156],[120.955504581808611,12.524766593429769],[120.95578798491384,12.524782943086578],[120.956416455056825,12.524782398968304],[120.957043287238847,12.524760549533985],[120.957452256643421,12.524655426203958]]}},
{"type":"Feature","properties":{"id":622,"canal_id":null,"canal_type":"LATERAL CANAL","remarks":"LATERAL BS","Length":3255.6,"canal_widt":null,"station_no":null,"canal_leng":null,"station__1":null,"station__2":null,"canal":null,"canaltype":null},"geometry":{"type":"LineString","coordinates":[[120.966589844223165,12.486678121593247],[120.967313176273407,12.487109575052505],[120.967470427832666,12.487222498041863],[120.967715286215039,12.488175856775172],[120.967954693108311,12.489144887441373],[120.968024558729525,12.489450269637397],[120.968129944806734,12.489910910620692],[120.968393818752858,12.490932502572706],[120.968667959136297,12.492004802852751],[120.96894180125301,12.493115510557187],[120.969218871334888,12.49426814406619],[120.969240694259398,12.494353356865915],[120.969458544980597,12.495204004655305],[120.969692889629627,12.496139825062791],[120.969884179640914,12.4969007313963],[120.970089371002999,12.497701898090526],[120.970238988051605,12.498338531740488],[120.970447625484212,12.499153691553449],[120.97061970121149,12.499872551552716],[120.970793867765863,12.500551271690902],[120.97099608728243,12.501137290172966],[120.971061454688666,12.501326720037817],[120.971220031852255,12.501791063932767],[120.971375885193225,12.502247430657622],[120.971681855835016,12.503113954648505],[120.971935723012265,12.503826447116921],[120.972184301774277,12.504533661990468],[120.972307716781458,12.504885516920021],[120.972495539053227,12.505408954875602],[120.972706964378474,12.505867972349559],[120.972903583448058,12.506185165954818],[120.972984227742899,12.506315264270354],[120.97323008120415,12.506688991811103],[120.973481415548463,12.507043555608227],[120.973735371435424,12.507289893302733],[120.974183485161817,12.507703552644321],[120.974515010253725,12.50802903908701],[120.974945548724989,12.508418122642295],[120.975083352238798,12.508520421665052],[120.975338304264042,12.508639315068095],[120.975834076048642,12.508866519553404],[120.975984061638513,12.508934175239128],[120.976487470454856,12.509161252693197],[120.977048770008437,12.50941688235066],[120.977280597947853,12.509539092137105],[120.977487468812512,12.509671589597843],[120.977861685819292,12.509992155995347],[120.978084209273234,12.510168418266133],[120.978413212934868,12.510389507967913],[120.978539,12.510502],[120.97857,12.510543],[120.978610034927129,12.510582996153261],[120.978640401419284,12.510625807611088],[120.978678182827267,12.510760051533531],[120.978680096219463,12.510978305562915],[120.978668640398965,12.511058063282757],[120.978659995316235,12.511240751868565],[120.978713433512809,12.511567625625416],[120.978805001335573,12.511751954169874],[120.978836855978642,12.511950438969905]]}},
{"type":"Feature","properties":{"id":623,"canal_id":null,"canal_type":"LATERAL CANAL","remarks":"LATERAL SMC X-2","Length":1205.7,"canal_widt":null,"station_no":null,"canal_leng":null,"station__1":null,"station__2":null,"canal":null,"canaltype":null},"geometry":{"type":"LineString","coordinates":[[120.978861,12.511942],[120.978859,12.511651],[120.978872,12.511424],[120.978843931524253,12.511216406121818],[120.978855432059632,12.510840783147135],[120.978877757932224,12.510350355126926],[120.978921443604548,12.510073891431047],[120.978891,12.509915],[120.978883015439962,12.50987364380895],[120.978995592924832,12.509736169928946],[120.979137919072983,12.50948582868493],[120.979155092105458,12.509334064047279],[120.979096827343056,12.508829060438892],[120.979035417509991,12.508435258887587],[120.979024049235534,12.508362357726408],[120.979008630186783,12.508060200654025],[120.979045730418648,12.507630986985266],[120.979078883000469,12.50725237484502],[120.979139314074772,12.506564942529739],[120.979157791673629,12.506016867473708],[120.979160333560131,12.50523297573352],[120.979136520120335,12.504639189643509],[120.979087736298851,12.504057437432422],[120.97903684847121,12.503746284540322],[120.978892647068079,12.503095725824624],[120.978753397932493,12.502265376193296],[120.978640459467513,12.501711810315399],[120.978583943923923,12.501434799830843],[120.978581243190092,12.501356385473152],[120.978593132313378,12.501278848784972],[120.978618570995963,12.501200526653676]]}},
{"type":"Feature","properties":{"id":624,"canal_id":null,"canal_type":"LATERAL CANAL","remarks":"LATERAL CS","Length":2366.0,"canal_widt":null,"station_no":null,"canal_leng":null,"station__1":null,"station__2":null,"canal":null,"canaltype":null},"geometry":{"type":"LineString","coordinates":[[120.974635118482183,12.487453736982575],[120.974667199869103,12.487467733540845],[120.974672321476461,12.487472219365424],[120.974696502178801,12.487513315134731],[120.97469817691605,12.487522294235074],[120.974727041294415,12.487834136910603],[120.974799563777466,12.48876678538732],[120.974891766768209,12.489761607119783],[120.974984006913076,12.490976963798699],[120.975054251276248,12.491639095621977],[120.975065011034829,12.49172101550967],[120.97507787276146,12.491758155090375],[120.975097754539007,12.491794485959421],[120.975151397307684,12.491886204186182],[120.975345337585296,12.492200372740767],[120.975585941488333,12.492601899643137],[120.975920829921733,12.493167812849308],[120.976261073556088,12.493721705559588],[120.976463702667772,12.494046276500692],[120.976729351442557,12.494497094399685],[120.977090323691769,12.495091631017536],[120.977315433594867,12.495456859231423],[120.977499902669095,12.495749419205669],[120.977781281407829,12.49620724634979],[120.978111895476999,12.496760204013343],[120.978420968619773,12.497264757757456],[120.978943924052459,12.49811334861602],[120.979234328283013,12.498558219830079],[120.979255847800673,12.498589925600447],[120.979464018452859,12.498879216782424],[120.979725092346683,12.499242990739651],[120.979923908107452,12.499495168515535],[120.980140005569794,12.499812435646261],[120.980241075058458,12.499924805143745],[120.98031146805387,12.50001262835703],[120.980765551928044,12.500801691173573],[120.981189771821775,12.501546882029102],[120.981656054110033,12.502367461822782],[120.98207489400977,12.503119595247504],[120.982293877136996,12.503522795064102],[120.982609311476295,12.50409083284786],[120.982896805844987,12.504595808422755],[120.983132793897283,12.505097779090415],[120.983147958781757,12.50520439308216],[120.983225600754508,12.505732238938011],[120.983318394275884,12.50636844460136],[120.983335,12.506481],[120.983322,12.506588]]}},
{"type":"Feature","properties":{"id":625,"canal_id":null,"canal_type":"MAIN FARM DITCH","remarks":"LATERAL X-2 MFD 1","Length":849.4,"canal_widt":null,"station_no":null,"canal_leng":null,"station__1":null,"station__2":null,"canal":null,"canaltype":null},"geometry":{"type":"LineString","coordinates":[[120.973367362823751,12.503212196215991],[120.973395682599275,12.503226376574112],[120.973430987042661,12.503256322590387],[120.973858542432964,12.503799023257121],[120.974465202652908,12.504388464491488],[120.974974767058811,12.504896862975146],[120.975465128561879,12.505361468841697],[120.975729827695432,12.505597410107768],[120.976548613139869,12.506329860944881],[120.97683976266724,12.50659218874873],[120.977271930506774,12.507000485939743],[120.977644407812633,12.507315801314162],[120.977944294269236,12.50759739880186],[120.978295682257738,12.507882874714934],[120.978846698650841,12.508318251281105],[120.978965155705666,12.508395366766138],[120.979040304995905,12.508466600788147]]}}
]
}
