{
  "type": "FeatureCollection",
  "name": "Lumintao RIS",
  "crs": {
    "type": "name",
    "properties": {
      "name": "urn:ogc:def:crs:OGC:1.3:CRS84"
    }
  },
  "features": [
    {
      "type": "Feature",
      "properties": {
        "id": 612,
        "canal_id": 612,
        "canal_type": "Ditch",
        "remarks": "LATERAL X-2 MFD 2",
        "Length": 691.5,
        "canal_widt": null,
        "station_no": "STA 0+000",
        "canal_leng": 691.52,
        "station__1": "STA 0+691.5",
        "station__2": "691.52",
        "canal": "LATERAL X-2 MFD 2",
        "canaltype": "Main Farm Ditch",
        "canal_lining": "Unspecified"
      },
      "geometry": {
        "type": "LineString",
        "coordinates": [
          [
            120.97915851704889,
            12.505793181488672
          ],
          [
            120.97907384047517,
            12.50578730558257
          ],
          [
            120.97880211356227,
            12.505726681759036
          ],
          [
            120.97823570101565,
            12.50560031094904
          ],
          [
            120.97750425335971,
            12.505403640077006
          ],
          [
            120.97711206135604,
            12.50528153538292
          ],
          [
            120.97695641128502,
            12.505246320612219
          ],
          [
            120.97670086672022,
            12.505203807833247
          ],
          [
            120.97662902828293,
            12.5051875547699
          ],
          [
            120.97657329327525,
            12.505157019044473
          ],
          [
            120.9763640464789,
            12.504987839649507
          ],
          [
            120.976141066065,
            12.50487093391063
          ],
          [
            120.97606393814421,
            12.50484940324571
          ],
          [
            120.9760231066613,
            12.50478755325773
          ],
          [
            120.97600493965814,
            12.504724564241332
          ],
          [
            120.97600271926626,
            12.504325172725293
          ],
          [
            120.97600205963947,
            12.504238745672094
          ],
          [
            120.97586284333592,
            12.503975813877636
          ],
          [
            120.97569592825123,
            12.503676009869794
          ],
          [
            120.97554572873561,
            12.503283362294683
          ],
          [
            120.9755000465081,
            12.503159932807733
          ],
          [
            120.975479221942,
            12.50308149126126
          ],
          [
            120.9754001558268,
            12.502886610455848
          ],
          [
            120.97521497474833,
            12.502491987865453
          ],
          [
            120.97510992566563,
            12.502242351795909
          ],
          [
            120.97507317740654,
            12.5020917032096
          ],
          [
            120.97510884446474,
            12.502033419417208
          ]
        ]
      }
    },
    {
      "type": "Feature",
      "properties": {
        "id": 616,
        "canal_id": 616,
        "canal_type": "Ditch",
        "remarks": "LATERAL AS MFD 1",
        "Length": 468.5,
        "canal_widt": null,
        "station_no": "STA 0+000",
        "canal_leng": 468.49,
        "station__1": "STA 0+468.5",
        "station__2": "468.49",
        "canal": "LATERAL AS MFD 1",
        "canaltype": "Main Farm Ditch",
        "canal_lining": "Unspecified"
      },
      "geometry": {
        "type": "LineString",
        "coordinates": [
          [
            120.97399989700017,
            12.515600842540472
          ],
          [
            120.9740062502796,
            12.515675142753174
          ],
          [
            120.97365411495454,
            12.515750559479368
          ],
          [
            120.97326465993231,
            12.515825694519402
          ],
          [
            120.97296082635292,
            12.515882548350657
          ],
          [
            120.97273476844443,
            12.515923723598991
          ],
          [
            120.97248251967876,
            12.515965588376112
          ],
          [
            120.97238249795834,
            12.51597784594264
          ],
          [
            120.97233930305212,
            12.51599762905319
          ],
          [
            120.97232229433935,
            12.516017313842989
          ],
          [
            120.9722862494328,
            12.516085056920499
          ],
          [
            120.9722186809522,
            12.516219689988295
          ],
          [
            120.97212632548101,
            12.516406477970985
          ],
          [
            120.9720263649014,
            12.516603558635572
          ],
          [
            120.97172249104881,
            12.517204824509893
          ],
          [
            120.9715299116686,
            12.517583663398545
          ],
          [
            120.97143998131035,
            12.517768103545235
          ],
          [
            120.97124488234881,
            12.518161117472154
          ],
          [
            120.97122327857245,
            12.518229560684173
          ]
        ]
      }
    },
    {
      "type": "Feature",
      "properties": {
        "id": 611,
        "canal_id": 611,
        "canal_type": "Lateral",
        "remarks": "LATERAL CS-1",
        "Length": 1772.1,
        "canal_widt": null,
        "station_no": "STA 0+000",
        "canal_leng": 1772.11,
        "station__1": "STA 1+772.1",
        "station__2": "1772.11",
        "canal": "LATERAL CS-1",
        "canaltype": "Lateral",
        "canal_lining": "Unspecified"
      },
      "geometry": {
        "type": "LineString",
        "coordinates": [
          [
            120.98289680584499,
            12.504595808422755
          ],
          [
            120.98318229504456,
            12.503756419720128
          ],
          [
            120.9831772897454,
            12.50371448043298
          ],
          [
            120.98312730102589,
            12.503630302374676
          ],
          [
            120.9829343228961,
            12.50308151456042
          ],
          [
            120.98285918615284,
            12.502803352314396
          ],
          [
            120.98275573831219,
            12.502395344311335
          ],
          [
            120.98269118416827,
            12.502171945280612
          ],
          [
            120.9826635931002,
            12.50207646227697
          ],
          [
            120.98267720356868,
            12.502039900186533
          ],
          [
            120.98284414217464,
            12.501822475887957
          ],
          [
            120.98313588063715,
            12.502009291021466
          ],
          [
            120.98334169148033,
            12.5021064210163
          ],
          [
            120.98336967600598,
            12.5021066306084
          ],
          [
            120.98340185131396,
            12.502081992389462
          ],
          [
            120.98351706195871,
            12.50183275382607
          ],
          [
            120.9837349610886,
            12.50140227312345
          ],
          [
            120.9841276369052,
            12.500602531335009
          ],
          [
            120.98436720027851,
            12.500127691263511
          ],
          [
            120.98455669580594,
            12.499750683572566
          ],
          [
            120.9846207482243,
            12.499567842384161
          ],
          [
            120.9847998054694,
            12.499161948766236
          ],
          [
            120.98505562073093,
            12.498653184012603
          ],
          [
            120.98514390234737,
            12.498439097469644
          ],
          [
            120.98529024550776,
            12.498127237716215
          ],
          [
            120.98526014403998,
            12.498056303168994
          ],
          [
            120.98497681565351,
            12.49764433118969
          ],
          [
            120.98473480800676,
            12.497231358752089
          ],
          [
            120.98449099155174,
            12.49687991599275
          ],
          [
            120.98446600758575,
            12.496836517777739
          ],
          [
            120.98446365702438,
            12.496795907781458
          ],
          [
            120.98447496703298,
            12.496712188725796
          ],
          [
            120.98452746491282,
            12.496644491036099
          ],
          [
            120.98460944163389,
            12.496556062966308
          ],
          [
            120.98467483898342,
            12.496543457921497
          ],
          [
            120.98471900311282,
            12.496347373422914
          ],
          [
            120.9847934981751,
            12.496020572526358
          ],
          [
            120.98484256623841,
            12.4958795208408
          ],
          [
            120.9848676582109,
            12.49573698035496
          ],
          [
            120.98489383923913,
            12.49562587439841
          ],
          [
            120.98489102845338,
            12.495472649718618
          ],
          [
            120.9849102828605,
            12.495395537198686
          ],
          [
            120.98499229958362,
            12.495301871495712
          ],
          [
            120.98506632087104,
            12.495208145957992
          ],
          [
            120.98509892110391,
            12.495128514363756
          ],
          [
            120.98514743091242,
            12.495059477215213
          ],
          [
            120.98529497621281,
            12.494936184498979
          ],
          [
            120.98545899887505,
            12.494750162088778
          ],
          [
            120.98579818624896,
            12.49414381152328
          ],
          [
            120.9860818146798,
            12.4936562034906
          ],
          [
            120.98612400578888,
            12.493542598094406
          ],
          [
            120.9861175917652,
            12.493338278445197
          ],
          [
            120.98610842139335,
            12.493145723099149
          ],
          [
            120.98609037383962,
            12.49306702216336
          ],
          [
            120.9860869032744,
            12.492998905653298
          ],
          [
            120.98612249768927,
            12.492704549027925
          ],
          [
            120.9861532429361,
            12.492520148606145
          ],
          [
            120.98614196961961,
            12.492427094528558
          ],
          [
            120.9860789194887,
            12.492308774229425
          ],
          [
            120.98598530189803,
            12.492179749983626
          ],
          [
            120.98595081783768,
            12.492158541295034
          ],
          [
            120.98588695691868,
            12.492144969628377
          ],
          [
            120.98576593839287,
            12.492112638624436
          ],
          [
            120.98547097471699,
            12.491999131741915
          ],
          [
            120.98536356569451,
            12.491930238178078
          ],
          [
            120.98529215574187,
            12.491858994866696
          ],
          [
            120.98529382288675,
            12.491815796024017
          ],
          [
            120.98532636162926,
            12.491744020454364
          ],
          [
            120.98537794125077,
            12.491622628754158
          ],
          [
            120.98538261817764,
            12.491534931665681
          ],
          [
            120.9853392829748,
            12.49145211336509
          ],
          [
            120.98528037678695,
            12.491346350020196
          ]
        ]
      }
    },
    {
      "type": "Feature",
      "properties": {
        "id": 614,
        "canal_id": 614,
        "canal_type": "Main",
        "remarks": "SECONDARY MAIN CANAL",
        "Length": 1354.9,
        "canal_widt": null,
        "station_no": "STA 0+000",
        "canal_leng": 1354.9,
        "station__1": "STA 1+354.9",
        "station__2": "1354.9",
        "canal": "SECONDARY MAIN CANAL",
        "canaltype": "Main Canal",
        "canal_lining": "Unspecified"
      },
      "geometry": {
        "type": "LineString",
        "coordinates": [
          [
            120.9865051463155,
            12.522546277756751
          ],
          [
            120.98654695982508,
            12.52243303489846
          ],
          [
            120.9866329284634,
            12.522059890157719
          ],
          [
            120.98667140539968,
            12.521911136014584
          ],
          [
            120.9866631708286,
            12.521886233971866
          ],
          [
            120.98663078495466,
            12.521870614076049
          ],
          [
            120.98624374416289,
            12.521633506222676
          ],
          [
            120.98593830260775,
            12.52143131253133
          ],
          [
            120.98557892514866,
            12.521197959737849
          ],
          [
            120.98529959382573,
            12.521044458926312
          ],
          [
            120.9849435078206,
            12.520852530695
          ],
          [
            120.98475268645205,
            12.52077421376929
          ],
          [
            120.98445234816721,
            12.520690344323246
          ],
          [
            120.98415661438757,
            12.520633715182619
          ],
          [
            120.98379325180522,
            12.520603784731446
          ],
          [
            120.98356344727142,
            12.520584318390409
          ],
          [
            120.98343408001247,
            12.52057684241272
          ],
          [
            120.9833426122152,
            12.520572607803688
          ],
          [
            120.98320408257386,
            12.520582214658102
          ],
          [
            120.98306553914655,
            12.52059359564549
          ],
          [
            120.98291917505401,
            12.520604326456112
          ],
          [
            120.98273750315973,
            12.520588177663882
          ],
          [
            120.98264186317635,
            12.520578588589462
          ],
          [
            120.98253124818338,
            12.520559424144563
          ],
          [
            120.98228995218922,
            12.52046948960302
          ],
          [
            120.98203290090753,
            12.520238083393668
          ],
          [
            120.98184422309484,
            12.520039127716595
          ],
          [
            120.98150059538219,
            12.519639103513036
          ],
          [
            120.9812181917331,
            12.51926201320122
          ],
          [
            120.98108532535379,
            12.519085359271237
          ],
          [
            120.98079548799258,
            12.518735418915403
          ],
          [
            120.98066289745871,
            12.518600758860494
          ],
          [
            120.98057196421368,
            12.5185279208854
          ],
          [
            120.98011782503589,
            12.517941354832749
          ],
          [
            120.97972559868936,
            12.517443968683235
          ],
          [
            120.97925483918124,
            12.516827705075633
          ],
          [
            120.97910807314761,
            12.516503678695893
          ],
          [
            120.97901697972026,
            12.51614221873119
          ],
          [
            120.97899716988242,
            12.515903130030344
          ],
          [
            120.97888695814663,
            12.514827072592519
          ],
          [
            120.9788704008869,
            12.514675226554855
          ]
        ]
      }
    },
    {
      "type": "Feature",
      "properties": {
        "id": 615,
        "canal_id": 615,
        "canal_type": "Lateral",
        "remarks": "LATERAL AS",
        "Length": 4940.4,
        "canal_widt": null,
        "station_no": "STA 0+000",
        "canal_leng": 4940.43,
        "station__1": "STA 4+940.4",
        "station__2": "4940.43",
        "canal": "LATERAL AS",
        "canaltype": "Lateral",
        "canal_lining": "Unspecified"
      },
      "geometry": {
        "type": "LineString",
        "coordinates": [
          [
            120.97908510777022,
            12.514636861796332
          ],
          [
            120.97846824265862,
            12.514745276764568
          ],
          [
            120.97722248960781,
            12.514984994113385
          ],
          [
            120.97653680236647,
            12.515107869824323
          ],
          [
            120.97538353550942,
            12.515336634491016
          ],
          [
            120.97524959105412,
            12.51536243740922
          ],
          [
            120.97432523391358,
            12.515540502572241
          ],
          [
            120.97374628475663,
            12.515647879492375
          ],
          [
            120.97285644708923,
            12.515820420327517
          ],
          [
            120.97239343190758,
            12.51587621145789
          ],
          [
            120.97231099276596,
            12.515886144895106
          ],
          [
            120.97143873846181,
            12.51593078101487
          ],
          [
            120.97046708842089,
            12.515960697151533
          ],
          [
            120.97030860565748,
            12.515949850377734
          ],
          [
            120.97019949986937,
            12.515942382976382
          ],
          [
            120.96971637185608,
            12.515915458148013
          ],
          [
            120.9686602521979,
            12.515839976587335
          ],
          [
            120.96783862618672,
            12.515773246219531
          ],
          [
            120.96639187095089,
            12.515659886593657
          ],
          [
            120.96529079611791,
            12.515577068638231
          ],
          [
            120.96459231475372,
            12.515518243609886
          ],
          [
            120.96373030765406,
            12.515465162508763
          ],
          [
            120.96340576778579,
            12.515442449141144
          ],
          [
            120.96298438977496,
            12.515412957839237
          ],
          [
            120.96238976935345,
            12.515403798531686
          ],
          [
            120.96183544300143,
            12.515392615380284
          ],
          [
            120.96123132820247,
            12.51538570942654
          ],
          [
            120.96068150296207,
            12.515404820019144
          ],
          [
            120.9599464271271,
            12.515480720699262
          ],
          [
            120.95971604825016,
            12.515509307660807
          ],
          [
            120.95962806738612,
            12.515520224863712
          ],
          [
            120.95916854187324,
            12.51557724510307
          ],
          [
            120.95852338354993,
            12.515667791010333
          ],
          [
            120.95831252944727,
            12.515666190637022
          ],
          [
            120.95809471437157,
            12.51564591451609
          ],
          [
            120.95794383954679,
            12.515549327622926
          ],
          [
            120.9574900550758,
            12.515105920159998
          ],
          [
            120.9569561976836,
            12.514601380145907
          ],
          [
            120.95636623429331,
            12.514000971683123
          ],
          [
            120.9560346970489,
            12.513679538810463
          ],
          [
            120.95589489971493,
            12.513550707031209
          ],
          [
            120.95563482255298,
            12.513311029563143
          ],
          [
            120.95527263517562,
            12.512970740378986
          ],
          [
            120.95478791468592,
            12.51254571721011
          ],
          [
            120.95427159071427,
            12.512222877971794
          ],
          [
            120.9539580760996,
            12.512020299966492
          ],
          [
            120.95333552986571,
            12.511647766883177
          ],
          [
            120.95320761315661,
            12.511571145652953
          ],
          [
            120.95282381953666,
            12.511341255319577
          ],
          [
            120.95212798168649,
            12.510949539598434
          ],
          [
            120.95206288400495,
            12.510909905690042
          ],
          [
            120.95144654423886,
            12.510534653659585
          ],
          [
            120.95125327020911,
            12.51040747914716
          ],
          [
            120.95116414442663,
            12.510292736686257
          ],
          [
            120.95113415408302,
            12.510190083637413
          ],
          [
            120.95118051082758,
            12.510070965307175
          ],
          [
            120.9513184706105,
            12.509395686135198
          ],
          [
            120.95133036453136,
            12.50916483488496
          ],
          [
            120.95131466904938,
            12.509026150322573
          ],
          [
            120.95114060547641,
            12.50874439588791
          ],
          [
            120.95051284751966,
            12.50787358458861
          ],
          [
            120.94995514744231,
            12.507061041413994
          ],
          [
            120.94935986679218,
            12.506117894221896
          ],
          [
            120.94900837693855,
            12.505556007817031
          ],
          [
            120.94865531386239,
            12.504980912511234
          ],
          [
            120.94843406322289,
            12.504366226569749
          ],
          [
            120.9476869179288,
            12.502432369103062
          ],
          [
            120.94680918283939,
            12.500117895771227
          ],
          [
            120.94663561842295,
            12.499667886421902
          ],
          [
            120.94659922668023,
            12.49959915133967
          ],
          [
            120.94655986739781,
            12.499587304165775
          ],
          [
            120.94628513432473,
            12.499315257827874
          ],
          [
            120.94529434636662,
            12.49827118460435
          ],
          [
            120.94496239449029,
            12.498638157775368
          ],
          [
            120.94569222044292,
            12.499256626709673
          ]
        ]
      }
    },
    {
      "type": "Feature",
      "properties": {
        "id": 617,
        "canal_id": 617,
        "canal_type": "Ditch",
        "remarks": "LATERAL AS MFD 2",
        "Length": 134.7,
        "canal_widt": null,
        "station_no": "STA 0+000",
        "canal_leng": 134.74,
        "station__1": "STA 0+134.7",
        "station__2": "134.74",
        "canal": "LATERAL AS MFD 2",
        "canaltype": "Main Farm Ditch",
        "canal_lining": "Unspecified"
      },
      "geometry": {
        "type": "LineString",
        "coordinates": [
          [
            120.96459231475372,
            12.515518243609886
          ],
          [
            120.96448945573577,
            12.515643169222
          ],
          [
            120.96398313754615,
            12.516296593511735
          ],
          [
            120.96391740482359,
            12.516381423920288
          ],
          [
            120.9638316407726,
            12.516479336959879
          ]
        ]
      }
    },
    {
      "type": "Feature",
      "properties": {
        "id": 618,
        "canal_id": 618,
        "canal_type": "Ditch",
        "remarks": "LATERAL AS MFD 3",
        "Length": 1426.4,
        "canal_widt": null,
        "station_no": "STA 0+000",
        "canal_leng": 1426.38,
        "station__1": "STA 1+426.4",
        "station__2": "1426.38",
        "canal": "LATERAL AS MFD 3",
        "canaltype": "Main Farm Ditch",
        "canal_lining": "Unspecified"
      },
      "geometry": {
        "type": "LineString",
        "coordinates": [
          [
            120.95589489971493,
            12.513550707031209
          ],
          [
            120.95641818834582,
            12.513091970354347
          ],
          [
            120.95649772997528,
            12.513022240583691
          ],
          [
            120.95645033625146,
            12.512496370525524
          ],
          [
            120.95643879123915,
            12.51238280059271
          ],
          [
            120.95646219229187,
            12.512344568958216
          ],
          [
            120.9563614734392,
            12.51215961354134
          ],
          [
            120.95629561586955,
            12.511947861756855
          ],
          [
            120.95621174280905,
            12.511767398974456
          ],
          [
            120.95538503917602,
            12.510286212112307
          ],
          [
            120.95523062650503,
            12.510173259001224
          ],
          [
            120.95512577895758,
            12.509994063649536
          ],
          [
            120.95459010367203,
            12.509195617518243
          ],
          [
            120.95450835135136,
            12.509094103740452
          ],
          [
            120.95422936275352,
            12.508747676348754
          ],
          [
            120.95371854333818,
            12.508178128210657
          ],
          [
            120.95438434391863,
            12.507078140714043
          ],
          [
            120.95445487706081,
            12.506961610219367
          ],
          [
            120.95455405756478,
            12.506777300730715
          ],
          [
            120.95497528214786,
            12.506087387092451
          ],
          [
            120.95530140057188,
            12.505515469911096
          ],
          [
            120.9557084888991,
            12.504814971816016
          ],
          [
            120.95615160462958,
            12.50405189453723
          ],
          [
            120.9563784025331,
            12.503681743471677
          ],
          [
            120.95617541991902,
            12.50291917892666
          ],
          [
            120.95604674452966,
            12.502518988124239
          ]
        ]
      }
    },
    {
      "type": "Feature",
      "properties": {
        "id": 619,
        "canal_id": 619,
        "canal_type": "Ditch",
        "remarks": "MFD 3 SFD 1",
        "Length": 125.5,
        "canal_widt": null,
        "station_no": "STA 0+000",
        "canal_leng": 125.52,
        "station__1": "STA 0+125.5",
        "station__2": "125.52",
        "canal": "MFD 3 SFD 1",
        "canaltype": "Main Farm Ditch",
        "canal_lining": "Unspecified"
      },
      "geometry": {
        "type": "LineString",
        "coordinates": [
          [
            120.9563784025331,
            12.503681743471677
          ],
          [
            120.95633614425485,
            12.503632538013402
          ],
          [
            120.95631064020495,
            12.503610811836623
          ],
          [
            120.95556345539255,
            12.50297430384253
          ],
          [
            120.95551329787394,
            12.502931575741663
          ]
        ]
      }
    },
    {
      "type": "Feature",
      "properties": {
        "id": 620,
        "canal_id": 620,
        "canal_type": "Lateral",
        "remarks": "LATERAL AS-1",
        "Length": 746.4,
        "canal_widt": null,
        "station_no": "STA 0+000",
        "canal_leng": 746.43,
        "station__1": "STA 0+746.4",
        "station__2": "746.43",
        "canal": "LATERAL AS-1",
        "canaltype": "Lateral",
        "canal_lining": "Unspecified"
      },
      "geometry": {
        "type": "LineString",
        "coordinates": [
          [
            120.95137830041072,
            12.510489749177538
          ],
          [
            120.95128066204809,
            12.510539210337283
          ],
          [
            120.95044197675207,
            12.510986751091671
          ],
          [
            120.94978828878183,
            12.511298002394751
          ],
          [
            120.9496696651589,
            12.511354484361974
          ],
          [
            120.94928588328615,
            12.511562251175564
          ],
          [
            120.94892550510146,
            12.511757347145391
          ],
          [
            120.94840181353028,
            12.512061846250267
          ],
          [
            120.94800080783394,
            12.512295008707314
          ],
          [
            120.94722585740053,
            12.512770957734148
          ],
          [
            120.94674386420266,
            12.513051856686179
          ],
          [
            120.94625634628211,
            12.513357154624316
          ],
          [
            120.94563144498187,
            12.513732983083877
          ],
          [
            120.94543694517272,
            12.51386100669549
          ]
        ]
      }
    },
    {
      "type": "Feature",
      "properties": {
        "id": 613,
        "canal_id": 613,
        "canal_type": "Main",
        "remarks": "SOUTH MAIN CANAL",
        "Length": 3268.2,
        "canal_widt": 0,
        "station_no": "STA 0+000",
        "canal_leng": 3268.18,
        "station__1": "STA 3+268.2",
        "station__2": "3268.18",
        "canal": "SOUTH MAIN CANAL",
        "canaltype": "Main Canal",
        "canal_lining": "Unspecified"
      },
      "geometry": {
        "type": "LineString",
        "coordinates": [
          [
            120.98772307233445,
            12.522449380778509
          ],
          [
            120.9869733381739,
            12.52198377790172
          ],
          [
            120.98655753184524,
            12.521729894808463
          ],
          [
            120.9857281551863,
            12.521244618400054
          ],
          [
            120.98545486151791,
            12.521088797211782
          ],
          [
            120.98525828659308,
            12.5209761341352
          ],
          [
            120.98490214561441,
            12.520791302699104
          ],
          [
            120.98479069826523,
            12.520724226510927
          ],
          [
            120.98454087737058,
            12.520646650143192
          ],
          [
            120.98432697118811,
            12.520595366016838
          ],
          [
            120.9840694633699,
            12.520577466741226
          ],
          [
            120.9839153474764,
            12.520578676997161
          ],
          [
            120.98367912820363,
            12.520455069806149
          ],
          [
            120.98341828010136,
            12.52040225012594
          ],
          [
            120.98327042274168,
            12.520372752262412
          ],
          [
            120.98310101497817,
            12.520327715330632
          ],
          [
            120.98281375528312,
            12.52026523400925
          ],
          [
            120.98247977413784,
            12.520172830040497
          ],
          [
            120.9823226262151,
            12.520099495700702
          ],
          [
            120.98202987254562,
            12.519814592388075
          ],
          [
            120.98158600177854,
            12.51930026031099
          ],
          [
            120.98081104312983,
            12.518322122087488
          ],
          [
            120.98033904032627,
            12.51755562581318
          ],
          [
            120.97991342949648,
            12.516861632651468
          ],
          [
            120.97950031959553,
            12.516108589474698
          ],
          [
            120.97930201034143,
            12.515600831049264
          ],
          [
            120.97916387621048,
            12.515095890384071
          ],
          [
            120.97905331347987,
            12.514451578096546
          ],
          [
            120.97885267997191,
            12.513314514940518
          ],
          [
            120.97861918669697,
            12.51206838084121
          ],
          [
            120.97864602104092,
            12.512023633355312
          ],
          [
            120.97874994735419,
            12.51197355065554
          ],
          [
            120.97905275620941,
            12.511893024289822
          ],
          [
            120.97951257974297,
            12.51174743588158
          ],
          [
            120.97960677388002,
            12.511710291311882
          ],
          [
            120.98018453666026,
            12.511570318703878
          ],
          [
            120.98049090118619,
            12.511496914503484
          ],
          [
            120.98076747296847,
            12.511384251572768
          ],
          [
            120.98086197946263,
            12.511306891206445
          ],
          [
            120.98091565643301,
            12.511216212832078
          ],
          [
            120.98093668255962,
            12.511144215399339
          ],
          [
            120.98104537806496,
            12.510945125565673
          ],
          [
            120.98111309689064,
            12.510751642588371
          ],
          [
            120.98125630870997,
            12.510293762501979
          ],
          [
            120.9815649692378,
            12.509304830509263
          ],
          [
            120.98172038279671,
            12.508825749699955
          ],
          [
            120.98181920675616,
            12.50850238359634
          ],
          [
            120.9818500099379,
            12.508411533358213
          ],
          [
            120.98197358987495,
            12.50800082016012
          ],
          [
            120.98213164803171,
            12.507491003971053
          ],
          [
            120.98220190102201,
            12.507280979198072
          ],
          [
            120.98225553977183,
            12.50719503154997
          ],
          [
            120.98246754974777,
            12.507023921260748
          ],
          [
            120.98299036489647,
            12.50667179452625
          ],
          [
            120.98317306000543,
            12.5065548760801
          ],
          [
            120.98325487395569,
            12.506561403449172
          ],
          [
            120.9836209381332,
            12.506706090839312
          ],
          [
            120.9841045920686,
            12.506901339232584
          ],
          [
            120.9848274227387,
            12.50714805841137
          ],
          [
            120.98535025227523,
            12.507259613956194
          ],
          [
            120.98588049791492,
            12.507346383651667
          ],
          [
            120.98698671789884,
            12.507522627822299
          ],
          [
            120.98738828364458,
            12.50759187197501
          ],
          [
            120.98770096782003,
            12.50763442775377
          ],
          [
            120.98804053940664,
            12.507625137577657
          ],
          [
            120.98831293465184,
            12.507584590073634
          ],
          [
            120.98863989591027,
            12.50749358631858
          ],
          [
            120.98902232469807,
            12.507391167782377
          ],
          [
            120.98930858421402,
            12.507270287086133
          ],
          [
            120.98970096754488,
            12.506970401172634
          ],
          [
            120.98977346360053,
            12.506897604152178
          ]
        ]
      }
    },
    {
      "type": "Feature",
      "properties": {
        "id": 621,
        "canal_id": 621,
        "canal_type": "Main",
        "remarks": "4TH INTAKE MAIN CANAL",
        "Length": 3657.3,
        "canal_widt": null,
        "station_no": "STA 0+000",
        "canal_leng": 3657.33,
        "station__1": "STA 3+657.3",
        "station__2": "3657.33",
        "canal": "4TH INTAKE MAIN CANAL",
        "canaltype": "Main Canal",
        "canal_lining": "Unspecified"
      },
      "geometry": {
        "type": "LineString",
        "coordinates": [
          [
            120.95745225664342,
            12.524655426203958
          ],
          [
            120.95704328723885,
            12.524760549533985
          ],
          [
            120.95641645505683,
            12.524782398968304
          ],
          [
            120.95578798491384,
            12.524782943086578
          ],
          [
            120.95550458180861,
            12.524766593429769
          ],
          [
            120.95534298010489,
            12.524648261688156
          ],
          [
            120.95526563716588,
            12.524608639184201
          ],
          [
            120.95512831049759,
            12.524618240223527
          ],
          [
            120.95504899398783,
            12.524599894020243
          ],
          [
            120.95479470821336,
            12.524555376669745
          ],
          [
            120.95470178514071,
            12.52454491110691
          ],
          [
            120.95450626613753,
            12.524548302636745
          ],
          [
            120.95446470419458,
            12.524551534926202
          ],
          [
            120.95419388296538,
            12.524542820368147
          ],
          [
            120.95407558048906,
            12.524544581395473
          ],
          [
            120.95392626745975,
            12.524528363531218
          ],
          [
            120.95366286863809,
            12.52437998043009
          ],
          [
            120.95331229365348,
            12.5241794792879
          ],
          [
            120.95275155822665,
            12.523720994050539
          ],
          [
            120.95251253258209,
            12.523344800865422
          ],
          [
            120.95241454625872,
            12.523175054539935
          ],
          [
            120.95233349826519,
            12.523032938525521
          ],
          [
            120.9522457450628,
            12.522882343603076
          ],
          [
            120.95214276507879,
            12.522716107744726
          ],
          [
            120.95151744762762,
            12.521688916318652
          ],
          [
            120.9514371843674,
            12.521561887499244
          ],
          [
            120.95132942145344,
            12.521372549418972
          ],
          [
            120.9512819391217,
            12.521267948819258
          ],
          [
            120.95127793580527,
            12.52120315718803
          ],
          [
            120.95129531681239,
            12.521146069176297
          ],
          [
            120.95132657720107,
            12.521103724704947
          ],
          [
            120.9514124385172,
            12.521036291002646
          ],
          [
            120.95148779918404,
            12.520983636840006
          ],
          [
            120.95191706114426,
            12.520709232414301
          ],
          [
            120.95214872087081,
            12.520588128090226
          ],
          [
            120.95226342728918,
            12.520526901930683
          ],
          [
            120.9524304316304,
            12.520417724870857
          ],
          [
            120.95263609233389,
            12.520272912873626
          ],
          [
            120.95288864376104,
            12.520078777851833
          ],
          [
            120.95308894605455,
            12.519926383945947
          ],
          [
            120.95311730657185,
            12.519879581424675
          ],
          [
            120.95304086781296,
            12.519725524388177
          ],
          [
            120.95291138924159,
            12.519541787964265
          ],
          [
            120.95276065418359,
            12.519305548440176
          ],
          [
            120.95269669534595,
            12.519171990575293
          ],
          [
            120.9526661785581,
            12.519034251611549
          ],
          [
            120.95265588773869,
            12.518936587913702
          ],
          [
            120.95264453145141,
            12.518888152349597
          ],
          [
            120.95262572797446,
            12.518810828052528
          ],
          [
            120.95259646762293,
            12.518685518608557
          ],
          [
            120.95258637473235,
            12.518648625477077
          ],
          [
            120.95251804158022,
            12.518497291507984
          ],
          [
            120.9524559447628,
            12.518356650687073
          ],
          [
            120.95236345006924,
            12.517948749438128
          ],
          [
            120.95226206005408,
            12.517695586292312
          ],
          [
            120.95214639207397,
            12.517478243561953
          ],
          [
            120.9520005021804,
            12.51731478617546
          ],
          [
            120.95175396522733,
            12.51709023680068
          ],
          [
            120.95155922905896,
            12.516937940055836
          ],
          [
            120.95118607919282,
            12.516739040108824
          ],
          [
            120.95077799424998,
            12.51644761113139
          ],
          [
            120.95042226138777,
            12.516215797091307
          ],
          [
            120.95017097064432,
            12.516079037087586
          ],
          [
            120.95000662600341,
            12.51596600515068
          ],
          [
            120.94980168695878,
            12.515848228029613
          ],
          [
            120.94967391938303,
            12.51579136443119
          ],
          [
            120.94954449322229,
            12.515715858235085
          ],
          [
            120.94934870951096,
            12.51558218213147
          ],
          [
            120.94907005044595,
            12.515423921309434
          ],
          [
            120.94869136163459,
            12.515240944727072
          ],
          [
            120.94826017344806,
            12.515074422872067
          ],
          [
            120.94775870187124,
            12.514889621462526
          ],
          [
            120.94748870885427,
            12.514777556492877
          ],
          [
            120.94730144041206,
            12.514709148697579
          ],
          [
            120.94711340857674,
            12.514680212556648
          ],
          [
            120.9470079336413,
            12.514659003458855
          ],
          [
            120.9469529986123,
            12.514640841459697
          ],
          [
            120.94687430226476,
            12.514601650380932
          ],
          [
            120.94676373981366,
            12.514538706934355
          ],
          [
            120.94665106754007,
            12.514457117473237
          ],
          [
            120.94652503463617,
            12.514352360432545
          ],
          [
            120.94638306828972,
            12.514264337309193
          ],
          [
            120.94613708347417,
            12.514142252364284
          ],
          [
            120.94582301286103,
            12.5140094452725
          ],
          [
            120.94543694517272,
            12.51386100669549
          ],
          [
            120.94506461639,
            12.513955616934375
          ],
          [
            120.94487964608423,
            12.513976900241305
          ],
          [
            120.94475488269345,
            12.51394975906614
          ],
          [
            120.94447815730815,
            12.513889449173371
          ],
          [
            120.94439708955197,
            12.513863613591553
          ],
          [
            120.94389442466093,
            12.51370341807545
          ],
          [
            120.94365586361515,
            12.513610809551617
          ],
          [
            120.94356596659365,
            12.513593827624453
          ],
          [
            120.94334411857729,
            12.51348505184542
          ],
          [
            120.94295046930583,
            12.51323063732127
          ],
          [
            120.9425761608855,
            12.512927485967014
          ],
          [
            120.94228208909838,
            12.512664520872205
          ],
          [
            120.94193733502442,
            12.512328478514888
          ],
          [
            120.94187770347155,
            12.512270353693616
          ],
          [
            120.94141971558535,
            12.51176404056107
          ],
          [
            120.94108620216802,
            12.511396020813555
          ],
          [
            120.94087209187596,
            12.511208156724905
          ],
          [
            120.94041964625569,
            12.510899749521062
          ],
          [
            120.93995126618799,
            12.51058154519734
          ],
          [
            120.93959486371637,
            12.510339414336672
          ],
          [
            120.93881496789352,
            12.509795715668023
          ],
          [
            120.93773816324061,
            12.50904954786342
          ],
          [
            120.93753786525834,
            12.508912999538063
          ],
          [
            120.93731976085536,
            12.508631990022252
          ],
          [
            120.93706218113556,
            12.508548542147262
          ],
          [
            120.93692290622027,
            12.508484623502088
          ],
          [
            120.93685479527157,
            12.508409611272505
          ],
          [
            120.93666837984476,
            12.508315069532507
          ],
          [
            120.93649886217275,
            12.508181084387289
          ],
          [
            120.93638359237328,
            12.508077776708678
          ],
          [
            120.93629210554961,
            12.507963012285654
          ],
          [
            120.93606373205282,
            12.507782019335393
          ],
          [
            120.93577852041875,
            12.507598262503977
          ],
          [
            120.9355921985093,
            12.507492081804916
          ],
          [
            120.93542460712197,
            12.507413978441074
          ],
          [
            120.93525248123906,
            12.507310234253191
          ],
          [
            120.93517704202029,
            12.507263099253384
          ],
          [
            120.93506867681207,
            12.507185450058145
          ],
          [
            120.93503813833411,
            12.507152626380956
          ],
          [
            120.93490376934346,
            12.507067794189668
          ]
        ]
      }
    },
    {
      "type": "Feature",
      "properties": {
        "id": 622,
        "canal_id": 622,
        "canal_type": "Lateral",
        "remarks": "LATERAL BS",
        "Length": 3255.6,
        "canal_widt": null,
        "station_no": "STA 0+000",
        "canal_leng": 3255.62,
        "station__1": "STA 3+255.6",
        "station__2": "3255.62",
        "canal": "LATERAL BS",
        "canaltype": "Lateral",
        "canal_lining": "Unspecified"
      },
      "geometry": {
        "type": "LineString",
        "coordinates": [
          [
            120.97883685597864,
            12.511950438969905
          ],
          [
            120.97880500133557,
            12.511751954169874
          ],
          [
            120.97871343351281,
            12.511567625625416
          ],
          [
            120.97865999531624,
            12.511240751868565
          ],
          [
            120.97866864039896,
            12.511058063282757
          ],
          [
            120.97868009621946,
            12.510978305562915
          ],
          [
            120.97867818282727,
            12.51076005153353
          ],
          [
            120.97864040141928,
            12.510625807611088
          ],
          [
            120.97861003492713,
            12.51058299615326
          ],
          [
            120.97857,
            12.510543
          ],
          [
            120.978539,
            12.510502
          ],
          [
            120.97841321293487,
            12.510389507967913
          ],
          [
            120.97808420927323,
            12.510168418266133
          ],
          [
            120.97786168581929,
            12.509992155995347
          ],
          [
            120.97748746881251,
            12.509671589597843
          ],
          [
            120.97728059794785,
            12.509539092137105
          ],
          [
            120.97704877000844,
            12.50941688235066
          ],
          [
            120.97648747045486,
            12.509161252693197
          ],
          [
            120.97598406163851,
            12.508934175239128
          ],
          [
            120.97583407604864,
            12.508866519553404
          ],
          [
            120.97533830426404,
            12.508639315068095
          ],
          [
            120.9750833522388,
            12.508520421665052
          ],
          [
            120.97494554872499,
            12.508418122642295
          ],
          [
            120.97451501025373,
            12.50802903908701
          ],
          [
            120.97418348516182,
            12.50770355264432
          ],
          [
            120.97373537143542,
            12.507289893302733
          ],
          [
            120.97348141554846,
            12.507043555608227
          ],
          [
            120.97323008120415,
            12.506688991811103
          ],
          [
            120.9729842277429,
            12.506315264270354
          ],
          [
            120.97290358344806,
            12.506185165954818
          ],
          [
            120.97270696437847,
            12.50586797234956
          ],
          [
            120.97249553905323,
            12.505408954875602
          ],
          [
            120.97230771678146,
            12.504885516920021
          ],
          [
            120.97218430177428,
            12.504533661990468
          ],
          [
            120.97193572301227,
            12.503826447116921
          ],
          [
            120.97168185583502,
            12.503113954648505
          ],
          [
            120.97137588519323,
            12.502247430657622
          ],
          [
            120.97122003185225,
            12.501791063932767
          ],
          [
            120.97106145468867,
            12.501326720037817
          ],
          [
            120.97099608728243,
            12.501137290172966
          ],
          [
            120.97079386776586,
            12.500551271690902
          ],
          [
            120.97061970121149,
            12.499872551552716
          ],
          [
            120.97044762548421,
            12.499153691553449
          ],
          [
            120.9702389880516,
            12.498338531740488
          ],
          [
            120.970089371003,
            12.497701898090526
          ],
          [
            120.96988417964091,
            12.4969007313963
          ],
          [
            120.96969288962963,
            12.49613982506279
          ],
          [
            120.9694585449806,
            12.495204004655305
          ],
          [
            120.9692406942594,
            12.494353356865915
          ],
          [
            120.96921887133489,
            12.49426814406619
          ],
          [
            120.96894180125301,
            12.493115510557187
          ],
          [
            120.9686679591363,
            12.492004802852751
          ],
          [
            120.96839381875286,
            12.490932502572706
          ],
          [
            120.96812994480673,
            12.489910910620692
          ],
          [
            120.96802455872952,
            12.489450269637397
          ],
          [
            120.96795469310831,
            12.489144887441373
          ],
          [
            120.96771528621504,
            12.488175856775172
          ],
          [
            120.96747042783267,
            12.487222498041863
          ],
          [
            120.96731317627341,
            12.487109575052505
          ],
          [
            120.96658984422317,
            12.486678121593247
          ]
        ]
      }
    },
    {
      "type": "Feature",
      "properties": {
        "id": 623,
        "canal_id": 623,
        "canal_type": "Main",
        "remarks": "LATERAL SMC X-2",
        "Length": 1205.7,
        "canal_widt": null,
        "station_no": "STA 0+000",
        "canal_leng": 1205.68,
        "station__1": "STA 1+205.7",
        "station__2": "1205.68",
        "canal": "LATERAL SMC X-2",
        "canaltype": "Main Canal",
        "canal_lining": "Unspecified"
      },
      "geometry": {
        "type": "LineString",
        "coordinates": [
          [
            120.978861,
            12.511942
          ],
          [
            120.978859,
            12.511651
          ],
          [
            120.978872,
            12.511424
          ],
          [
            120.97884393152425,
            12.511216406121818
          ],
          [
            120.97885543205963,
            12.510840783147135
          ],
          [
            120.97887775793222,
            12.510350355126926
          ],
          [
            120.97892144360455,
            12.510073891431047
          ],
          [
            120.978891,
            12.509915
          ],
          [
            120.97888301543996,
            12.50987364380895
          ],
          [
            120.97899559292483,
            12.509736169928946
          ],
          [
            120.97913791907298,
            12.50948582868493
          ],
          [
            120.97915509210546,
            12.509334064047279
          ],
          [
            120.97909682734306,
            12.508829060438892
          ],
          [
            120.97903541750999,
            12.508435258887587
          ],
          [
            120.97902404923553,
            12.508362357726408
          ],
          [
            120.97900863018678,
            12.508060200654025
          ],
          [
            120.97904573041865,
            12.507630986985266
          ],
          [
            120.97907888300047,
            12.50725237484502
          ],
          [
            120.97913931407477,
            12.506564942529739
          ],
          [
            120.97915779167363,
            12.506016867473708
          ],
          [
            120.97916033356013,
            12.50523297573352
          ],
          [
            120.97913652012033,
            12.504639189643509
          ],
          [
            120.97908773629885,
            12.504057437432422
          ],
          [
            120.97903684847121,
            12.503746284540322
          ],
          [
            120.97889264706808,
            12.503095725824624
          ],
          [
            120.9787533979325,
            12.502265376193296
          ],
          [
            120.97864045946751,
            12.501711810315399
          ],
          [
            120.97858394392392,
            12.501434799830843
          ],
          [
            120.97858124319009,
            12.501356385473152
          ],
          [
            120.97859313231338,
            12.501278848784972
          ],
          [
            120.97861857099596,
            12.501200526653676
          ]
        ]
      }
    },
    {
      "type": "Feature",
      "properties": {
        "id": 624,
        "canal_id": 624,
        "canal_type": "Lateral",
        "remarks": "LATERAL CS",
        "Length": 2366,
        "canal_widt": null,
        "station_no": "STA 0+000",
        "canal_leng": 2365.96,
        "station__1": "STA 2+366.0",
        "station__2": "2365.96",
        "canal": "LATERAL CS",
        "canaltype": "Lateral",
        "canal_lining": "Unspecified"
      },
      "geometry": {
        "type": "LineString",
        "coordinates": [
          [
            120.983322,
            12.506588
          ],
          [
            120.983335,
            12.506481
          ],
          [
            120.98331839427588,
            12.50636844460136
          ],
          [
            120.98322560075451,
            12.50573223893801
          ],
          [
            120.98314795878176,
            12.50520439308216
          ],
          [
            120.98313279389728,
            12.505097779090415
          ],
          [
            120.98289680584499,
            12.504595808422755
          ],
          [
            120.9826093114763,
            12.50409083284786
          ],
          [
            120.982293877137,
            12.503522795064102
          ],
          [
            120.98207489400977,
            12.503119595247504
          ],
          [
            120.98165605411003,
            12.502367461822782
          ],
          [
            120.98118977182178,
            12.501546882029102
          ],
          [
            120.98076555192804,
            12.500801691173573
          ],
          [
            120.98031146805387,
            12.50001262835703
          ],
          [
            120.98024107505846,
            12.499924805143745
          ],
          [
            120.9801400055698,
            12.49981243564626
          ],
          [
            120.97992390810745,
            12.499495168515535
          ],
          [
            120.97972509234668,
            12.499242990739651
          ],
          [
            120.97946401845286,
            12.498879216782424
          ],
          [
            120.97925584780067,
            12.498589925600447
          ],
          [
            120.97923432828301,
            12.498558219830079
          ],
          [
            120.97894392405246,
            12.49811334861602
          ],
          [
            120.97842096861977,
            12.497264757757456
          ],
          [
            120.978111895477,
            12.496760204013343
          ],
          [
            120.97778128140783,
            12.49620724634979
          ],
          [
            120.9774999026691,
            12.49574941920567
          ],
          [
            120.97731543359487,
            12.495456859231423
          ],
          [
            120.97709032369177,
            12.495091631017536
          ],
          [
            120.97672935144256,
            12.494497094399685
          ],
          [
            120.97646370266777,
            12.494046276500692
          ],
          [
            120.97626107355609,
            12.493721705559588
          ],
          [
            120.97592082992173,
            12.493167812849308
          ],
          [
            120.97558594148833,
            12.492601899643137
          ],
          [
            120.9753453375853,
            12.492200372740767
          ],
          [
            120.97515139730768,
            12.491886204186182
          ],
          [
            120.97509775453901,
            12.49179448595942
          ],
          [
            120.97507787276146,
            12.491758155090375
          ],
          [
            120.97506501103483,
            12.49172101550967
          ],
          [
            120.97505425127625,
            12.491639095621977
          ],
          [
            120.97498400691308,
            12.4909769637987
          ],
          [
            120.97489176676821,
            12.489761607119783
          ],
          [
            120.97479956377747,
            12.48876678538732
          ],
          [
            120.97472704129441,
            12.487834136910603
          ],
          [
            120.97469817691605,
            12.487522294235074
          ],
          [
            120.9746965021788,
            12.48751331513473
          ],
          [
            120.97467232147646,
            12.487472219365424
          ],
          [
            120.9746671998691,
            12.487467733540845
          ],
          [
            120.97463511848218,
            12.487453736982575
          ]
        ]
      }
    },
    {
      "type": "Feature",
      "properties": {
        "id": 625,
        "canal_id": 625,
        "canal_type": "Ditch",
        "remarks": "LATERAL X-2 MFD 1",
        "Length": 849.4,
        "canal_widt": null,
        "station_no": "STA 0+000",
        "canal_leng": 849.39,
        "station__1": "STA 0+849.4",
        "station__2": "849.39",
        "canal": "LATERAL X-2 MFD 1",
        "canaltype": "Main Farm Ditch",
        "canal_lining": "Unspecified"
      },
      "geometry": {
        "type": "LineString",
        "coordinates": [
          [
            120.9790403049959,
            12.508466600788147
          ],
          [
            120.97896515570567,
            12.508395366766138
          ],
          [
            120.97884669865084,
            12.508318251281105
          ],
          [
            120.97829568225774,
            12.507882874714934
          ],
          [
            120.97794429426924,
            12.50759739880186
          ],
          [
            120.97764440781263,
            12.507315801314162
          ],
          [
            120.97727193050677,
            12.507000485939743
          ],
          [
            120.97683976266724,
            12.50659218874873
          ],
          [
            120.97654861313987,
            12.50632986094488
          ],
          [
            120.97572982769543,
            12.505597410107768
          ],
          [
            120.97546512856188,
            12.505361468841697
          ],
          [
            120.97497476705881,
            12.504896862975146
          ],
          [
            120.97446520265291,
            12.504388464491488
          ],
          [
            120.97385854243296,
            12.503799023257121
          ],
          [
            120.97343098704266,
            12.503256322590387
          ],
          [
            120.97339568259927,
            12.503226376574112
          ],
          [
            120.97336736282375,
            12.50321219621599
          ]
        ]
      }
    }
  ]
}