{
"type": "FeatureCollection",
"name": "Mag Asawang Tubig RIS",
"crs": { "type": "name", "properties": { "name": "urn:ogc:def:crs:OGC:1.3:CRS84" } },
"features": [
{"type":"Feature","properties":{"id":390,"canal_id":null,"canal_type":null,"remarks":"MAPALO NORTH MAIN CANAL","canal_leng":null,"canal_widt":null,"station_no":null,"station__1":null,"station__2":null,"canal":null,"canaltype":null},"geometry":{"type":"LineString","coordinates":[[121.252326076757299,13.242490563003107],[121.252181464571294,13.24256013777258],[121.252135826821103,13.24258437174946],[121.252031553836716,13.242726653865388],[121.251984722817312,13.242797769943236],[121.251931612957506,13.242967013006972],[121.251866678441104,13.243179017776397],[121.251864768542504,13.243431739636177],[121.251863221568684,13.24368690577494],[121.251922368831202,13.244809694236652],[121.252000419718797,13.245033497500508],[121.252061350774497,13.245166597063237],[121.252189075605017,13.245418515472208],[121.252292468371607,13.245580871346629],[121.252426302821803,13.245794275604778],[121.252599855687507,13.246056514315928],[121.252728429248108,13.246261974909386],[121.252855524671602,13.246459020224068],[121.252945898448516,13.246606663100097],[121.253051459050283,13.24678621144079],[121.25318388797001,13.246996358070207],[121.253339476897594,13.247264398286337],[121.253513503593908,13.247574290205666],[121.253630357445303,13.24778186301614],[121.253771341114401,13.248030386888502],[121.253843588780683,13.248152461570019],[121.253946529648701,13.24831112697707],[121.254025627819615,13.248439836482651],[121.254163680555919,13.248644377568329],[121.2545100114625,13.249258016836269],[121.254513317462312,13.249261443291019],[121.254580029324003,13.249543782198627],[121.254623255238599,13.249729639447759],[121.254680793942697,13.249995077263058],[121.254752104119603,13.250288585732276],[121.254822986296418,13.250605535325253],[121.254873795864285,13.250835845782058],[121.254957196879616,13.251202119259769],[121.255020825509391,13.251472326935666],[121.255072258224217,13.251702313432979],[121.255137590753293,13.251985721858848],[121.25519184343888,13.25222254449894],[121.255268799340499,13.25256781378754],[121.255325358355293,13.252807693698699],[121.255389315818221,13.253096272793311],[121.255457206183792,13.253373932323646],[121.255512835454184,13.25360698490304],[121.255574939930113,13.253840317492957],[121.255654330265116,13.254172894776698],[121.25572691118218,13.254451877446252],[121.255787814474203,13.254698808530538],[121.25585179677482,13.25495440659388],[121.255916655615081,13.255209082656888],[121.256014569369015,13.255598795957079],[121.256066934706709,13.255802240445277],[121.256138671651001,13.25608700646333],[121.256212085185197,13.256384713887956],[121.256311741356114,13.256790380448749],[121.2564291283269,13.257253044197501],[121.256495305777705,13.257518828497906],[121.256566460031209,13.25781723723882],[121.256673375480702,13.258272390128129],[121.256732124085588,13.258522741210767],[121.25679392024351,13.258768175987841],[121.256855435910211,13.258997832063407],[121.256914548711507,13.259220452760829],[121.256997823223301,13.259541357248958],[121.257092114306815,13.259901251840381],[121.257377844311705,13.260479374156796],[121.257514554339181,13.260764465211929],[121.257701126588088,13.261149116633389],[121.258144500245308,13.262037074294748],[121.258381820797396,13.262530963729738],[121.258602347627104,13.262974700905419],[121.259227542222803,13.264290696353836],[121.260025511073707,13.26591641857957],[121.260354844590097,13.266685242071871],[121.260687780482911,13.268457179610897],[121.260608115511005,13.26911972058744],[121.261820821440907,13.269989897130449],[121.262518569297399,13.270546254128309],[121.263072851028298,13.27150281560963],[121.263386581004895,13.271847132764043],[121.264102723397386,13.272268810142512],[121.264557580646795,13.27282058923112],[121.264669297309879,13.273268063043609],[121.264702423494811,13.273461561638438],[121.264409153825312,13.274190650637468],[121.264207443962619,13.27476143417446],[121.263937163716008,13.275531349898307],[121.264359607855909,13.276850256314532],[121.264879629849105,13.278231248260914],[121.265367835949291,13.279448056110848],[121.266457523969109,13.281964522848472],[121.267236934427402,13.283636728498118],[121.267978500954015,13.285423894075889],[121.268574300644801,13.286815447727726],[121.26945267406488,13.28888539765301],[121.270499376057899,13.291177130391],[121.271121822767512,13.292660781737577],[121.271696295000694,13.293649984101027],[121.271986615097404,13.294079745357948],[121.273410034037525,13.296559172185201],[121.273959967731841,13.297423692066893],[121.275489321912019,13.302794786200836]]}},
{"type":"Feature","properties":{"id":386,"canal_id":null,"canal_type":null,"remarks":"MAPALO LATERAL AN1-1","canal_leng":null,"canal_widt":null,"station_no":null,"station__1":null,"station__2":null,"canal":null,"canaltype":null},"geometry":{"type":"LineString","coordinates":[[121.278629754493508,13.265751102452864],[121.278631619969417,13.266236137316156],[121.278714855347403,13.266364757621583],[121.278733245129999,13.26680242779886],[121.278741181984415,13.267397941843612],[121.278790415424297,13.268234455503002],[121.278834464764998,13.268739618935358],[121.278864958101593,13.269119347791122],[121.279192478117594,13.269392017724797],[121.279571547976317,13.269812378777537],[121.279964038074013,13.270276895467809],[121.280443427792093,13.270855099572548],[121.280851284876505,13.271280216932167],[121.281262842607802,13.271757646063319],[121.281759844921083,13.27214620930658],[121.282386571249006,13.272579200230687],[121.282980737582193,13.273015020983058],[121.283692012449919,13.273490815109771],[121.284237787634112,13.274081927669039],[121.284981412835506,13.274767246082469],[121.285691943640018,13.275453158904829],[121.286338952590214,13.276110290340029],[121.286968059008814,13.276678500663888],[121.287178274303912,13.276814862465381],[121.288286398183587,13.277214764433518],[121.2891772422835,13.277523987564686],[121.290072649809801,13.277873453332369],[121.290753489087621,13.278200168161989],[121.291670030288699,13.278781448544201],[121.292430507233107,13.279247079499278],[121.292798156190102,13.279462419169437],[121.293840775703501,13.279566564993809],[121.294860155023201,13.27964706308887],[121.295614713066115,13.27972401722031],[121.2960692524683,13.27983617078567],[121.296438602616618,13.280067170626749],[121.297184774562481,13.280534875480146],[121.29795275688268,13.2810293301602],[121.29823603154739,13.281483857031391],[121.298694002757202,13.282378121176158],[121.299158473950911,13.28329382693277],[121.299593836974395,13.284153075556198],[121.300026882545211,13.284961332091129],[121.300588939289185,13.285976050449101],[121.30116924228011,13.28692586296027],[121.301553507344693,13.287570846203767],[121.30195582737278,13.287963468289913],[121.302293183399684,13.288254955661941],[121.302728142778776,13.289034519702049]]}},
{"type":"Feature","properties":{"id":387,"canal_id":null,"canal_type":null,"remarks":"MAPALO LATERAL AN1-2","canal_leng":null,"canal_widt":null,"station_no":null,"station__1":null,"station__2":null,"canal":null,"canaltype":null},"geometry":{"type":"LineString","coordinates":[[121.304985698256516,13.280039287233789],[121.304808886535312,13.28054291709144],[121.304544680814203,13.281283600095296],[121.30431925777151,13.281866415451152],[121.304080848409484,13.282498354960778],[121.304051054505194,13.282582131529422],[121.304085386734315,13.282653726237498],[121.3039868828306,13.282985455742418],[121.303922408188598,13.283397647574892],[121.303804812693798,13.283912112481769],[121.303759729955502,13.284318782748256],[121.303787629983603,13.28441147866114],[121.303747181897421,13.284982643237049],[121.303692855123103,13.285413278625951]]}},
{"type":"Feature","properties":{"id":388,"canal_id":null,"canal_type":null,"remarks":"MAPALO LATERAL AS","canal_leng":null,"canal_widt":null,"station_no":null,"station__1":null,"station__2":null,"canal":null,"canaltype":null},"geometry":{"type":"LineString","coordinates":[[121.252856228592805,13.242310380190348],[121.252940216257599,13.242349835133719],[121.253119974342496,13.242656731523001],[121.253375175805218,13.24302676709334],[121.253770537436097,13.243577111575469],[121.254172680185107,13.243932877449138],[121.254728992885219,13.244521100356652],[121.255521635640818,13.245305285785927],[121.256815327479387,13.24648382753481],[121.257936333062688,13.24771281704693],[121.258835284388795,13.24870093529178],[121.258979868846012,13.248829205264906],[121.259285243068987,13.248911352864392],[121.260721631347806,13.249310773828938],[121.262723192509711,13.249769828475497],[121.26287029227548,13.249827600001916],[121.265824471170106,13.249572921804823]]}},
{"type":"Feature","properties":{"id":389,"canal_id":null,"canal_type":null,"remarks":"MAPALO LATERAL BS","canal_leng":null,"canal_widt":null,"station_no":null,"station__1":null,"station__2":null,"canal":null,"canaltype":null},"geometry":{"type":"LineString","coordinates":[[121.273457268677305,13.242556343326349],[121.273493799535245,13.242553621172958],[121.273748654025496,13.242534630147707],[121.273869993215996,13.24251086863306],[121.274670241543902,13.242588442767302],[121.275742330254801,13.24269728644329],[121.277113252877712,13.242814264748279],[121.277649669096903,13.242397107631437],[121.278024961152383,13.242158278343638],[121.278175689413999,13.24209903457667],[121.278669288751303,13.242009519307381],[121.278881819857602,13.24197271099313],[121.280245716883201,13.241390566359858],[121.280707208173908,13.241201228987299],[121.281687111565205,13.240751426813118],[121.282205147262715,13.24054543976629],[121.282715893907607,13.240349233907416],[121.283529015224602,13.240064472292991],[121.284093366521518,13.240212973918819],[121.285126235924395,13.24061125851753],[121.286370972195101,13.241056915029091],[121.286937166086901,13.241224462680288],[121.287849878486199,13.241389514301957],[121.288755502282513,13.241558944437136],[121.289071915917688,13.241622423102131],[121.289824550957618,13.241797502735468],[121.2901038657659,13.241891738694161],[121.290536779657302,13.241870256899398],[121.291308815583704,13.24191979230868],[121.292687003123987,13.242120107868608],[121.293447394146497,13.242299274954789],[121.2943939157133,13.242472556741449],[121.295162523646695,13.24260032144252],[121.295654541816702,13.242687330965651],[121.296924529331818,13.242606272576937],[121.297747395052298,13.242543025479669],[121.298249032583698,13.242519625418199],[121.298472962500981,13.242539228089562],[121.299458966717012,13.242977771266272],[121.300546704595405,13.243484789313159],[121.301007646283495,13.243817914991951],[121.302145877788604,13.244621417652127],[121.303330130366206,13.245461187137948],[121.3036890479665,13.245741421690671],[121.30450191850521,13.246314228526558],[121.30512328674989,13.246489578591834]]}},
{"type":"Feature","properties":{"id":408,"canal_id":null,"canal_type":null,"remarks":"MC3 LATERAL B","canal_leng":null,"canal_widt":null,"station_no":null,"station__1":null,"station__2":null,"canal":null,"canaltype":null},"geometry":{"type":"LineString","coordinates":[[121.305049058561693,13.190104236490237],[121.305110382277448,13.190077786562551],[121.305414472607467,13.190006461617317],[121.305761973592283,13.189907534816744],[121.306445141396011,13.189744203958057],[121.306618813386606,13.189706101367216],[121.306770341833968,13.189668885213264],[121.30715009302638,13.189632144172556],[121.307555976716316,13.189627595416248],[121.307988227543063,13.189621154332636],[121.308446703449761,13.18963347806838],[121.308886375864887,13.189620887000286],[121.309285899662157,13.189621458069768],[121.309685416441837,13.189623061380839],[121.311211364819485,13.189693033573738],[121.312311635992756,13.189733337212312]]}},
{"type":"Feature","properties":{"id":385,"canal_id":null,"canal_type":null,"remarks":"MAPALO LATERAL AN1","canal_leng":null,"canal_widt":null,"station_no":null,"station__1":null,"station__2":null,"canal":null,"canaltype":null},"geometry":{"type":"LineString","coordinates":[[121.267061803946717,13.263779217482769],[121.267063744651367,13.26377844996825],[121.267169565436603,13.263736599679778],[121.267290797303218,13.26368742492871],[121.267378347179701,13.263556307787725],[121.267509678548905,13.263464521178721],[121.267610698644788,13.263333403340479],[121.267768971369819,13.263248170874776],[121.267846565000013,13.263202254364096],[121.268479649712418,13.263034571045198],[121.268890110457107,13.262944517439593],[121.26937372212349,13.26286105580844],[121.269528861595404,13.262782741126211],[121.269741412582704,13.2627437997788],[121.269913862021696,13.262715924962871],[121.270795410994694,13.262463272564011],[121.272060635272794,13.262209679745197],[121.272944238064284,13.261992025390819],[121.273226200119396,13.261919568752056],[121.274409229510198,13.262482850638918],[121.274767307016205,13.26238510008721],[121.276082059727145,13.261868390715325],[121.276332761520507,13.261857208383788],[121.276717522141894,13.26267921803043],[121.277109913094108,13.263874217766521],[121.277327032460306,13.264349567976202],[121.277716019018683,13.264956951797199],[121.278156782743594,13.265589026953648],[121.278629754493508,13.265751102452864],[121.2786892810051,13.26577150061369],[121.280077279348305,13.265468902016799],[121.280982133916012,13.266183780942653],[121.281913839317411,13.267264256434681],[121.282848582200415,13.268799812497067],[121.285307996889713,13.268768859941048],[121.287384337217318,13.268650645215718],[121.287918538407808,13.268670301026269],[121.290205239231796,13.269713399645498],[121.291328309454713,13.270461767959517],[121.292737372049402,13.270391773894911],[121.293439164878961,13.270332750503425],[121.294479633389514,13.270501689165334],[121.295416529819022,13.270786970746656],[121.296544322820353,13.271390656855067],[121.296831289232998,13.271685656242349],[121.297997507345798,13.273593333967092],[121.299420716299196,13.27596512012372],[121.300613298023279,13.278063467056597],[121.300948796937618,13.278503089189359],[121.302249883589411,13.279018523064348],[121.304073731840191,13.27972939965381],[121.305053109650103,13.280057422666443],[121.306329051106914,13.28114996283897],[121.307274102907613,13.281499639594918],[121.308981275075382,13.282246206188329],[121.309969413460195,13.282796648095863],[121.311210309008203,13.283530435125451],[121.311751064464104,13.284104761839069],[121.31208005402388,13.284222180665317],[121.312213388042721,13.284232138684509],[121.312626575924781,13.283962665708234],[121.313185842909562,13.283467316107398],[121.315632075723826,13.282989223018626],[121.318231799818506,13.282687016662138]]}},
{"type":"Feature","properties":{"id":398,"canal_id":null,"canal_type":null,"remarks":"BAGONG BUHAY LATERAL B","canal_leng":null,"canal_widt":null,"station_no":null,"station__1":null,"station__2":null,"canal":null,"canaltype":null},"geometry":{"type":"LineString","coordinates":[[121.212684850032673,13.197382244893003],[121.212663740719336,13.197942115285731],[121.212708602871686,13.198162995514597],[121.212652366717819,13.198665629681596],[121.212649253809062,13.199082285080223],[121.212673030305211,13.199362712859221],[121.212845346335712,13.199381115997591],[121.21303158891341,13.19947246407216],[121.213277217601359,13.199633533133889],[121.213446097861777,13.199698453601096],[121.213613170442244,13.199727949199078],[121.213821755465588,13.19987105323859],[121.214035996269558,13.199946407599096],[121.214430718712109,13.199953109030799],[121.214615237204384,13.200017561179189],[121.215003034798713,13.19997942992417],[121.215287557315293,13.199933540920719],[121.215441633601785,13.199979841593033],[121.215614569892708,13.20002756556898],[121.215658255553805,13.200031127947867]]}},
{"type":"Feature","properties":{"id":402,"canal_id":null,"canal_type":null,"remarks":"MC2 LATERAL A","canal_leng":null,"canal_widt":null,"station_no":null,"station__1":null,"station__2":null,"canal":null,"canaltype":null},"geometry":{"type":"LineString","coordinates":[[121.297413122043011,13.198401490747079],[121.297417617929284,13.198401432115123],[121.2974126809072,13.199076873729208],[121.297371635856521,13.199538758037539],[121.29735137450082,13.199794303877109],[121.297487020323103,13.200718868594132],[121.298539186107007,13.200756810077729],[121.299332619825293,13.200795077565294],[121.299829893448702,13.2007732300432],[121.30144885995459,13.2006948562818],[121.301749025707011,13.200722671000776],[121.301825246269999,13.200863121191926],[121.302062801103503,13.200892808843918],[121.302426574587997,13.200919699734539],[121.302443773826596,13.201699932061956],[121.303169688869104,13.201809633567491],[121.303162895465391,13.202262874608738],[121.303353679413306,13.202271839898668],[121.303420197515493,13.203016157904388],[121.305289831497404,13.202965922533147],[121.305297460245313,13.203965590853771],[121.305350072115715,13.2049350888918],[121.305394893153888,13.20580100568557],[121.305392757415007,13.20643806178861],[121.307212297437104,13.206760782724135],[121.307787997166912,13.206863875341538],[121.308946814268097,13.207197589108896],[121.309455635171702,13.207306426219057],[121.310028796520911,13.207311258324868]]}},
{"type":"Feature","properties":{"id":403,"canal_id":null,"canal_type":null,"remarks":"MC2 LATERAL B","canal_leng":null,"canal_widt":null,"station_no":null,"station__1":null,"station__2":null,"canal":null,"canaltype":null},"geometry":{"type":"LineString","coordinates":[[121.297538424616519,13.197693411895088],[121.297758103665402,13.196591572658278],[121.297776447202594,13.196182191363111],[121.297743264816106,13.195232295336247],[121.297735887113305,13.194724896291181],[121.297715792011005,13.194340904706047],[121.297716785800802,13.194081321108326],[121.297620112551087,13.193780377953168],[121.297605019691304,13.193656501661007],[121.297496882396104,13.19326686020151],[121.297487829937808,13.192930714072501],[121.297517248607008,13.192358402980418],[121.297541016947804,13.191805474346218],[121.297547329520683,13.191475107928136]]}},
{"type":"Feature","properties":{"id":404,"canal_id":null,"canal_type":null,"remarks":"MC2 LATERAL C","canal_leng":null,"canal_widt":null,"station_no":null,"station__1":null,"station__2":null,"canal":null,"canaltype":null},"geometry":{"type":"LineString","coordinates":[[121.309370552185911,13.198418461977772],[121.309528604782088,13.198433600888549],[121.310044152653091,13.198477077812079],[121.310503247523599,13.198524145526509],[121.310610518203092,13.198573642035569],[121.311000191559515,13.198633192402532],[121.311811212073607,13.198706718553797],[121.312112188317002,13.198781020321745],[121.312502493588994,13.198769361482158],[121.312998393450499,13.198832914829119],[121.313469274528018,13.198883178307238],[121.313904709036422,13.198933511191678],[121.313953459069609,13.198945803434587],[121.314283679525715,13.198945603640938],[121.314764539673817,13.19900149508738],[121.315009410546807,13.199025318834019],[121.315213191424604,13.19904522284204],[121.315514061682009,13.199085173054756],[121.315810290676296,13.199109196493858]]}},
{"type":"Feature","properties":{"id":391,"canal_id":null,"canal_type":null,"remarks":"MAPALO SOUTH MAIN CANAL","canal_leng":null,"canal_widt":null,"station_no":null,"station__1":null,"station__2":null,"canal":null,"canaltype":null},"geometry":{"type":"LineString","coordinates":[[121.252326076757299,13.242490563003107],[121.252358382459406,13.242476483733908],[121.252443140734684,13.24244116210207],[121.25257928759612,13.242419252379708],[121.252655344771597,13.242371335443826],[121.252775687729397,13.242296695323798],[121.2528762333922,13.242269666306139],[121.252996932101297,13.242214682675522],[121.2531906597861,13.242117713184149],[121.253349957735907,13.242029623690119],[121.253471359409389,13.241979247571148],[121.253650465258204,13.241870820950719],[121.253800013500111,13.241820296548109],[121.254056260043299,13.24171048823041],[121.254225661040408,13.241607425451599],[121.254339781892298,13.241536635217921],[121.2544018599949,13.241457280592478],[121.254467531131993,13.241399460377126],[121.254688280328693,13.241269151115517],[121.254878652220697,13.241157631431619],[121.254965564508794,13.241099066101828],[121.255209807518199,13.240991128617107],[121.255324788329816,13.240924849063106],[121.255432775592496,13.240842915098129],[121.25560337057702,13.240604256011522],[121.255666677123102,13.24052937846859],[121.255791834083297,13.240375104547981],[121.255895937729321,13.240244154060608],[121.256042047017004,13.240055542477089],[121.25614026667462,13.239983812944837],[121.256224837273706,13.239928285417486],[121.256374227669397,13.23967434127179],[121.256435971892699,13.239587398056889],[121.256509887104414,13.23950725184854],[121.256623201836703,13.239391387128828],[121.256712590523406,13.239249555051128],[121.256815778917101,13.23912675297081],[121.256976942590811,13.238912799659229],[121.257100132424,13.23874969701447],[121.257370721515898,13.238401652856959],[121.257542643120303,13.23816746729101],[121.257654753943697,13.238029528643327],[121.257774136913895,13.237872111851921],[121.257909075228199,13.237722523401171],[121.258022060391895,13.23758920117228],[121.258241577402814,13.237353646959029],[121.258409725448203,13.237188197655392],[121.258564719468879,13.237014046345568],[121.258712424415009,13.236891650829618],[121.258829607909206,13.236807356325849],[121.259036505475706,13.236791437735819],[121.2591838162691,13.236790403891108],[121.259390224832416,13.236837097943031],[121.259647844733308,13.236955079735489],[121.259803256458511,13.23704058531456],[121.260282244824779,13.237276658244108],[121.260678362237215,13.237497433204409],[121.261047981268092,13.237684568138528],[121.261317853893217,13.23782164324399],[121.261544522838705,13.237915167572949],[121.261767599442706,13.238002378192011],[121.262182918818709,13.238112367492381],[121.262515103585613,13.238200548444201],[121.263115267143093,13.238263894224207],[121.264103249777207,13.238366161612658],[121.265002763013996,13.238410484327717],[121.266202201492703,13.238464583115569],[121.267116170946508,13.238464842933709],[121.267265308459017,13.238444510141189],[121.2674949771624,13.238402134258019],[121.267654557958195,13.238454387936859],[121.268115445544893,13.238611417228869],[121.2684720160441,13.238704234746848],[121.269205874792107,13.238869533045046],[121.269469681883706,13.238952371028127],[121.269581391430421,13.23898229985638],[121.269876259321293,13.23901005033564],[121.270441427258007,13.238993934821501],[121.270832350030602,13.238957987970398],[121.271048050652993,13.238929584242449],[121.271317448513614,13.238909494955891],[121.2714629415442,13.238922805799477],[121.271525073017003,13.238968547484061],[121.271616830298399,13.239081322592259],[121.272012005393279,13.239702746107458],[121.272147185058216,13.239839544250534],[121.272212127398802,13.239930072594408],[121.27237445951701,13.239944461754831],[121.272545839115381,13.23993614659147],[121.2726640482487,13.23994970437035],[121.27285065777231,13.239965148455319],[121.27301540844978,13.240102498580088],[121.273055607970718,13.240187566086259],[121.273128269203099,13.240377263621417],[121.273156776269204,13.24093701977581],[121.273300966819392,13.241708069367592],[121.273494623981108,13.242534868587947],[121.273493799535245,13.242553621172958],[121.273486550933299,13.242718495277042],[121.273732369517319,13.24375833997931],[121.273759507179506,13.24408368780658],[121.273886930724302,13.244517058925398],[121.274239085394385,13.246185753748506],[121.274380936776311,13.246675295903039],[121.274448489279806,13.246909876920636],[121.274544096096307,13.247097064385111],[121.27471193760762,13.247228896765321],[121.274931562483985,13.247313985588269],[121.275815056594496,13.247597162869917],[121.276672697390595,13.24786295841937],[121.276966331977107,13.247937371430901],[121.277595144067519,13.248128382917082],[121.278077634757111,13.248258358188828],[121.278693958787883,13.24841168457286],[121.278873687840715,13.248451256718509],[121.279221470484501,13.24852009193852],[121.279494558688697,13.248678177935238],[121.279638763215402,13.24888378447768],[121.2799930163319,13.249228050064209],[121.280273911281895,13.24942570006276],[121.280676715267404,13.249793315158348],[121.281307492647201,13.250418772514667],[121.281966441498597,13.251061329061782],[121.282581745363004,13.25169786664917],[121.283019959853206,13.25210567184147],[121.283304935673314,13.25229118552598],[121.283669210315793,13.252594613712411],[121.28402366818338,13.252817074776436],[121.284233369289197,13.252916408381136],[121.284436342127194,13.253035830397597],[121.284814031003506,13.253330454619981],[121.285411498573794,13.25372908105175],[121.286280718088193,13.254304378261899],[121.286639393746697,13.254533161761369],[121.287442404273506,13.255105542330949],[121.288268121051004,13.255543015392419],[121.288594645661917,13.255774043128879],[121.288983524309515,13.255975601365421],[121.289370407830916,13.256192026073206],[121.289996359784496,13.256507836277407],[121.290354186858721,13.256779975645651],[121.290766772859001,13.257026426794308],[121.291430821492995,13.257367142515802],[121.292036832912416,13.257739635711323],[121.292225641830115,13.257863125685928],[121.292670126942582,13.258162556523192],[121.292844355545498,13.258345337099509],[121.293282718486608,13.258665490902331],[121.293665996179115,13.258872282155121],[121.29407631417989,13.259153832751478],[121.294635274442498,13.259529070025311],[121.294844560572585,13.259675166200621],[121.295113208516099,13.259910898747417],[121.295508036621982,13.260200797265469],[121.295905301360108,13.260456387301868],[121.29633458376361,13.260711517761113],[121.297107845650885,13.261166544005039],[121.297387865876814,13.261315796346247],[121.298315168438933,13.261784878315435],[121.299572516587148,13.262428240479942],[121.300149524539918,13.26270837450032],[121.301368173399752,13.263225445787755],[121.303149217366865,13.263991036162965],[121.303976875161965,13.264520034147735],[121.304637575977893,13.264863728619039],[121.306106959048464,13.265619956430195],[121.307408985469976,13.266249039894147],[121.308700854552256,13.266916827041452],[121.310406909097708,13.267800629055166]]}},
{"type":"Feature","properties":{"id":393,"canal_id":null,"canal_type":null,"remarks":"MAPALO MAIN CANAL 1 LATERAL 1","canal_leng":null,"canal_widt":null,"station_no":null,"station__1":null,"station__2":null,"canal":null,"canaltype":null},"geometry":{"type":"LineString","coordinates":[[121.253576760468221,13.24191615096051],[121.253597447010307,13.24196766000404],[121.253717529506986,13.242033706303275],[121.253846347983398,13.242095785682357],[121.254010260222898,13.24218878139123],[121.254321348916903,13.242389382378137],[121.254496376870321,13.242504554145578],[121.254635873945816,13.242606055213914],[121.254778033928716,13.242700953070729],[121.254918216355094,13.242819604307368],[121.255301602043417,13.243047705398231],[121.25542610533391,13.24310182466423],[121.2555255778054,13.24311460505915],[121.255589608782799,13.243136873441911],[121.255929096155896,13.24326208129785],[121.256236449091105,13.243360672344609],[121.256615988520409,13.243498026436516],[121.256872443607904,13.243584971646708],[121.257172424067306,13.243695788680558],[121.257298911317605,13.24375003927018],[121.257389436522303,13.243766136105879],[121.257641101879813,13.243793259266448],[121.257773983534406,13.243826202160466],[121.257946461360206,13.243883804217639],[121.258265302324119,13.24397753932986],[121.258688564782517,13.244100393825782],[121.258799060306018,13.244109969528079],[121.258984954326181,13.244126664907569],[121.259328503158102,13.244181935034348],[121.259551183209211,13.244206971223081],[121.259893714061491,13.244259949151578],[121.260030664584519,13.244277122687549],[121.260164027594385,13.244336390641708],[121.260380212863296,13.244529614390707],[121.260530387930018,13.244672379830732],[121.26059519879162,13.24473431811349],[121.260675018320214,13.244757616013901]]}},
{"type":"Feature","properties":{"id":394,"canal_id":null,"canal_type":null,"remarks":"MAPALO MAIN CANAL 1 LATERAL 2","canal_leng":null,"canal_widt":null,"station_no":null,"station__1":null,"station__2":null,"canal":null,"canaltype":null},"geometry":{"type":"LineString","coordinates":[[121.2544018599949,13.241457280592478],[121.254501087965878,13.241485308973944],[121.254513839383179,13.241493718295844],[121.255047571129097,13.2416463046555],[121.255433849467295,13.24177035701547],[121.255931555960501,13.241915987523797],[121.256414106161401,13.24205042411778],[121.256875617981692,13.24219395108385],[121.257257336694906,13.242344585403632],[121.257979544694805,13.242919993484488],[121.258668724158809,13.243447588531428],[121.258875459367914,13.243502928960318],[121.259488674305601,13.243581031426039],[121.260410225653587,13.243683516987268],[121.261095930271708,13.24375632958982],[121.26186734660989,13.243940037218509],[121.262626641458681,13.244108534514718],[121.263053981836904,13.244211318017291],[121.263321967978911,13.244370341407912],[121.263806057777018,13.244844094151111],[121.264235752472004,13.245321075543092]]}},
{"type":"Feature","properties":{"id":395,"canal_id":null,"canal_type":null,"remarks":"ANTONINO MAIN CANAL","canal_leng":null,"canal_widt":null,"station_no":null,"station__1":null,"station__2":null,"canal":null,"canaltype":null},"geometry":{"type":"LineString","coordinates":[[121.208118942519121,13.188968201542336],[121.208318236091898,13.189090476237096],[121.208516020447107,13.189158418733506],[121.208806080812508,13.189202095302996],[121.2089855044579,13.189264387411139],[121.209187507312706,13.189288674467532],[121.209429498592499,13.189347138726422],[121.209581732541196,13.189374483347709],[121.209773143941106,13.189423810127847],[121.209938927218616,13.189462289417502],[121.210004676508319,13.189507057080982],[121.210089373823095,13.189269456505849],[121.210191257155415,13.189104419808888],[121.210275201693719,13.188854528690729],[121.210395298634907,13.188773844242098],[121.210661151624407,13.188806184308319],[121.2108331574738,13.188745873206242],[121.210890109348895,13.188656175420251],[121.21096478044818,13.188455142041031],[121.211034078342109,13.18836504601733],[121.211166551199,13.188283253792788],[121.211625748008203,13.18840120771652],[121.211923780259596,13.188541699781728],[121.212257856145683,13.188655519971558],[121.212513835092594,13.188725353299048],[121.212519746690816,13.188627096628187],[121.212777243121707,13.188709558534811],[121.213139154760583,13.188846704761058],[121.213473701936692,13.188948802627051],[121.213874461403293,13.189107564028719],[121.214173296146896,13.189259845736791],[121.214588087134899,13.189258256050437],[121.214612931529217,13.188865295285026],[121.214585852024598,13.188646625452938],[121.214604010798297,13.188351654000719],[121.214539364302382,13.188135345726819],[121.214690261207181,13.188138053823659],[121.214979025139897,13.188144168394899],[121.215231925559394,13.188165010119199],[121.215357084639294,13.188157132674821],[121.215544820365821,13.188145317040631],[121.215647818566694,13.188175656874897],[121.215841762227186,13.188237214203237],[121.216115156972918,13.188171288015301],[121.216346346994897,13.188230421032317],[121.216495784053905,13.188220831646998],[121.216586632772021,13.188092412626339],[121.21690253354042,13.188121446354049],[121.21722723835849,13.188112970170467],[121.217518277778609,13.188179877252709],[121.21750378739118,13.1884993700897]]}},
{"type":"Feature","properties":{"id":397,"canal_id":null,"canal_type":null,"remarks":"BAGONG BUHAY LATERAL A","canal_leng":null,"canal_widt":null,"station_no":null,"station__1":null,"station__2":null,"canal":null,"canaltype":null},"geometry":{"type":"LineString","coordinates":[[121.207919514043297,13.197352469674396],[121.207890753111201,13.197922904601217],[121.207871991189919,13.197980972843171],[121.207898034961602,13.198602101563319],[121.207914293805715,13.199204090734829],[121.20791927929551,13.199532373050031],[121.20790591354961,13.199756567661622],[121.207955000357217,13.200685290193521],[121.207926536538494,13.201119390443479],[121.207915939137919,13.201878189279219],[121.207904346583007,13.20236201772923],[121.207895757817695,13.202708179658098],[121.207884706763807,13.203255054299728],[121.207890681564905,13.203754226613521],[121.207879530661714,13.204142003111262],[121.208727086745498,13.204136540107019],[121.2092145896261,13.204136269861991],[121.209576972722317,13.204139284337847],[121.210092407870903,13.20411329665149],[121.210516254889299,13.204121562037898]]}},
{"type":"Feature","properties":{"id":400,"canal_id":null,"canal_type":null,"remarks":"BAGONG BUHAY MAIN CANAL 2","canal_leng":null,"canal_widt":null,"station_no":null,"station__1":null,"station__2":null,"canal":null,"canaltype":null},"geometry":{"type":"LineString","coordinates":[[121.201127947081503,13.189705109731179],[121.201302815713902,13.18983282019045],[121.201472712991418,13.190187247372688],[121.20177121092172,13.190273506969117],[121.201873737857412,13.190386928550168],[121.201987126880098,13.190844533045999],[121.202141494849997,13.190945796779147],[121.2024346727721,13.191242114255639],[121.202566888609695,13.191258677064651],[121.202758023657196,13.191207072614768],[121.202878917267995,13.191187145045999],[121.203162526427121,13.191187548740849],[121.203317217222391,13.191161979986029],[121.203462584392113,13.191043567534839],[121.203564456295183,13.190992997584949],[121.203771495911397,13.190911465420299]]}},
{"type":"Feature","properties":{"id":399,"canal_id":null,"canal_type":null,"remarks":"BAGONG BUHAY MAIN CANAL 1","canal_leng":null,"canal_widt":null,"station_no":null,"station__1":null,"station__2":null,"canal":null,"canaltype":null},"geometry":{"type":"LineString","coordinates":[[121.200763483538793,13.189805947801037],[121.200724084352416,13.18985356896183],[121.200894063673019,13.190309817855908],[121.201028493182591,13.190624452380769],[121.201106939299891,13.190911325797398],[121.201276502179311,13.191215589140468],[121.201406156729902,13.191350856753049],[121.20158601770936,13.191550290485107],[121.201947520316537,13.191709322584783],[121.202124530957136,13.191790832204575],[121.202658455485093,13.192769926381995],[121.202837901584672,13.193083485518139],[121.203001361123825,13.193512274304645],[121.203143990609306,13.193768854079119],[121.203282071384265,13.194004952703681],[121.203325661250403,13.194069000084991],[121.203338764986441,13.194496516263005],[121.203016194396781,13.194496831528111],[121.203075674811714,13.194929784675116],[121.203089822917292,13.195160466934828],[121.203009186169979,13.1954186332232],[121.202979186903505,13.195962341520069],[121.202983987394703,13.196457519629581],[121.202931351323997,13.196957084172359],[121.202969671957007,13.197114333427912],[121.202954642330496,13.197331549600531],[121.20341526387972,13.197293223013746],[121.204332878976615,13.197270959829172],[121.204443407849396,13.19724663825872],[121.205242791088693,13.197215354876301],[121.205451083308105,13.197226933089338],[121.206091920166003,13.197280561728402],[121.206516133725799,13.197265907700828],[121.206954987296697,13.197301319585689],[121.207251928478399,13.197283617397989],[121.207914167920805,13.197349668654597],[121.208265455195104,13.19730372374581],[121.208691719184898,13.197328223612308],[121.209202754307483,13.197354239164508],[121.209549709371416,13.197291491555836],[121.209906411557597,13.197326422608546],[121.210082871029442,13.197349903936164],[121.210360640135988,13.197350833775616],[121.21050014778767,13.197336632207415],[121.210583101119681,13.19739559537474],[121.210983412621999,13.197383648082912],[121.211157651179093,13.197403865637868],[121.211405412841799,13.19738406787755],[121.211725812247707,13.197370889412298],[121.212345368717479,13.197371509683169],[121.21274287262591,13.197374668900778],[121.213384389860607,13.197373114640472],[121.214072861944302,13.197321716865606],[121.215421335949856,13.197273880680918],[121.216369044445699,13.197358088069928],[121.216789305076603,13.197373644319699],[121.217622134475207,13.197389365786522]]}},
{"type":"Feature","properties":{"id":396,"canal_id":null,"canal_type":null,"remarks":"ANTONINO SUPPLY CANAL","canal_leng":null,"canal_widt":null,"station_no":null,"station__1":null,"station__2":null,"canal":null,"canaltype":null},"geometry":{"type":"LineString","coordinates":[[121.21886352370062,13.191488465470043],[121.2189626859154,13.191453590783333],[121.219047164786616,13.191433183439429],[121.219136693759793,13.191446359460809],[121.21931091011902,13.191401241908927],[121.219430436514799,13.191370113691228],[121.220125798411686,13.19164076650077],[121.221469200072207,13.192149094051258],[121.222676134480608,13.192617011374022],[121.223870118217917,13.193094427597901],[121.224497463036002,13.193328051021179],[121.224554929117517,13.193195207413629],[121.224994774198933,13.193380104829567],[121.225007536737195,13.193385469795466]]}},
{"type":"Feature","properties":{"id":401,"canal_id":null,"canal_type":null,"remarks":"MAIN CANAL 2 (URDANETA)","canal_leng":null,"canal_widt":null,"station_no":null,"station__1":null,"station__2":null,"canal":null,"canaltype":null},"geometry":{"type":"LineString","coordinates":[[121.282958352762606,13.18407088841005],[121.282907603247295,13.184544118337419],[121.282918477927396,13.184665903387407],[121.282983991040311,13.184748655656339],[121.283657227735603,13.18502810252196],[121.284707886992408,13.18546323827276],[121.285555012935404,13.185807552014538],[121.286301021165798,13.186166967101199],[121.286550302587912,13.186309143021779],[121.286653404252917,13.186477645785466],[121.2867084730442,13.186629754598741],[121.287204905703305,13.187810701109941],[121.287709447824881,13.189064858969619],[121.288227898217599,13.190217672554358],[121.288756352757517,13.19151295804345],[121.289298663811181,13.19279577504888],[121.28970997263599,13.193778261674963],[121.289963484794214,13.194400266676251],[121.290068119040981,13.19449231604629],[121.290245819088113,13.194530213220469],[121.291027786735597,13.194467535126408],[121.291111193454185,13.194485965073667],[121.2911555178556,13.19455611744351],[121.291204910861211,13.195839317000921],[121.291296160204411,13.197803611434381],[121.292662182416294,13.197776417401027],[121.294398227489808,13.197737967592067],[121.296116238803805,13.197706410408079],[121.297538424616519,13.197693411895088],[121.297413122043011,13.198401490747079],[121.297417617929284,13.198401432115123],[121.29893722167418,13.198381610055568],[121.301319321114107,13.19841109010461],[121.302209465492211,13.198378052081539],[121.303048579005605,13.198302875911779],[121.303778798550198,13.198305588726848],[121.305144225548901,13.198360359615769],[121.305791693958795,13.198400619379882],[121.307562493204102,13.198368834771991],[121.309370552185911,13.198418461977772],[121.30955097961791,13.19856815649997],[121.310134828141898,13.19933817164368],[121.311094790421009,13.199813427516577],[121.312297525285103,13.200525607546441],[121.312780696980781,13.201304245337409],[121.3131140359028,13.201835064854389],[121.313386329284114,13.20244385521015],[121.313701242334204,13.203141086826331],[121.313788231256709,13.203488554568716],[121.313859600515215,13.203522835866178],[121.313869368614604,13.204082009402569],[121.313785319312416,13.204487178425092],[121.313954820073405,13.205253009965899],[121.314012502647003,13.205553731802848],[121.314039249041301,13.205756890128256]]}},
{"type":"Feature","properties":{"id":406,"canal_id":null,"canal_type":null,"remarks":"MAIN CANAL 3 (SAN NARCISO)","canal_leng":null,"canal_widt":null,"station_no":null,"station__1":null,"station__2":null,"canal":null,"canaltype":null},"geometry":{"type":"LineString","coordinates":[[121.282973166669507,13.18366372647589],[121.283008259400702,13.183471501886091],[121.283087659204014,13.183398725480581],[121.284529392433413,13.182966841146689],[121.286003184734994,13.18254555332757],[121.287436725487709,13.182153556799706],[121.2889986913451,13.181735450672848],[121.289842020478801,13.18150911577383],[121.289910304768796,13.181510271019208],[121.291242526177015,13.182286672235531],[121.292166342746299,13.182834930695636],[121.293143781586096,13.183414399246159],[121.293260639602707,13.183454971483981],[121.293694485909,13.183498501690547],[121.293925585989498,13.183529875492161],[121.294177653149006,13.183551972725541],[121.294562096779302,13.183589683188336],[121.294626360219993,13.183599313394986],[121.294961179915617,13.183667635542671],[121.295441879692902,13.18379344233794],[121.295778906273185,13.183794036978369],[121.296376779231707,13.183787771789399],[121.297323015950283,13.183882783430398],[121.298049345650909,13.183980392109708],[121.298630572518107,13.184041902823729],[121.299446846484202,13.184166653294088],[121.299617048105503,13.184225882726816],[121.299727058589937,13.184355252716417],[121.299730215039204,13.18435896463113],[121.299785139763799,13.184549122181851],[121.299481965234406,13.184566085610362],[121.299475514663897,13.185259134557867],[121.299465544930698,13.186272030376861],[121.299412242851204,13.187009873023488],[121.299453070619592,13.18715733838482],[121.299703942674512,13.18722477686509],[121.300111527577499,13.187326982216142],[121.300271274491294,13.187353196506129],[121.300926637740204,13.187716162987281],[121.301351936570114,13.187992998514728],[121.301505358102915,13.188089043491619],[121.302152335783219,13.188365009053468],[121.302535133336221,13.188540232573118],[121.302947029041121,13.188710023732337],[121.303346500833612,13.188937127212826],[121.303467586747416,13.189048809084792],[121.303613417393805,13.189334853440659],[121.303736570305105,13.189460686913627],[121.303953640983721,13.189526457234219],[121.304143863517396,13.189564027474617],[121.304408177609616,13.189631719659328],[121.304749926188705,13.189808573749369],[121.304914348008211,13.18993064572595],[121.305018249513608,13.190034608554678],[121.305168813354101,13.190309961588619],[121.305259836705815,13.190506325916878]]}},
{"type":"Feature","properties":{"id":407,"canal_id":null,"canal_type":null,"remarks":"MC3 LATERAL A","canal_leng":null,"canal_widt":null,"station_no":null,"station__1":null,"station__2":null,"canal":null,"canaltype":null},"geometry":{"type":"LineString","coordinates":[[121.299722214831519,13.184359740150231],[121.299727058589937,13.184355252716417],[121.301425159896681,13.182782052879499],[121.301537461615993,13.182699729192848],[121.301888959102016,13.182698142859937],[121.301996378185905,13.18266633518046],[121.302566480175599,13.182715998243401],[121.303112140252694,13.1827352207307],[121.3039732233905,13.182743305473636],[121.304550649235082,13.18278013508777],[121.30509824103062,13.182833881618411],[121.305187625667401,13.182906029254754],[121.305281812775107,13.18298277156558],[121.305928129183513,13.182953868312659],[121.306101187367815,13.1829446956888],[121.306556219810304,13.182954515883086],[121.307285253133102,13.182908719018792],[121.3076073242284,13.18289401829125],[121.307981600514182,13.182880176080189],[121.308484918472999,13.182884689201211],[121.308882316823599,13.182857297891648],[121.309150231445585,13.182838309746622]]}},
{"type":"Feature","properties":{"id":392,"canal_id":null,"canal_type":null,"remarks":"SUPPLY CANAL","canal_leng":null,"canal_widt":null,"station_no":null,"station__1":null,"station__2":null,"canal":null,"canaltype":null},"geometry":{"type":"LineString","coordinates":[[121.252326076757299,13.242490563003107],[121.252296222305006,13.24239149087977],[121.252150570676008,13.24226438371057],[121.252005216098794,13.242156948348141],[121.251832459210121,13.24203439316833],[121.251617634021315,13.24192396511169],[121.251466632736609,13.241790295344151],[121.251267527510706,13.241649712303152],[121.2509751544371,13.241504718287031],[121.250832795944802,13.241446032004468],[121.250697604374011,13.241430302088069],[121.250609192358979,13.241416855858789],[121.250462534020102,13.241441650947886],[121.250228457545106,13.241432842427129],[121.250160242542805,13.24139147023446],[121.250088292943317,13.241301222173583],[121.249998065180719,13.241263336257786],[121.249847811279196,13.241149447240279],[121.249710345810811,13.241081909624986],[121.249425481046714,13.24093713852969],[121.249271505582101,13.24089157937045],[121.248971457433086,13.24079309079929],[121.248813809702796,13.240788436753061],[121.248693971997497,13.240808453876628],[121.248499991533293,13.24081115533931],[121.248345013347603,13.24082734888778],[121.248255579427919,13.240864067014549],[121.248147673895616,13.240898373879419],[121.248054158771311,13.240936496791839],[121.247873282323312,13.241008588894751],[121.247733155150385,13.241036973154481],[121.247642728075107,13.24109674144262],[121.247521402588518,13.241139636833388],[121.247298413469807,13.241125063279307],[121.24715493328371,13.241108859022791],[121.2470468670207,13.240975280641861],[121.24692516686288,13.240803023597453],[121.246738558523404,13.240333834208789],[121.246712558756712,13.240183290264728],[121.24657506098491,13.240003158378348],[121.246443451225218,13.239904118403768],[121.246284177115911,13.239867550436911],[121.246101124418715,13.239872296793511],[121.245965163290194,13.23990658015329],[121.245813346011602,13.239955356473249],[121.245661899647104,13.239953993927051],[121.245569221369806,13.239891949969696],[121.245452763665597,13.239762306232871],[121.245291294824995,13.239662345073119],[121.245113661276818,13.23963872191359],[121.244976035951794,13.23969088105676],[121.244859288559198,13.239789353128002],[121.244629137886918,13.240070408382437],[121.244535159837312,13.240143086786798],[121.244402663213904,13.24017873722747],[121.244287272757319,13.240200021683671],[121.244187652854094,13.240179860723858],[121.24411334687268,13.240212322562181],[121.244106951456899,13.24021652909499],[121.244024121055801,13.240318354494411],[121.243935753458388,13.240463898394419],[121.243836065993804,13.240587696732437],[121.243784321440899,13.24065631500369],[121.243490254455011,13.24084745414755],[121.243420840601019,13.240836494719428],[121.243325223732413,13.240760678330197],[121.243214184264218,13.240622045359968],[121.243159832564189,13.240530079898162],[121.243076853379904,13.240480614476549],[121.24298285487211,13.24046391296376],[121.242876394754177,13.240560662881947],[121.242858971655806,13.240574418913948],[121.2427975250706,13.240680406117891],[121.242643636470504,13.240739492901746],[121.242450668638398,13.24074217592679],[121.242421830945815,13.240668107904849],[121.242312758723813,13.240491810775529],[121.242229165258792,13.24039555969542],[121.242120310321894,13.240308773687728],[121.24200853005469,13.240220407775201],[121.241192963694701,13.239715255181034]]}},
{"type":"Feature","properties":{"id":384,"canal_id":null,"canal_type":null,"remarks":"MAPALO LATERAL AN","canal_leng":null,"canal_widt":null,"station_no":null,"station__1":null,"station__2":null,"canal":null,"canaltype":null},"geometry":{"type":"LineString","coordinates":[[121.2545100114625,13.249258016836269],[121.25461970856442,13.249276621077007],[121.256979919044198,13.25079034493581],[121.257710004458701,13.251279467306938],[121.258112838665781,13.251564920999288],[121.258196576586812,13.251681913629959],[121.258577803201689,13.252778150645856],[121.258888406392387,13.253656643544248],[121.259338132943796,13.254908024751908],[121.259591119096513,13.255628731086457],[121.259824269859479,13.256470660623874],[121.260164269201894,13.257537515019356],[121.260290720378904,13.257707678083699],[121.260471498811199,13.258169940834332],[121.260721519945008,13.258562558267359],[121.261221960146003,13.259183887545701],[121.261620029599399,13.259782411474401],[121.262384685342482,13.260637551567568],[121.263638044853096,13.261648446976819],[121.264586969551218,13.262455394074694],[121.265334694122515,13.26287514025962],[121.267063744651367,13.26377844996825],[121.267141901944811,13.263819281353708],[121.26892007357722,13.264798509399061],[121.269159674636413,13.265014700439032],[121.269332323749794,13.265452415904509],[121.269747660591079,13.265663438557441],[121.269938794143101,13.265723507322321],[121.270150486059507,13.26580613380602],[121.270632850701702,13.266600342719507],[121.271153923321506,13.267403732679609],[121.271845920398619,13.268156380348429],[121.272087036838499,13.268373776926962],[121.272769598991218,13.26937091258562],[121.273362220920106,13.270459928797219],[121.274005226478593,13.271571391621428],[121.274560645678207,13.272479906929478],[121.27521999484118,13.273545743728198],[121.275848574712015,13.274524184775922],[121.276603956948719,13.275733985660999],[121.277208670953897,13.276690709064937],[121.277812591283706,13.277636057383058],[121.278605150930005,13.27902236897801],[121.279341947697318,13.280332922544517],[121.280421715175294,13.28212999146327],[121.281234608679597,13.283514757409039],[121.282062135396416,13.284924645819199],[121.28239592461162,13.285464297476308],[121.282687818254004,13.286002705809468],[121.28349968278421,13.28732552362815],[121.28442959904821,13.288870549473716],[121.28516444908,13.290124105026646],[121.286090136534597,13.291710142496168],[121.286678111066095,13.292692115246592],[121.287341293513293,13.293816601293917],[121.287872148691818,13.294625740345252],[121.288443861496816,13.295610263532879],[121.288988540312005,13.29652912619331],[121.28958565913851,13.297439890297442],[121.290741791722212,13.29933863148691],[121.292516531989918,13.302382795004888],[121.294357031996398,13.305808464073882],[121.296086991993107,13.308936060740871]]}}
]
}
